{"type":"Topology","bbox":[-5.138001239929,41.362164776515,9.5592262719626,51.08854370897],"transform":{"scale":[0.0014698697381629764,0.0009727351667621761],"translate":[-5.138001239929,41.362164776515]},"objects":{"departements":{"type":"GeometryCollection","geometries":[{"type":"Polygon","arcs":[[0,1,2,3,4,5,6],[7]],"properties":{"harmonised_code":"M_02","harmonised_name":"Aisne"}},{"type":"Polygon","arcs":[[8,9,10,11,12]],"properties":{"harmonised_code":"M_10","harmonised_name":"Aube"}},{"type":"Polygon","arcs":[[13,14,15,16]],"properties":{"harmonised_code":"M_14","harmonised_name":"Calvados"}},{"type":"Polygon","arcs":[[17,18,19,20,21,22]],"properties":{"harmonised_code":"M_15","harmonised_name":"Cantal"}},{"type":"Polygon","arcs":[[23,24,25,26,27,28,29]],"properties":{"harmonised_code":"M_28","harmonised_name":"Eure-et-Loir"}},{"type":"MultiPolygon","arcs":[[[30,31]],[[32,33,34,35,36,37,38]]],"properties":{"harmonised_code":"M_35","harmonised_name":"Ille-et-Vilaine"}},{"type":"Polygon","arcs":[[39,40,41,42,43,44]],"properties":{"harmonised_code":"M_39","harmonised_name":"Jura"}},{"type":"Polygon","arcs":[[45,46,47,48,49]],"properties":{"harmonised_code":"M_40","harmonised_name":"Landes"}},{"type":"Polygon","arcs":[[50,51,52,53,54,55,56]],"properties":{"harmonised_code":"M_42","harmonised_name":"Loire"}},{"type":"Polygon","arcs":[[57,58,59,60,61,62,-27]],"properties":{"harmonised_code":"M_45","harmonised_name":"Loiret"}},{"type":"Polygon","arcs":[[63,64,65,66,-47,67]],"properties":{"harmonised_code":"M_47","harmonised_name":"Lot-et-Garonne"}},{"type":"Polygon","arcs":[[68,69,70,71,72,73],[74]],"properties":{"harmonised_code":"M_55","harmonised_name":"Meuse"}},{"type":"Polygon","arcs":[[-16,75,-30,76,77,78]],"properties":{"harmonised_code":"M_61","harmonised_name":"Orne"}},{"type":"Polygon","arcs":[[79,80,81],[82]],"properties":{"harmonised_code":"M_62","harmonised_name":"Pas-de-Calais"}},{"type":"Polygon","arcs":[[83,-56,84,-18,85,86]],"properties":{"harmonised_code":"M_63","harmonised_name":"Puy-de-Dôme"}},{"type":"Polygon","arcs":[[87,88,89,90,91]],"properties":{"harmonised_code":"M_67","harmonised_name":"Bas-Rhin"}},{"type":"Polygon","arcs":[[-89,92,93,94]],"properties":{"harmonised_code":"M_68","harmonised_name":"Haut-Rhin"}},{"type":"Polygon","arcs":[[95,96,97,98]],"properties":{"harmonised_code":"M_76","harmonised_name":"Seine-Maritime"}},{"type":"Polygon","arcs":[[99,-13,100,101,-60]],"properties":{"harmonised_code":"M_89","harmonised_name":"Yonne"}},{"type":"Polygon","arcs":[[102,103,104,105,106]],"properties":{"harmonised_code":"M_93","harmonised_name":"Seine-Saint-Denis"}},{"type":"Polygon","arcs":[[107,108,109,110,111,112]],"properties":{"harmonised_code":"M_04","harmonised_name":"Alpes-de-Haute-Provence"}},{"type":"Polygon","arcs":[[113,114,-108,115,116]],"properties":{"harmonised_code":"M_05","harmonised_name":"Hautes-Alpes"}},{"type":"Polygon","arcs":[[-54,117,118,119,120,121,122]],"properties":{"harmonised_code":"M_07","harmonised_name":"Ardèche"}},{"type":"Polygon","arcs":[[123,-69,124,-3]],"properties":{"harmonised_code":"M_08","harmonised_name":"Ardennes"}},{"type":"Polygon","arcs":[[125,126,127,128]],"properties":{"harmonised_code":"M_09","harmonised_name":"Ariège"}},{"type":"MultiPolygon","arcs":[[[129]],[[130,131,132,133,134,135]],[[136]]],"properties":{"harmonised_code":"M_17","harmonised_name":"Charente-Maritime"}},{"type":"Polygon","arcs":[[137,-86,-23,138,139,140]],"properties":{"harmonised_code":"M_19","harmonised_name":"Corrèze"}},{"type":"Polygon","arcs":[[141,-140,142,-64,143,-134,144]],"properties":{"harmonised_code":"M_24","harmonised_name":"Dordogne"}},{"type":"Polygon","arcs":[[145,-98,146,147,148,-24,-76,-15]],"properties":{"harmonised_code":"M_27","harmonised_name":"Eure"}},{"type":"Polygon","arcs":[[149,150,151,152,153]],"properties":{"harmonised_code":"M_37","harmonised_name":"Indre-et-Loire"}},{"type":"Polygon","arcs":[[154,-122,155,156,-20]],"properties":{"harmonised_code":"M_48","harmonised_name":"Lozère"}},{"type":"Polygon","arcs":[[-61,-102,157,158,159,160,161,162]],"properties":{"harmonised_code":"M_58","harmonised_name":"Nièvre"}},{"type":"MultiPolygon","arcs":[[[-8]],[[163,-6,164,165,-147,-97]]],"properties":{"harmonised_code":"M_60","harmonised_name":"Oise"}},{"type":"Polygon","arcs":[[166,167,168,-49],[169],[170]],"properties":{"harmonised_code":"M_64","harmonised_name":"Pyrénées-Atlantiques"}},{"type":"Polygon","arcs":[[171,172,173,-52]],"properties":{"harmonised_code":"M_69","harmonised_name":"Rhône"}},{"type":"Polygon","arcs":[[174,-159,175,-44,176,-172,-51,177,-161]],"properties":{"harmonised_code":"M_71","harmonised_name":"Saône-et-Loire"}},{"type":"Polygon","arcs":[[-105,178,179]],"properties":{"harmonised_code":"M_75","harmonised_name":"Paris"}},{"type":"Polygon","arcs":[[180,181,-25,-149,182]],"properties":{"harmonised_code":"M_78","harmonised_name":"Yvelines"}},{"type":"Polygon","arcs":[[183,184,185,186,187]],"properties":{"harmonised_code":"M_81","harmonised_name":"Tarn"}},{"type":"Polygon","arcs":[[188,189,-188,190,191,-66]],"properties":{"harmonised_code":"M_82","harmonised_name":"Tarn-et-Garonne"}},{"type":"MultiPolygon","arcs":[[[192]],[[193]],[[194]],[[195,-111,196,197,198]]],"properties":{"harmonised_code":"M_83","harmonised_name":"Var"}},{"type":"MultiPolygon","arcs":[[[199]],[[200,201,-131,202,203]],[[204]]],"properties":{"harmonised_code":"M_85","harmonised_name":"Vendée"}},{"type":"Polygon","arcs":[[205,206,207,-141,-142,208]],"properties":{"harmonised_code":"M_87","harmonised_name":"Haute-Vienne"}},{"type":"Polygon","arcs":[[-72,209,-90,-95,210,211,212]],"properties":{"harmonised_code":"M_88","harmonised_name":"Vosges"}},{"type":"Polygon","arcs":[[-106,-180,213,214,-181,215]],"properties":{"harmonised_code":"M_92","harmonised_name":"Hauts-de-Seine"}},{"type":"Polygon","arcs":[[-162,-178,-57,-84,216,217]],"properties":{"harmonised_code":"M_03","harmonised_name":"Allier"}},{"type":"MultiPolygon","arcs":[[[218]],[[219,-197,-110]]],"properties":{"harmonised_code":"M_06","harmonised_name":"Alpes-Maritimes"}},{"type":"Polygon","arcs":[[220,-186,221,222,223,-126]],"properties":{"harmonised_code":"M_11","harmonised_name":"Aude"}},{"type":"MultiPolygon","arcs":[[[224]],[[225,226]]],"properties":{"harmonised_code":"M_2A","harmonised_name":"Corse-du-Sud"}},{"type":"MultiPolygon","arcs":[[[227]],[[228]],[[-31,229,-39,230,231,232]]],"properties":{"harmonised_code":"M_22","harmonised_name":"Côtes-d'Armor"}},{"type":"Polygon","arcs":[[233,-217,-87,-138,-208,234]],"properties":{"harmonised_code":"M_23","harmonised_name":"Creuse"}},{"type":"Polygon","arcs":[[235,236,-41,237]],"properties":{"harmonised_code":"M_25","harmonised_name":"Doubs"}},{"type":"MultiPolygon","arcs":[[[238]],[[239]],[[-232,240,241]]],"properties":{"harmonised_code":"M_29","harmonised_name":"Finistère"}},{"type":"Polygon","arcs":[[-156,-121,242,243,244,245,246]],"properties":{"harmonised_code":"M_30","harmonised_name":"Gard"}},{"type":"Polygon","arcs":[[-135,-144,-68,-46,247]],"properties":{"harmonised_code":"M_33","harmonised_name":"Gironde"}},{"type":"Polygon","arcs":[[248,249,-235,-207,250,-152]],"properties":{"harmonised_code":"M_36","harmonised_name":"Indre"}},{"type":"Polygon","arcs":[[251,-117,252,-118,-53,-174,253]],"properties":{"harmonised_code":"M_38","harmonised_name":"Isère"}},{"type":"Polygon","arcs":[[-125,-74,254,-10,255,-4]],"properties":{"harmonised_code":"M_51","harmonised_name":"Marne"}},{"type":"Polygon","arcs":[[-255,-73,-213,256,257,-11]],"properties":{"harmonised_code":"M_52","harmonised_name":"Haute-Marne"}},{"type":"Polygon","arcs":[[-92,258,259]],"properties":{"harmonised_code":"M_57","harmonised_name":"Moselle"}},{"type":"MultiPolygon","arcs":[[[-171]],[[-170]],[[260,261,262,-168]]],"properties":{"harmonised_code":"M_65","harmonised_name":"Hautes-Pyrénées"}},{"type":"Polygon","arcs":[[-224,263,-127],[264]],"properties":{"harmonised_code":"M_66","harmonised_name":"Pyrénées-Orientales"}},{"type":"Polygon","arcs":[[265,-114,-252,266,267]],"properties":{"harmonised_code":"M_73","harmonised_name":"Savoie"}},{"type":"Polygon","arcs":[[-268,268,269]],"properties":{"harmonised_code":"M_74","harmonised_name":"Haute-Savoie"}},{"type":"Polygon","arcs":[[270,-103,271,-165,-5,-256,-9,-100,-59,272]],"properties":{"harmonised_code":"M_77","harmonised_name":"Seine-et-Marne"}},{"type":"MultiPolygon","arcs":[[[273]],[[-112,-196,274,-243,-120,275]]],"properties":{"harmonised_code":"M_84","harmonised_name":"Vaucluse"}},{"type":"Polygon","arcs":[[276,-153,-251,-206,277,278]],"properties":{"harmonised_code":"M_86","harmonised_name":"Vienne"}},{"type":"Polygon","arcs":[[-179,-104,-271,279,-214]],"properties":{"harmonised_code":"M_94","harmonised_name":"Val-de-Marne"}},{"type":"Polygon","arcs":[[-177,-43,280,-269,-267,-254,-173]],"properties":{"harmonised_code":"M_01","harmonised_name":"Ain"}},{"type":"Polygon","arcs":[[-157,-247,281,-184,-190,282,-21]],"properties":{"harmonised_code":"M_12","harmonised_name":"Aveyron"}},{"type":"Polygon","arcs":[[-275,-199,283,-244],[284]],"properties":{"harmonised_code":"M_13","harmonised_name":"Bouches-du-Rhône"}},{"type":"Polygon","arcs":[[285,-278,-209,-145,-133]],"properties":{"harmonised_code":"M_16","harmonised_name":"Charente"}},{"type":"Polygon","arcs":[[-62,-163,-218,-234,-250,286]],"properties":{"harmonised_code":"M_18","harmonised_name":"Cher"}},{"type":"Polygon","arcs":[[-226,287]],"properties":{"harmonised_code":"M_2B","harmonised_name":"Haute-Corse"}},{"type":"MultiPolygon","arcs":[[[-160,-175]],[[-12,-258,288,-45,-176,-158,-101]]],"properties":{"harmonised_code":"M_21","harmonised_name":"Côte-d'Or"}},{"type":"Polygon","arcs":[[-253,-116,-113,-276,-119],[-274]],"properties":{"harmonised_code":"M_26","harmonised_name":"Drôme"}},{"type":"Polygon","arcs":[[-191,-187,-221,-129,289,-262,290]],"properties":{"harmonised_code":"M_31","harmonised_name":"Haute-Garonne"}},{"type":"Polygon","arcs":[[-67,-192,-291,-261,-167,-48]],"properties":{"harmonised_code":"M_32","harmonised_name":"Gers"}},{"type":"Polygon","arcs":[[-246,291,-222,-185,-282]],"properties":{"harmonised_code":"M_34","harmonised_name":"Hérault"}},{"type":"Polygon","arcs":[[-55,-123,-155,-19,-85]],"properties":{"harmonised_code":"M_43","harmonised_name":"Haute-Loire"}},{"type":"Polygon","arcs":[[-204,292,293,-37,294]],"properties":{"harmonised_code":"M_44","harmonised_name":"Loire-Atlantique"}},{"type":"Polygon","arcs":[[-139,-22,-283,-189,-65,-143]],"properties":{"harmonised_code":"M_46","harmonised_name":"Lot"}},{"type":"Polygon","arcs":[[-36,295,296,-154,-277,297,-201,-295]],"properties":{"harmonised_code":"M_49","harmonised_name":"Maine-et-Loire"}},{"type":"Polygon","arcs":[[-17,-79,298,-34,299]],"properties":{"harmonised_code":"M_50","harmonised_name":"Manche"}},{"type":"MultiPolygon","arcs":[[[300]],[[301]],[[302]],[[303]],[[304]],[[305]],[[-38,-294,306,-241,-231]]],"properties":{"harmonised_code":"M_56","harmonised_name":"Morbihan"}},{"type":"MultiPolygon","arcs":[[[-83]],[[307,-1,308,-80]]],"properties":{"harmonised_code":"M_59","harmonised_name":"Nord"}},{"type":"Polygon","arcs":[[-212,309,-238,-40,-289,-257]],"properties":{"harmonised_code":"M_70","harmonised_name":"Haute-Saône"}},{"type":"Polygon","arcs":[[-77,-29,310,-150,-297,311]],"properties":{"harmonised_code":"M_72","harmonised_name":"Sarthe"}},{"type":"Polygon","arcs":[[312,-81,-309,-7,-164,-96]],"properties":{"harmonised_code":"M_80","harmonised_name":"Somme"}},{"type":"Polygon","arcs":[[-215,-280,-273,-58,-26,-182]],"properties":{"harmonised_code":"M_91","harmonised_name":"Essonne"}},{"type":"Polygon","arcs":[[-166,-272,-107,-216,-183,-148]],"properties":{"harmonised_code":"M_95","harmonised_name":"Val-d'Oise"}},{"type":"Polygon","arcs":[[-28,-63,-287,-249,-151,-311]],"properties":{"harmonised_code":"M_41","harmonised_name":"Loir-et-Cher"}},{"type":"Polygon","arcs":[[-78,-312,-296,-35,-299]],"properties":{"harmonised_code":"M_53","harmonised_name":"Mayenne"}},{"type":"MultiPolygon","arcs":[[[-75]],[[313,-259,-91,-210,-71]]],"properties":{"harmonised_code":"M_54","harmonised_name":"Meurthe-et-Moselle"}},{"type":"Polygon","arcs":[[-298,-279,-286,-132,-202]],"properties":{"harmonised_code":"M_79","harmonised_name":"Deux-Sèvres"}},{"type":"Polygon","arcs":[[-211,-94,314,-236,-310]],"properties":{"harmonised_code":"M_90","harmonised_name":"Territoire de Belfort"}}]}},"arcs":[[[5654,8892],[123,25],[94,-18],[36,36],[47,-29],[69,45],[82,-21],[35,-40],[70,32],[-6,-47],[109,-17]],[[6313,8858],[62,-21]],[[6375,8837],[15,-56],[-31,-125],[28,-26],[-84,-81],[-19,-51],[-50,-6],[35,-53],[-24,-64],[5,-106]],[[6250,8269],[-9,-47],[-76,47],[-188,-93],[7,-107],[64,-34],[-88,-28],[28,-117],[-64,-126],[-57,-64]],[[5867,7700],[-72,23],[-5,48],[-144,106],[3,77],[-64,19]],[[5585,7973],[31,74],[-79,25],[18,63],[-42,47],[88,58],[31,204],[-32,48],[17,86]],[[5617,8578],[-30,174],[88,111],[-21,29]],[[5530,8068],[0,0]],[[5819,7225],[-7,142],[103,95]],[[5915,7462],[59,-87],[122,-21],[22,63],[64,27],[89,101],[147,12],[14,-100],[59,-56],[97,-37],[85,7]],[[6673,7371],[-12,-63],[140,-213],[-27,-165],[-60,15],[-18,-100]],[[6696,6845],[-83,9],[-15,-59],[-171,-11],[-10,-37]],[[6417,6747],[-87,36],[-37,-34],[-148,2],[14,48],[-51,29],[-24,101],[-59,75],[-34,-37],[-63,51],[28,85],[-81,100],[-56,22]],[[2734,8217],[28,34],[94,7],[148,-49],[209,-12],[129,-55],[144,40],[85,75],[127,37]],[[3698,8294],[0,-119],[59,-30],[-42,-34],[49,-45],[3,-111],[-22,-49],[48,-46],[-17,-59]],[[3776,7801],[-194,2],[-48,-51],[-132,-86],[-130,39],[-12,-36],[-80,51],[-149,-51],[-108,-72]],[[2923,7597],[-85,35],[-91,4],[-37,48],[96,82],[-29,43],[77,10],[54,68],[-16,98],[-49,33],[40,43],[-83,0],[-77,69],[11,87]],[[5202,4232],[123,-42],[18,-58],[68,20],[72,-36],[65,-81],[59,69]],[[5607,4104],[-14,-66],[95,-19],[62,-192],[-11,-50],[43,-67]],[[5782,3710],[-79,-37],[-42,-73],[-28,40],[-65,-107],[-44,-158]],[[5524,3375],[-29,34],[-13,119],[-41,83],[-59,-20],[-24,88],[-92,-100],[-31,-126],[-45,-66],[-97,-16],[-14,29],[-82,-55]],[[4997,3345],[-40,110],[12,92],[-56,77],[-14,92]],[[4899,3716],[48,9],[-26,72],[52,27],[42,88],[-26,55],[106,110],[19,89],[98,-33],[-10,99]],[[4050,7513],[203,84],[5,38],[70,-32],[103,25],[-9,53],[63,38],[32,72]],[[4517,7791],[55,-88],[-2,-158],[88,-127],[53,-25],[10,-90],[82,-9]],[[4803,7294],[37,-60],[12,-115]],[[4852,7119],[-16,-119],[-31,3],[-40,-93],[-164,-17],[-76,-40],[5,-47]],[[4530,6806],[-60,27],[-45,-56],[-106,15],[-67,115],[-70,2],[-8,46],[-106,-25]],[[4068,6930],[49,33],[-79,61]],[[4038,7024],[23,17],[-48,89],[17,44],[67,17],[63,84],[-7,86],[-79,62],[-24,90]],[[2130,7406],[-79,39]],[[2051,7445],[51,34],[28,-73]],[[2170,7378],[-55,111],[118,59],[7,-90],[55,-14],[132,24]],[[2427,7468],[55,-141],[77,-32],[83,87],[125,-35]],[[2767,7347],[-5,-98],[23,-88],[-38,-71],[54,-271],[-91,-30],[-57,-160]],[[2653,6629],[-5,-35]],[[2648,6594],[-98,53],[-138,-53],[-42,-66],[-218,-19],[-83,-64]],[[2069,6445],[-21,134],[63,72],[-55,51],[25,39],[-39,61],[-99,13],[27,63],[-31,83]],[[1939,6961],[69,116],[117,34],[72,208],[-27,59]],[[7250,6109],[38,-52],[85,11]],[[7373,6068],[87,-126],[-59,-114],[155,-52],[38,-129],[87,-36],[35,-49],[-91,-85],[23,-41],[-37,-43],[61,-52]],[[7672,5341],[-51,-145]],[[7621,5196],[-132,-155],[-98,-5],[-57,83],[-68,-73],[-58,4],[13,42],[-70,38],[-43,97]],[[7108,5227],[72,27],[-38,51],[55,118],[-34,137],[-42,44],[89,43],[-134,83],[-5,45]],[[7071,5775],[45,96],[44,9],[90,229]],[[2642,3192],[101,37],[14,30],[71,-51],[-33,-62],[75,22],[50,-26],[148,25],[1,-46],[166,-115],[-5,-79],[114,-4],[-2,61],[58,-39]],[[3400,2945],[8,-77],[179,-29],[-40,-145]],[[3547,2694],[-29,-85],[-54,63],[-123,-52],[25,-37],[-25,-68],[22,-74],[-35,-27],[-21,-97],[23,-32]],[[3330,2285],[-63,-35],[-76,47],[-75,-55],[-107,-2],[-36,39],[-60,-38],[-93,-2],[0,-36],[-121,42],[-82,-49],[-86,-1],[-73,33]],[[2458,2228],[52,116],[93,517],[39,331]],[[6149,5051],[-7,-63],[67,-46],[149,26],[51,-39],[72,65]],[[6481,4994],[34,-54],[-79,-39],[-46,-79],[95,-193],[6,-124],[-25,-75],[69,-87],[150,-29],[-22,-74],[69,-32]],[[6732,4208],[-1,-92]],[[6731,4116],[-96,-58],[-8,-59],[-81,-16]],[[6546,3983],[-66,20],[-14,83],[-95,54],[-56,-5],[-87,-57],[-25,47],[-56,-18]],[[6147,4107],[1,55],[52,39],[-14,110],[-89,79],[-29,94],[-62,70],[44,97],[-41,46]],[[6009,4697],[10,44],[79,23],[-12,170],[-27,80],[90,37]],[[4852,7119],[116,12],[26,47],[29,-47],[46,33],[61,-10]],[[5130,7154],[15,-63],[56,-22],[0,-84],[-34,-21],[141,-14],[92,47],[15,-40],[78,35]],[[5493,6992],[64,-31],[14,-63],[50,-42],[3,-62],[-80,-68],[9,-122],[-114,-26],[-5,-36],[71,-82],[16,-79]],[[5521,6381],[-81,-17],[11,-33]],[[5451,6331],[-52,-24],[-44,42],[-33,-57],[-83,92],[-85,39],[-44,-25],[-91,36]],[[5019,6434],[-25,59],[-176,-19],[-68,27],[-31,-49],[-40,24],[-29,79],[-101,32],[-10,52],[37,58],[-46,109]],[[3698,3495],[46,-102],[34,-17],[146,62],[19,-29],[126,-15],[18,-68],[54,44],[86,-65]],[[4227,3305],[-45,-100],[37,-104]],[[4219,3101],[-98,6],[-34,-77],[55,-34],[-48,-151],[-62,15],[-32,-81]],[[4000,2779],[-51,-41],[-47,54],[-94,-23],[-106,-64],[-77,22],[-78,-33]],[[3400,2945],[71,46],[-29,84],[64,14],[-21,142],[135,160],[-56,42],[86,65],[48,-3]],[[6864,8095],[68,39],[-17,63],[43,36],[14,87],[-32,45],[38,97],[98,-53],[89,77]],[[7165,8486],[53,-123]],[[7218,8363],[2,-102],[109,41],[66,-79],[20,-83],[-27,-33],[29,-144],[37,3],[24,-70],[-33,-61],[29,-31],[-68,-39],[23,-91],[-43,-97],[31,-32],[1,-85],[-34,-59],[34,-67]],[[7418,7334],[-102,-58],[-99,-19]],[[7217,7257],[-47,51],[-276,155],[-5,64]],[[6889,7527],[1,60],[-68,77],[31,24],[1,84],[52,15],[16,90],[-66,165],[8,53]],[[7207,8346],[0,0]],[[3776,7801],[5,-64],[121,-3],[9,-56],[84,-49],[-2,-80],[57,-36]],[[4038,7024],[-50,4],[-28,51],[-100,2],[-20,47],[-84,39],[-18,128],[-94,16],[-106,-94],[-80,0]],[[3458,7217],[2,73],[-66,5],[3,71],[-67,42],[-24,-63],[-51,-24],[-103,23],[-101,-63],[-11,43],[-60,-51],[-70,66]],[[2910,7339],[59,63],[25,128],[-71,67]],[[4902,9915],[21,-9],[105,-216],[108,-22],[-48,-26],[106,-113],[125,5],[40,-28],[48,62],[41,-39],[-55,-50],[8,-57],[112,-15],[76,-74],[-64,-40],[69,-93],[-45,-27],[116,-58],[-67,-180]],[[5598,8935],[-97,0],[-62,-31],[1,56],[-65,-40],[12,74],[-42,-23],[-114,55],[-119,-34],[9,48],[72,40],[-29,37],[-249,-30],[-6,49],[-89,39],[-96,75],[-92,-30],[-20,22]],[[4612,9242],[-57,54],[19,136],[-15,193],[28,69],[-16,78],[101,72],[230,71]],[[5536,9013],[0,0]],[[5241,4915],[51,-25],[63,107],[52,-27],[7,46],[69,9],[-7,-75],[72,-77],[48,11],[54,-49],[172,9],[30,-68],[85,17],[72,-96]],[[6147,4107],[-61,35],[-24,-43],[-63,36],[-42,-48],[-32,66],[-228,-8],[-90,-41]],[[5202,4232],[5,77],[-34,48],[43,84],[-25,57]],[[5191,4498],[-71,92],[71,38],[81,110],[-42,147],[11,30]],[[8690,7908],[112,10],[47,-31],[45,24],[106,-70],[84,-15],[-80,-169],[-85,-54],[-6,-38],[-84,-82],[-23,-131],[-47,-113],[2,-84],[-110,-207]],[[8651,6948],[-73,41],[4,44],[-108,47],[-29,58],[-52,5]],[[8393,7143],[-82,42],[31,167]],[[8342,7352],[-30,23]],[[8312,7375],[95,18],[58,110],[-30,35],[35,75],[-110,79],[-16,-45],[-54,21],[33,42],[-89,44],[46,53],[45,125],[22,-75],[110,-32],[23,-31],[82,23],[62,-34],[66,125]],[[8651,6948],[-4,-93],[34,-60],[-44,-95],[-24,-223],[48,-62],[-61,-62],[3,-48],[-71,-61],[-107,-14],[-78,83]],[[8347,6313],[-30,92],[-55,10],[29,82],[-22,63],[-104,43],[-12,39]],[[8153,6642],[50,28],[-13,42],[29,110],[40,25],[39,118],[95,178]],[[4434,8947],[203,-151],[72,-165]],[[4709,8631],[-64,-65],[43,-14],[-39,-84],[64,-99],[-51,-96]],[[4662,8273],[-190,47],[-85,-27],[-26,-85],[-76,-4],[-114,-92],[-51,136],[-82,33],[-90,-16],[-95,78],[-127,-38]],[[3726,8305],[-148,23],[-38,51],[71,183],[103,52],[171,111],[134,23],[132,50],[70,5],[87,44],[126,100]],[[5493,6992],[73,112],[4,90],[215,13],[34,18]],[[6417,6747],[-23,-84],[44,4],[5,-93],[-63,-41],[19,-37],[-63,-131],[-41,-40],[3,-73],[-36,-44],[27,-63]],[[6289,6145],[-53,-25],[-39,65],[-166,20],[-33,49],[-62,11],[-50,73],[-114,-56],[-152,70],[-1,38],[-98,-9]],[[5232,7862],[34,-83],[-29,-45],[22,-80]],[[5259,7654],[-66,55],[-54,-12]],[[5139,7697],[-21,54],[-44,-1]],[[5074,7750],[-20,52]],[[5054,7802],[52,23],[63,-19],[63,56]],[[7357,2909],[54,19],[105,-20],[-58,90],[60,-31],[-11,72],[39,79],[137,69],[50,-83],[4,85],[63,-1],[24,60],[35,-54],[149,-23],[35,97],[180,117]],[[8223,3385],[-10,-81],[-54,-48],[61,-100],[-39,-73]],[[8181,3083],[-62,-46],[-74,-151],[40,-130],[133,-150],[-75,22],[-58,-48],[-50,17],[27,-76],[-51,-26]],[[8011,2495],[-76,18],[-76,-15],[-39,-57],[-95,65],[-75,-57],[-58,-78],[-65,91],[-52,-38],[-63,10]],[[7412,2434],[-70,98],[-71,27],[39,64],[-64,33],[22,128],[-31,47]],[[7237,2831],[120,78]],[[7755,3870],[50,-4],[21,-53],[82,-16],[-3,40],[101,15]],[[8006,3852],[30,-92],[46,-3],[6,-112],[75,-56],[99,-14],[-4,-52],[52,-111],[-61,9],[-26,-36]],[[7357,2909],[7,77],[-37,63],[-94,9],[-51,91],[39,-6],[-13,79],[100,-32],[41,38],[-45,42],[30,111],[101,2],[7,55]],[[7442,3438],[18,55],[42,-11],[168,118],[149,-9],[3,88],[-28,65],[-78,9],[39,117]],[[6731,4116],[30,-69]],[[6761,4047],[26,-302],[33,-70],[-31,-97],[-51,-66],[9,-127],[-58,-116],[3,-92],[-32,-126]],[[6660,3051],[-1,-61]],[[6659,2990],[-100,71],[-42,-57],[-71,57],[-53,-77],[-90,75],[-51,-21],[11,90],[-47,56]],[[6216,3184],[-36,118],[-28,19],[-29,155]],[[6123,3476],[57,83],[64,50],[79,1],[45,90],[61,11],[24,106],[65,68],[28,98]],[[6375,8837],[146,-21],[165,59],[9,103],[70,59],[50,-1],[-60,-199],[63,-64],[-19,-107],[97,8],[65,-37],[49,-73],[70,3],[85,-81]],[[6864,8095],[-48,26],[-132,-5],[-42,-22],[-17,55],[-104,-17],[-95,57],[-40,56],[-136,24]],[[4644,1965],[15,-86],[163,-72],[24,-96],[1,-160],[-86,-44],[65,-94],[69,20],[74,-95]],[[4969,1338],[-112,-2],[-20,-46],[-126,-45]],[[4711,1245],[-33,39],[-175,41],[-31,-46],[-53,116],[-133,-8],[-59,76],[-101,4],[-47,38]],[[4079,1505],[-21,91],[33,44],[71,17],[4,96],[44,74],[50,18],[68,-73],[53,39],[-56,30],[112,79],[-59,34],[32,54],[81,-108],[37,81],[81,-35],[35,19]],[[2488,4984],[129,-25],[10,-40],[-139,65]],[[2727,5087],[137,62],[-22,-49],[143,-19]],[[2985,5081],[-1,-61],[41,-67],[183,-69],[41,-39],[115,-23],[62,-85]],[[3426,4737],[-32,-46],[23,-56],[-28,-94],[-56,24],[-110,-16],[-21,-167],[92,-62],[37,-63],[5,-97],[-52,-23],[57,-67],[81,-33],[-5,-42],[81,-20],[0,-38]],[[3498,3937],[-30,-92]],[[3468,3845],[-140,6],[-80,64],[-13,-28],[-31,140],[-113,43],[-108,1],[-60,116],[-125,144]],[[2798,4331],[-16,46],[-128,88],[-4,78],[75,27],[54,209],[-50,117],[-78,34],[89,106],[-13,51]],[[2645,4609],[-91,109],[-20,98],[113,-58],[40,-107],[-42,-42]],[[4787,4458],[101,67],[100,-67],[87,-31],[30,46],[86,25]],[[4899,3716],[-119,-21],[-77,-34],[-99,113],[-64,13],[-59,-27]],[[4481,3760],[-33,43],[9,65],[-108,36],[16,85],[-26,83],[56,61],[-47,63]],[[4348,4196],[23,47],[43,-23],[89,102],[52,-17],[55,31],[99,103],[78,19]],[[3924,4474],[99,-48],[-16,-51],[41,-43],[40,48],[112,-23],[31,-68],[59,-10],[-33,-38],[91,-45]],[[4481,3760],[-27,-14],[23,-132],[-97,-83],[-8,-84],[-96,-46],[-49,-96]],[[3698,3495],[-38,98],[-33,-37],[-80,-2],[-62,40],[60,218],[-18,44],[-59,-11]],[[3498,3937],[34,36],[50,-18],[95,91],[-12,67],[40,101],[84,25],[44,61],[23,102],[68,72]],[[3698,8294],[28,11]],[[4662,8273],[60,-142],[-67,-40]],[[4655,8091],[-65,-159]],[[4590,7932],[-110,-25],[37,-116]],[[3652,6421],[117,-30],[-25,48],[151,45],[19,26]],[[3914,6510],[150,-18],[19,-80],[38,34],[78,-26],[8,-78],[59,-87],[-26,-121],[46,-58],[42,22],[70,-111]],[[4398,5987],[26,-66],[-90,-111],[-34,28],[-90,-62],[-32,-191],[-32,-59],[-60,11]],[[4086,5537],[-40,82],[-71,77],[-8,73],[-86,29],[22,-47],[-186,-26],[-39,140],[-146,99]],[[3532,5964],[17,123],[43,81],[57,170],[3,83]],[[5782,3710],[80,-166],[178,30],[83,-98]],[[6216,3184],[-77,-73],[45,-62],[-17,-171],[-88,-35],[-81,57],[-30,-62],[-132,6],[-45,43]],[[5791,2887],[-170,92],[20,50],[-23,77],[11,73],[-46,50],[10,57],[-69,89]],[[6289,6145],[20,-105],[65,-40],[-14,-44]],[[6360,5956],[-19,-5]],[[6341,5951],[-45,-28]],[[6296,5923],[-37,-3],[7,-68],[-24,-140],[44,-61],[-26,-72],[-181,-90],[-42,52],[-72,-3]],[[5965,5538],[-117,-100],[-16,62],[-149,-30],[-113,77],[-12,38]],[[5558,5585],[25,85],[5,146],[-36,44],[4,69],[-31,134],[-72,64],[36,112],[-38,92]],[[4709,8631],[44,-58],[58,19],[90,-38],[123,19],[86,-46],[90,-18],[98,-69],[27,55],[75,-5],[46,84],[108,-23],[63,27]],[[5585,7973],[-16,-32],[-131,-17],[-31,28],[-51,-38],[-69,49],[-29,-29]],[[5258,7934],[-102,68],[-188,21],[-57,45],[-133,-49],[-88,12],[-35,60]],[[3330,2285],[100,-3]],[[3430,2282],[36,-176],[36,12],[11,-83],[-64,-169],[-34,3],[-49,-71],[1,-61],[-67,-48],[-18,-160]],[[3282,1529],[-54,-51],[-79,26],[-42,-43],[-22,51],[-86,65],[-15,73],[-132,-13],[-41,35],[-206,82],[-31,-41],[-79,65],[39,39],[21,127],[-84,41],[-70,-42],[-10,55],[-72,-10],[-42,80],[83,15],[98,145]],[[3426,2052],[0,0]],[[3425,1933],[0,0]],[[6481,4994],[12,78],[103,-1],[121,-62],[31,-60]],[[6748,4949],[-35,-234],[81,-37],[51,-112],[121,10]],[[6966,4576],[-4,-76],[44,-26],[-72,-56],[-11,-46],[-177,-28],[62,-66],[-76,-70]],[[6296,5923],[45,28]],[[6360,5956],[95,-60],[2,-34],[137,-46],[27,-68],[102,-30],[208,59],[39,-27],[101,25]],[[7108,5227],[-97,70],[-78,-31],[-77,34],[-108,-351]],[[6149,5051],[59,45],[8,150],[-74,17],[-38,51],[-70,19],[-6,80],[-63,125]],[[5139,7697],[32,-31],[-89,-2]],[[5082,7664],[-73,37],[65,49]],[[4993,7758],[-34,-94],[51,-42]],[[5010,7622],[-123,-91],[10,-72],[-94,-165]],[[4590,7932],[78,-34],[68,32],[31,-59],[27,30],[79,-50],[41,16],[82,-67],[-3,-42]],[[4850,2865],[110,50],[23,-62],[57,9],[129,-97],[65,-134],[6,-82],[80,-100],[97,18],[66,-27],[10,-42]],[[5493,2398],[-14,-36],[-109,-47],[-76,37],[-19,-86],[33,-106],[-67,-41]],[[5241,2119],[-135,0],[-74,38],[-29,-79],[-30,33],[-67,-20],[-30,42]],[[4876,2133],[12,70],[-43,-24],[-69,40],[-39,62],[-93,51],[29,28],[-58,146],[-37,16],[-24,106]],[[4554,2628],[101,129],[-31,74],[81,-20],[44,48],[101,6]],[[4219,3101],[78,-89],[85,2],[-15,-60],[52,-32],[79,82],[46,-58],[108,88],[124,27]],[[4776,3061],[13,-62],[47,-3],[-40,-93],[54,-38]],[[4554,2628],[-73,-46],[-56,16],[-47,-43],[43,-27],[-96,-52],[-71,28],[-109,-11]],[[4145,2493],[-62,140],[-70,19],[46,59],[-1,58],[-58,10]],[[7873,1697],[0,0]],[[7848,1676],[0,0]],[[7744,1704],[0,0]],[[7410,2429],[2,5]],[[8011,2495],[15,-42],[64,-10],[31,-113],[64,-17],[-6,-113],[34,-23]],[[8213,2177],[-54,-70],[-78,1],[-16,-67],[-90,-72],[63,1],[0,-84],[-80,-8],[-45,-40],[-85,-13],[0,-49],[-70,32],[-55,-13],[-21,-75],[-20,45],[-63,-2],[-84,43],[-34,-74],[-31,64],[-96,72]],[[7354,1868],[8,58],[53,33],[-53,135],[72,22],[-61,63],[17,71],[-16,93],[67,20],[-31,66]],[[1928,5497],[0,0]],[[2714,5826],[146,-21],[29,-34]],[[2889,5771],[40,-94],[90,-78],[-18,-42],[48,-69],[37,-172],[-29,-25],[23,-98],[50,-28],[-75,-71],[-70,-13]],[[2727,5087],[-49,6],[-4,-51],[-108,84],[-68,-6],[-24,56],[-85,18],[-126,81],[-30,118],[-59,87],[-134,128],[-10,75],[118,143]],[[2148,5826],[170,-145],[124,-29],[33,24],[-36,139],[48,20],[18,-115],[56,27],[-3,81],[57,8],[16,46],[83,-56]],[[2000,5746],[-45,10],[-27,66],[53,-9],[19,-67]],[[4056,4900],[-19,85],[76,76],[67,-4],[14,63],[102,43]],[[4296,5163],[86,-14],[36,30],[40,-54]],[[4458,5125],[21,-16],[-48,-120],[53,-36],[62,-106],[-24,-141],[86,-17],[-22,-68],[50,-23],[64,35],[4,-37],[71,-36],[12,-102]],[[3924,4474],[59,94],[38,-18],[37,97],[-10,50],[74,7],[17,37],[-87,76],[4,83]],[[7418,7334],[95,-1],[2,-80],[36,-69],[106,4],[125,78],[21,-26],[138,27],[191,-33],[114,82],[96,36]],[[8153,6642],[-15,-10]],[[8138,6632],[-151,135],[-84,-61],[-76,79],[-110,-31],[-50,94],[-61,-20],[-27,-49],[-55,15],[-25,-46]],[[7499,6748],[-28,51],[-38,-24],[-7,81],[-100,54],[69,109],[-170,171],[-38,-25],[30,92]],[[5082,7664],[-8,-70]],[[5074,7594],[-64,28]],[[4993,7758],[61,44]],[[5241,4915],[-59,142],[-120,75],[-15,68]],[[5047,5200],[60,101],[114,1],[54,35],[-13,86],[90,114],[20,-31],[137,88],[49,-9]],[[8304,2212],[0,0]],[[8181,3083],[72,-82],[10,-46],[123,-40],[64,-56],[98,-31],[176,63],[22,-95],[-47,-111],[-55,-31],[-49,-82],[22,-76],[-83,-72],[-112,-32],[-71,-56],[-8,-60],[-118,-43],[-12,-56]],[[4644,1965],[116,175],[34,-49],[82,42]],[[5241,2119],[-17,-79],[42,-49],[116,-42],[27,67],[131,-3],[7,-45],[126,-28],[27,-37]],[[5700,1903],[-84,-115],[-35,-82],[-15,-189]],[[5566,1517],[-121,83],[-114,-91],[-128,20],[-124,-12],[19,-114],[-129,-65]],[[9803,3],[0,0]],[[9328,1048],[168,-66],[28,13],[30,-78],[96,-49],[18,-78],[60,-108],[41,2],[19,-122],[-15,-55],[70,-19],[49,22]],[[9892,510],[-10,-207],[-71,-62],[58,0],[-68,-98],[-33,-137],[-86,27],[19,45],[-226,123],[3,74],[82,62],[-134,34],[-22,25],[59,66],[22,82],[-21,37],[-107,-26],[-13,66],[99,77],[-29,73],[-83,46],[-3,84],[79,26],[-92,71],[13,50]],[[1453,7684],[0,0]],[[1057,7640],[0,0]],[[2130,7406],[40,-28]],[[1939,6961],[-43,-9],[-51,51],[-73,-18],[-10,-82],[-83,-30],[12,74],[-236,43],[-10,37],[-70,9],[-26,-49],[-178,-13],[-18,41],[-83,0]],[[1070,7015],[32,99],[-27,165],[-31,55],[44,43],[-75,74],[-7,51]],[[1006,7502],[53,11],[22,77],[-24,31],[48,61],[79,-35],[113,69],[33,-26],[67,24],[-1,-57],[107,-58],[-13,-28],[82,-78],[5,-59],[94,-64],[239,145],[-5,-54],[54,26],[24,-51],[68,9]],[[4970,5204],[77,-4]],[[4458,5125],[73,81],[84,-41],[56,3],[13,62],[49,-20],[108,10],[129,-16]],[[8127,6374],[94,-51],[-4,-82]],[[8217,6241],[-38,-83],[90,20],[31,-28],[-81,-58],[8,-46],[-65,-81],[-81,-58],[-68,-108],[-141,-77],[22,-39],[-4,-104],[-237,-219],[19,-19]],[[7373,6068],[98,36],[57,46],[42,-17],[89,40],[55,64],[42,1],[49,78],[57,16],[92,-30],[64,44],[9,46],[82,-45],[18,27]],[[45,7320],[0,0]],[[780,7581],[0,0]],[[1070,7015],[-102,-45],[51,-161],[58,8],[53,-46],[57,6],[-7,-87],[-58,-47],[-23,26]],[[1099,6669],[-11,-89],[-132,41],[-77,-11],[-72,106],[-17,-42],[-127,-5],[-20,-53],[-123,1],[8,93],[-62,95],[-168,48],[-11,35],[233,49],[45,-21],[23,66],[-40,54],[-106,31],[-45,-71],[-1,136],[117,-25],[63,68],[-106,-16],[9,73],[-119,-61],[-49,18],[-62,-27],[-15,90],[43,144],[126,42],[132,81],[24,-37],[88,48],[79,-2],[71,36],[82,-96],[9,88],[117,-19],[1,-35]],[[6659,2990],[49,-86],[-10,-86],[32,-15],[60,-105],[-70,-64]],[[6720,2634],[-66,-58],[-10,-182],[-96,9],[-41,-81],[33,-13],[-121,-95],[-45,-57]],[[6374,2157],[-63,22],[-25,75]],[[6286,2254],[63,102],[-34,82],[-151,128],[-62,8],[-30,104],[-41,2],[-133,-117],[-12,42],[-53,-34],[-53,52]],[[5780,2623],[63,110],[-128,75],[76,79]],[[2642,3192],[-4,74],[47,125],[127,-13],[-106,130],[-68,-153],[67,691],[3,177],[45,95],[45,13]],[[4398,5987],[83,53],[58,-17],[40,57],[84,0],[84,-59]],[[4747,6021],[-44,-91],[73,-29],[78,25],[38,-24],[-13,-62],[51,-47],[-26,-65],[58,-23],[-73,-84],[46,-57],[-34,-33],[84,-103],[-21,-87],[31,-75],[-25,-62]],[[4296,5163],[25,49],[-44,72],[-173,127],[21,69],[-39,57]],[[7322,4370],[32,-79],[75,-98],[87,-52],[5,89],[34,16],[143,-102],[5,-77],[-40,-76],[92,-121]],[[7442,3438],[-105,18],[-13,29],[-111,41],[13,300],[-65,-49],[-30,24],[-137,22],[31,41],[-8,131],[-26,49],[-42,-14],[-59,63],[-74,-47],[-55,1]],[[6966,4576],[62,-43],[51,18],[59,97],[47,-78],[101,-114],[36,-86]],[[6889,7527],[-116,-4],[27,-67],[-60,-27],[21,-60],[-88,2]],[[5915,7462],[-77,53],[17,65],[-47,21],[59,99]],[[7499,6748],[-54,-81],[-78,-30],[0,-137],[-193,-12],[-22,-71]],[[7152,6417],[-83,-28],[-62,106],[-36,-31],[-56,61],[-49,-8],[19,102],[-55,124],[-134,102]],[[8312,7375],[-81,74],[-121,36],[-125,75],[-30,39],[-136,28],[-35,59],[16,60],[-37,37],[-96,2],[-133,141],[42,37],[-10,81],[32,45],[-16,80],[-43,27],[-1,98],[-33,69]],[[7505,8363],[65,-45],[76,-1],[38,53],[68,6],[73,-52],[45,18],[85,-60],[7,-67],[71,-75],[47,-120],[65,-12],[1,61],[68,11],[63,-53],[15,-57],[43,38],[126,-35],[45,56],[86,-3],[33,-79],[65,-39]],[[3430,2282],[55,23],[49,-88],[38,-1],[47,-151],[80,18],[209,-80]],[[3908,2003],[20,-11],[-132,-173],[83,-59],[-15,-74],[45,32],[8,-63],[-30,-104],[-67,7],[-15,-154],[16,-29]],[[3821,1375],[-81,24],[-45,-49],[-80,63],[-127,-54],[-65,38],[-49,66],[-92,66]],[[5566,1517],[4,-296],[51,-30],[33,-88],[-59,-10],[-31,49],[-135,-15],[-29,-41],[-98,-31],[11,-49],[-128,-1],[-37,56],[-116,45],[-69,-15],[-50,-62],[-66,-1],[-35,94],[-140,43],[39,80]],[[4827,1130],[0,0]],[[8124,4540],[30,-92],[104,-50],[0,-140],[125,-99],[-50,-84],[18,-72],[-47,-47],[-67,-2],[-81,-83],[-56,33],[-94,-52]],[[7322,4370],[44,36],[10,65],[49,18],[38,216]],[[7463,4705],[28,-104],[116,-101],[68,23],[60,-82],[67,14],[122,219],[63,-116],[40,3],[35,-78],[62,57]],[[7463,4705],[-15,52],[15,120],[85,27]],[[7548,4904],[149,26],[82,70],[-40,53],[61,96],[43,-31],[81,65],[201,-11],[-15,-58],[56,-55],[-42,-81],[8,-77],[57,-7],[81,-142],[18,-64],[-71,-78],[-83,-12],[-10,-58]],[[5245,7535],[14,119]],[[5232,7862],[26,72]],[[5130,7154],[89,93],[-23,117],[49,171]],[[6821,3053],[56,102],[39,-70],[-27,-72],[-68,40]],[[7410,2429],[-100,-68],[-114,23],[-82,55],[-89,0],[-93,55],[-58,86],[-154,54]],[[6660,3051],[75,-5],[36,-95],[167,78],[64,-7],[1,-73],[156,-31],[-1,-47],[79,-40]],[[3426,5862],[45,23],[37,92],[24,-13]],[[4056,4900],[-76,11],[-17,-43],[-140,-33],[-137,-4],[-56,35]],[[3630,4866],[-7,55],[-54,38],[44,95],[-24,73],[-40,-46],[-43,22],[-20,153],[4,95],[35,25],[-74,32],[71,112],[-37,25],[28,100],[-76,136],[-11,81]],[[5245,7535],[-46,45],[-91,-16],[-34,30]],[[7621,5196],[72,-50],[-46,-85],[15,-35],[-104,-41],[-10,-81]],[[5780,2623],[-56,-16],[-49,-87],[-98,19],[1,-143],[-85,2]],[[4776,3061],[-29,140],[166,115],[84,29]],[[7354,1868],[-48,-17],[-176,55],[14,109],[-35,40],[-48,-30],[-136,-5],[-50,102],[-89,-29],[-2,-70],[-169,31],[-21,88],[-220,15]],[[6909,2166],[29,-67],[53,-4],[63,67],[-55,-8],[-28,70],[-59,31],[-3,-89]],[[3426,4737],[41,24],[2,61],[76,42],[85,2]],[[4747,6021],[23,-14],[46,87],[38,-25],[109,35],[-41,69],[15,54],[85,-5],[3,79],[-87,94],[81,39]],[[9328,1048],[51,32],[13,105],[93,57],[56,60],[85,12],[33,56],[73,43],[86,-64],[35,65],[-23,100],[29,84],[-9,80],[84,-8],[20,-187],[-30,-146],[57,-120],[0,-171],[18,-97],[-6,-186],[-94,-156],[-7,-97]],[[7152,6417],[70,5],[13,-67],[-82,-81],[82,-77],[-17,-75],[32,-13]],[[4079,1505],[-102,36],[-43,-80],[18,-96],[-131,10]],[[3908,2003],[46,19],[56,90],[110,-11],[58,-30],[34,147],[101,77],[-77,52],[-91,146]],[[6286,2254],[-132,-39],[-75,-78],[-92,-50],[-103,-122],[-55,17],[-129,-79]],[[2148,5826],[-49,67],[-133,41],[55,33],[-14,117],[-77,-45],[-165,55],[25,53],[-35,34],[68,76]],[[1823,6257],[99,16],[140,69],[7,103]],[[2648,6594],[-6,-44],[54,-40],[25,-77],[90,-32],[-27,-26],[-86,10],[10,-65],[129,-18],[15,-109],[-151,-21],[-90,-29],[93,-164],[-57,-80],[90,-39],[-23,-34]],[[2653,6629],[177,-50],[18,36],[143,-60],[142,13],[16,36],[87,-26]],[[3236,6578],[11,-46],[125,-10],[-8,-60],[128,0],[107,-68],[53,27]],[[3426,5862],[-27,41],[-68,2],[-216,-46],[-25,-65],[-130,7],[-71,-30]],[[2910,7339],[-143,8]],[[2427,7468],[83,-3],[11,44],[-97,88],[13,280],[-36,56],[10,55],[-80,198],[-74,67],[-44,154],[30,33],[-13,80],[-59,25],[3,53],[236,-73],[85,43],[124,-4],[41,-87],[-53,-71],[127,-189]],[[1534,6148],[0,0]],[[1168,6433],[0,0]],[[1490,6180],[0,0]],[[1294,6129],[-6,65],[123,-74],[-15,-33],[-89,11],[-13,31]],[[1550,6371],[0,0]],[[1584,6390],[0,0]],[[1823,6257],[-54,79],[-98,-30],[-114,3],[-18,57],[75,-19],[36,60],[-94,25],[-53,-66],[-137,43],[-54,46],[55,66],[-14,33],[-47,-73],[-47,35],[-112,-5],[-53,89],[5,69]],[[4902,9915],[326,84],[59,-147],[1,-137],[56,1],[66,-99],[57,-23],[27,51],[121,51],[97,-96],[-6,-64],[25,-114],[60,-36],[99,31],[-13,-36],[77,5],[34,-40],[-4,-84],[36,-70],[25,49],[97,-22],[94,28],[132,-103],[-65,-125],[50,-4],[19,-67],[-45,-18],[-14,-72]],[[5654,8892],[-56,43]],[[8138,6632],[-45,-67],[34,-191]],[[4068,6930],[-30,-68],[33,-98],[-58,-45],[9,-48],[-132,-143],[24,-18]],[[3236,6578],[-45,73],[52,50],[-9,52],[69,28],[-40,87],[75,17],[-12,100],[70,50],[-7,137],[69,45]],[[4434,8947],[51,46],[64,108],[85,-41],[-92,111],[12,80],[58,-9]],[[7218,8363],[128,57],[121,-10],[38,-47]],[[8347,6313],[-101,-10],[-29,-62]]]}
