{"type":"Topology","objects":{"data":{"geometries":[{"properties":{"index":1069,"harmonised_code":"RO311","NUTS_NAME":"Arge\u015f"},"type":"MultiPolygon","arcs":[[[-14,-13,12,-12,-2,-73,-83,-171,-103]],[[2]]],"id":0},{"properties":{"index":1071,"harmonised_code":"RO317","NUTS_NAME":"Teleorman"},"type":"Polygon","arcs":[[-45,-44,43,-43,-42,41,-41,-40,39,-39,-38,37,-37,-36,35,-35,-34,-33,-32,30,-30,28,-28,-27,26,-26,0,-74,1,-11],[2]],"id":1},{"properties":{"index":1073,"harmonised_code":"RO312","NUTS_NAME":"C\u0103l\u0103ra\u015fi"},"type":"Polygon","arcs":[[-163,3,-24,-23,22,-22,-8,6,-6,-51,-50,49,-49]],"id":2},{"properties":{"index":1074,"harmonised_code":"RO111","NUTS_NAME":"Bihor"},"type":"Polygon","arcs":[[-80,-19,-92,-95,4,-70]],"id":3},{"properties":{"index":1075,"harmonised_code":"RO321","NUTS_NAME":"Bucure\u015fti"},"type":"Polygon","arcs":[[8]],"id":4},{"properties":{"index":1076,"harmonised_code":"RO322","NUTS_NAME":"Ilfov"},"type":"Polygon","arcs":[[-53,-52,5,-7,7,-21,-10,-67],[8]],"id":5},{"properties":{"index":1079,"harmonised_code":"RO313","NUTS_NAME":"D\u00e2mbovi\u0163a"},"type":"Polygon","arcs":[[9,-48,-47,46,-46,10,11,-13,12,13,-102,-68]],"id":6},{"properties":{"index":1080,"harmonised_code":"RO112","NUTS_NAME":"Bistri\u0163a-N\u0103s\u0103ud"},"type":"Polygon","arcs":[[-98,-161,-18,-17,16,-16,-54]],"id":7},{"properties":{"index":1081,"harmonised_code":"RO411","NUTS_NAME":"Dolj"},"type":"Polygon","arcs":[[-76,14,-58,-20,-85]],"id":8},{"properties":{"index":1084,"harmonised_code":"RO113","NUTS_NAME":"Cluj"},"type":"Polygon","arcs":[[15,-17,16,17,-160,-159,158,-158,-90,18,-79,-78,77,-77,-55]],"id":9},{"properties":{"index":1085,"harmonised_code":"RO412","NUTS_NAME":"Gorj"},"type":"Polygon","arcs":[[19,-57,-104,-125,-124,-123,-86]],"id":10},{"properties":{"index":1088,"harmonised_code":"RO314","NUTS_NAME":"Giurgiu"},"type":"Polygon","arcs":[[20,21,-23,22,23,24,25,-27,26,27,28,29,30,31,32,33,34,-36,35,36,-38,37,38,-40,39,40,-42,41,42,-44,43,44,45,-47,46,47]],"id":11},{"properties":{"index":1089,"harmonised_code":"RO315","NUTS_NAME":"Ialomi\u0163a"},"type":"Polygon","arcs":[[-129,-164,48,-50,49,50,51,52,-66,-65,64,-64,-63,62,-62,-61,60,-60,-146]],"id":12},{"properties":{"index":1090,"harmonised_code":"RO114","NUTS_NAME":"Maramure\u015f"},"type":"MultiPolygon","arcs":[[[-99,53,54,-82,-69,55]],[[71]]],"id":13},{"properties":{"index":1091,"harmonised_code":"RO413","NUTS_NAME":"Mehedin\u0163i"},"type":"Polygon","arcs":[[56,57,58,-105]],"id":14},{"properties":{"index":1093,"harmonised_code":"RO316","NUTS_NAME":"Prahova"},"type":"Polygon","arcs":[[-151,-150,149,-149,-148,147,-147,59,-61,60,61,-63,62,63,-65,64,65,66,67,-101]],"id":15},{"properties":{"index":1094,"harmonised_code":"RO115","NUTS_NAME":"Satu Mare"},"type":"Polygon","arcs":[[68,-81,69,70],[71]],"id":16},{"properties":{"index":1095,"harmonised_code":"RO414","NUTS_NAME":"Olt"},"type":"Polygon","arcs":[[72,73,74,75,-84]],"id":17},{"properties":{"index":1098,"harmonised_code":"RO116","NUTS_NAME":"S\u0103laj"},"type":"Polygon","arcs":[[76,-78,77,78,79,80,81]],"id":18},{"properties":{"index":1099,"harmonised_code":"RO415","NUTS_NAME":"V\u00e2lcea"},"type":"Polygon","arcs":[[82,83,84,85,-122,-91,-172]],"id":19},{"properties":{"index":1100,"harmonised_code":"RO213","NUTS_NAME":"Ia\u015fi"},"type":"MultiPolygon","arcs":[[[-117,-116,-115,-114,-113,-112,-111,-110,109,-109,-89,-96,-205,-204,-203,86]],[[87]]],"id":20},{"properties":{"index":1101,"harmonised_code":"RO214","NUTS_NAME":"Neam\u0163"},"type":"Polygon","arcs":[[88,-108,-193,-192,-191,-130,-97]],"id":21},{"properties":{"index":1104,"harmonised_code":"RO121","NUTS_NAME":"Alba"},"type":"MultiPolygon","arcs":[[[89,-157,-177,-176,175,-175,-174,173,-173,90,-128,-93,91]],[[181]]],"id":22},{"properties":{"index":1105,"harmonised_code":"RO421","NUTS_NAME":"Arad"},"type":"MultiPolygon","arcs":[[[92,-127,-138,-137,-136,93,94]],[[143]]],"id":23},{"properties":{"index":1106,"harmonised_code":"RO215","NUTS_NAME":"Suceava"},"type":"Polygon","arcs":[[95,96,-135,-154,97,98,99,-206]],"id":24},{"properties":{"index":1108,"harmonised_code":"RO122","NUTS_NAME":"Bra\u015fov"},"type":"Polygon","arcs":[[-120,-119,-118,-152,100,101,102,-170,-156,-134],[120]],"id":25},{"properties":{"index":1109,"harmonised_code":"RO422","NUTS_NAME":"Cara\u015f-Severin"},"type":"Polygon","arcs":[[-126,103,104,105,-142,-141,-140]],"id":26},{"properties":{"index":1110,"harmonised_code":"RO216","NUTS_NAME":"Vaslui"},"type":"Polygon","arcs":[[106,-185,-208,-186,107,108,-110,109,110,111,112,113,114,115,116]],"id":27},{"properties":{"index":1112,"harmonised_code":"RO123","NUTS_NAME":"Covasna"},"type":"MultiPolygon","arcs":[[[-187,-212,-153,117,-119,119,-133,-132,-131]],[[120]]],"id":28},{"properties":{"index":1113,"harmonised_code":"RO423","NUTS_NAME":"Hunedoara"},"type":"Polygon","arcs":[[121,122,-124,124,125,-139,126,127]],"id":29},{"properties":{"index":1114,"harmonised_code":"RO221","NUTS_NAME":"Br\u0103ila"},"type":"Polygon","arcs":[[-195,-165,128,-145,-210,-184]],"id":30},{"properties":{"index":1116,"harmonised_code":"RO124","NUTS_NAME":"Harghita"},"type":"Polygon","arcs":[[129,-190,-189,188,-188,130,131,132,133,-155,134]],"id":31},{"properties":{"index":1117,"harmonised_code":"RO424","NUTS_NAME":"Timi\u015f"},"type":"Polygon","arcs":[[135,136,137,138,139,140,141,142],[143]],"id":32},{"properties":{"index":1118,"harmonised_code":"RO222","NUTS_NAME":"Buz\u0103u"},"type":"Polygon","arcs":[[144,145,146,-148,147,148,-150,149,150,151,152,-211]],"id":33},{"properties":{"index":1120,"harmonised_code":"RO125","NUTS_NAME":"Mure\u015f"},"type":"Polygon","arcs":[[153,154,155,-181,-180,-179,178,-178,156,157,-159,158,159,160]],"id":34},{"properties":{"index":1123,"harmonised_code":"RO223","NUTS_NAME":"Constan\u0163a"},"type":"MultiPolygon","arcs":[[[-194,161,162,163,164]],[[-168,165]],[[166]],[[167,-168]],[[168]],[[197]]],"id":35},{"properties":{"index":1126,"harmonised_code":"RO126","NUTS_NAME":"Sibiu"},"type":"Polygon","arcs":[[169,170,171,172,-174,173,174,-176,175,176,177,-179,178,179,180],[181]],"id":36},{"properties":{"index":1129,"harmonised_code":"RO224","NUTS_NAME":"Gala\u0163i"},"type":"Polygon","arcs":[[182,-196,183,-209,184]],"id":37},{"properties":{"index":1131,"harmonised_code":"RO211","NUTS_NAME":"Bac\u0103u"},"type":"Polygon","arcs":[[185,-215,-214,213,-213,186,187,-189,188,189,190,-192,192]],"id":38},{"properties":{"index":1134,"harmonised_code":"RO225","NUTS_NAME":"Tulcea"},"type":"MultiPolygon","arcs":[[[193,194,195,196],[197]],[[198]],[[199]],[[200]],[[201]]],"id":39},{"properties":{"index":1136,"harmonised_code":"RO212","NUTS_NAME":"Boto\u015fani"},"type":"Polygon","arcs":[[202,203,204,205,206]],"id":40},{"properties":{"index":1138,"harmonised_code":"RO226","NUTS_NAME":"Vrancea"},"type":"Polygon","arcs":[[207,208,209,210,211,212,-214,213,214]],"id":41}],"type":"GeometryCollection"}},"bbox":[20.264360822716,43.619531387487854,29.70170587138027,48.263444074907156],"transform":{"scale":[0.009446791840504775,0.00464856124866797],"translate":[20.264360822716,43.619531387487854]},"arcs":[[[572,15],[-2,-2],[-1,0],[0,-1],[-2,-1],[-3,-2],[-4,-4],[-3,0],[-2,1],[-2,0],[-2,-1],[-1,-1],[-6,-4],[-3,0],[0,1],[-1,0],[-7,7],[-2,3],[-2,0],[-2,2],[-2,1],[-2,2],[-2,1],[-2,0],[-3,-3],[-5,0],[-1,1],[-2,0],[0,1],[-1,0],[0,1],[-1,0],[-3,3],[0,1],[-1,1],[0,1],[-4,0],[-1,-1],[-9,-3],[-1,0],[-3,1],[-3,-1],[-1,-1],[-4,-3],[-3,0],[-4,1],[-4,6]],[[489,164],[5,0],[3,-1],[1,1],[1,0],[1,2],[0,1],[2,1],[0,1],[1,1],[0,-1],[3,-2],[1,2],[0,1],[1,-2],[0,-1],[1,2],[2,2],[-1,1],[1,0],[1,-1],[0,1],[1,0],[2,1],[3,2],[0,1],[3,3],[2,1],[3,-7]],[[512,170],[0,0],[0,0]],[[742,109],[-1,0],[-2,-1],[0,-1],[-6,0],[-1,1],[0,1],[-2,2],[-1,0],[0,1],[-5,0],[0,-1],[-2,0],[0,-1],[-1,1],[-2,0],[0,1],[-1,0],[-1,1],[-1,0],[-2,-2],[-1,0],[0,-1],[-4,0],[-1,1],[-1,0],[-1,1],[-2,0],[-1,-1],[-1,0],[0,-1],[-2,-2],[-1,0],[-1,-1],[-1,0],[0,-1],[-1,0],[-1,-2],[-1,0],[0,-1],[-2,-1],[-4,-4],[-3,0],[-1,1],[-3,0],[-2,-1],[-3,-3],[-1,0],[-1,-1],[-2,0],[0,-1],[-2,0],[-1,1],[-4,0],[-1,-1],[-1,0],[-1,-1],[-1,0],[-1,-1],[-4,0],[-2,-1],[-3,0],[-1,1],[-1,0],[-1,-1]],[[125,652],[1,2],[0,1],[-1,0],[-1,1],[0,2],[-1,2],[0,1],[1,1],[2,-2],[0,1],[2,1],[2,-2],[1,2],[1,1],[0,2],[2,2],[0,3],[-5,5],[0,2],[1,2],[1,1],[1,0],[1,4],[0,8],[4,4],[3,1],[1,0],[1,2],[0,3],[1,1],[-1,2],[0,1],[-1,2],[0,4],[1,1],[3,0],[1,2],[1,0],[1,3],[0,-1],[1,0],[1,2],[0,1],[-1,1],[0,4],[1,0],[0,2],[1,0],[-1,4],[-2,1],[-1,4],[3,1],[0,1],[2,3],[0,1],[1,0],[1,1],[-1,2],[2,3],[2,2],[3,1],[1,-1],[1,0],[0,5],[1,0],[0,3],[1,6],[3,2],[2,1],[0,7],[-1,1],[0,4],[2,5],[1,0],[0,1],[1,1],[0,1],[-1,2],[1,2],[1,4],[0,1],[3,6],[0,2],[1,2],[0,1],[2,1],[1,1],[3,0],[1,-1],[1,0],[2,5],[0,12],[-1,0],[-2,5],[1,1],[0,4],[1,4],[3,4],[0,-1],[1,-1],[1,1],[0,1],[-1,1],[0,2],[2,2],[1,0],[0,-1],[2,4],[1,1],[1,2],[0,2],[4,-1],[1,0],[1,1]],[[651,194],[-1,-3],[0,1],[-1,0],[-1,-2],[-3,-4],[2,-1],[0,-2],[1,-1],[1,0],[0,-2],[3,0],[1,1],[2,-1]],[[655,180],[0,1],[1,0],[-1,-1]],[[655,180],[0,-2],[-1,-1],[0,-1],[-4,0],[0,-2],[-1,-2],[-1,-1],[0,1],[-1,0],[-3,-2],[0,-2],[-1,0],[-1,-1],[0,-1],[-1,-1],[0,3],[-2,2],[-1,2],[-2,-2],[-1,0],[1,-1],[1,0],[1,-1],[1,0],[0,-2],[1,0],[0,-4],[2,0],[-1,-2],[0,-1],[-1,-1],[-2,0],[-1,-2],[0,1],[-3,-4],[1,-2],[1,-1],[-2,-4],[1,-1]],[[616,161],[1,-1],[1,1],[1,-1],[0,-1],[2,-1],[0,-1],[2,-2],[0,-1],[2,2],[-1,1],[-2,4],[2,6],[6,0],[0,4],[1,4],[-2,0],[-1,1],[0,2],[-2,0],[0,1],[-1,0],[-1,1],[1,2],[0,1],[2,2],[-3,1],[-5,1],[-1,3],[1,0],[-1,1],[0,7],[-2,-1],[-1,1],[-2,-2],[-2,-1],[-1,0],[0,-1],[-2,-2],[0,-2],[-1,-1],[-1,0],[0,-1],[-1,-5],[0,-1],[1,0],[3,-2],[0,-2],[-1,-1],[-4,0],[0,-3],[1,-5],[1,1],[1,0],[0,-1],[1,0],[2,-3],[1,-1],[0,-1],[1,-1],[3,0],[0,-1],[1,-1]],[[604,235],[1,-3],[1,0],[-1,-2],[-1,0],[-1,-1],[1,-1],[0,-1],[1,0],[0,-2],[-2,-2],[-2,0],[0,-2],[5,-5],[0,-2],[-6,-9],[-1,-1],[-4,-2],[0,-1],[1,-3]],[[553,183],[-1,3],[-1,1],[0,-1],[-1,0],[-1,-1],[-1,1],[1,1],[0,1],[-1,2],[-5,3],[-1,-1],[-2,-3],[0,-3],[-1,-1],[1,-1],[-1,-3],[-1,0],[-2,-2],[0,-1],[-3,-3],[0,-2],[-2,-2],[-3,-2],[-1,2],[0,1],[-1,1]],[[526,173],[3,4],[0,-1],[2,1],[-1,1],[0,1],[1,1],[-1,0],[0,3],[1,1],[-2,7],[0,2],[2,2],[1,5],[-2,2],[-1,2],[-1,-1],[-3,8],[0,1],[-1,2],[-1,0],[0,-1],[-1,0],[0,3],[1,1],[0,1],[-3,0],[2,2],[-2,2],[-1,2],[2,2],[1,0],[0,-1],[1,1],[3,5],[0,1],[-1,1],[-2,1],[-3,2],[1,2],[-1,1],[0,2],[1,1],[0,-1],[1,-1],[1,1],[-1,1],[1,1],[1,3],[-1,2],[1,1],[0,1],[-1,2],[0,2],[-1,2],[0,2],[-1,2],[1,2],[0,3],[1,0],[0,2],[-1,1],[0,8],[-2,4],[-2,0],[1,2],[0,9],[1,3],[1,1],[1,0],[0,7],[-1,2],[-1,0]],[[520,303],[0,1]],[[520,304],[-1,2],[-1,-1],[-1,0],[0,3],[-2,2],[0,3],[1,2],[2,0],[0,-1],[2,2],[0,4],[-2,2],[-1,0],[1,1],[0,1],[-1,1],[0,12],[1,1],[-1,1],[0,1],[1,0],[-2,2],[2,1],[1,0],[0,-3],[2,0],[0,-1],[-1,0],[2,-6],[2,-2],[0,1],[2,1],[1,2],[1,1],[0,6],[1,1],[1,0],[1,2],[1,0],[0,6],[-1,2],[0,3],[1,1],[1,3],[0,1],[2,5],[0,1],[-1,2],[0,1],[1,0],[1,2],[0,1],[-1,1],[0,5]],[[407,17],[-3,1],[-9,9],[-2,1],[-1,0],[-2,-1],[-4,0],[-4,1],[-1,1],[-1,0],[-5,4],[-2,1],[-2,2],[-2,3],[-1,1],[-4,0],[-4,-1],[-1,-1],[-1,0],[0,-1],[-2,0],[-7,2],[-2,1],[0,3],[-3,4],[-3,0],[-3,2],[-2,1],[-5,0],[-2,-1],[-11,0],[-2,-2],[-10,-5],[-3,-3],[-7,-1],[-7,3],[-4,1],[-1,1],[-1,0],[0,1],[-1,0],[-2,1],[-1,0],[-2,1],[-1,0],[-1,1],[0,1],[-1,1],[0,1],[-1,1],[0,10],[1,1],[2,6],[0,4],[1,4],[1,3],[5,3],[6,2],[1,0],[1,1],[3,6],[0,3],[1,1],[0,1],[-1,2],[-2,3],[-3,2],[-3,0]],[[398,805],[-1,-4],[1,-2],[0,-2],[-1,-2],[-1,-1],[0,-1],[-1,1],[-1,2],[-2,-2],[0,1],[-1,0]],[[391,794],[0,1]],[[391,795],[-1,-2],[-1,0],[-1,-1],[0,-6],[-1,0],[0,-6],[1,-3],[0,-3],[1,-1],[0,-3],[1,-4],[0,-1],[1,0],[0,-3],[2,1],[3,0],[0,2],[1,1],[0,-1],[1,-1],[0,-3],[-1,0],[0,-3],[1,0],[2,-2],[3,-1],[0,-2],[2,-1],[0,1],[1,1],[1,-1],[0,-2],[1,-1],[0,-2],[1,-1],[2,0],[0,-1],[-1,0],[0,-3],[-1,0],[0,-3],[-1,-1],[0,-3],[-1,-1],[0,-3],[1,0],[0,-2],[-1,-1],[0,-3],[-1,-1],[1,-1],[1,-2],[0,-2],[-1,-1],[1,0],[2,1],[2,-1],[0,1],[2,-1],[0,-2],[-1,-1],[-1,-2],[2,-2],[1,0],[1,1],[0,-3],[1,-2],[1,0],[0,-3],[1,0],[1,-2],[-1,0],[-1,-1],[0,-1],[1,-1],[-2,-3],[0,-2],[1,-3],[-1,0],[-2,-1],[1,-1],[0,-4],[-2,0],[0,-1]],[[270,634],[0,4],[-1,1],[0,7],[1,3],[-1,-1],[-2,0],[1,2],[-2,2],[-1,3],[0,1],[-2,5],[-1,3],[0,1],[-1,3],[-2,3],[0,5],[-8,8],[1,0],[1,1],[5,0],[1,2],[2,1],[0,4],[2,4],[0,4],[2,3],[1,1],[0,4],[-2,0],[-2,1],[-1,2],[-1,0],[0,2],[-1,0],[-3,1],[0,2],[-1,0],[0,5],[2,1],[0,1],[1,1],[0,1],[1,1],[2,3]],[[372,235],[-3,1],[-2,1],[-1,2],[0,-1],[-1,-2],[0,-2],[1,-1],[0,-7],[-1,-2],[0,-5],[1,0],[0,-2],[-1,-2],[0,-5],[-1,-2],[0,1],[-1,1],[1,1],[-4,0],[-4,-2],[-1,0],[-2,1],[0,2],[-1,2],[-2,-1],[-1,0],[-2,-1],[-3,-1],[0,-1],[-1,-2],[0,-1],[-1,-1],[0,-1],[-1,1],[-2,0],[0,-2],[-1,0]],[[596,198],[3,-5],[-2,-4],[-1,-3],[1,0],[0,-1],[1,-1],[-1,-5],[-2,2],[-1,0],[0,-1],[-1,1],[0,3],[-1,2],[-1,-3],[1,-1],[0,-4],[1,-1],[-2,-2],[0,-1],[1,0],[1,-1],[0,-1],[-4,-4],[0,-2],[1,0],[1,-1],[1,0],[0,-3],[1,-2],[1,-1],[1,0],[1,-1],[-1,-1],[0,-1],[1,0],[1,-1],[1,-2],[1,1],[1,0],[2,-2],[0,-2],[2,0],[0,2],[3,-2],[0,-3],[-2,-6],[0,-1],[2,6],[1,0],[1,-1],[1,0],[2,-4],[1,-1],[1,0],[2,-1],[1,-2],[0,-1],[2,-1],[1,-1],[3,-2],[0,1],[1,0],[1,1],[0,1],[2,-1],[1,1],[0,1],[-1,0],[2,4],[1,-1],[2,3],[0,1],[1,2],[2,0]],[[635,145],[2,-2],[0,-1],[1,-3],[1,-2],[2,0],[1,-1],[1,0],[0,-1],[1,-1],[1,0],[0,-2],[1,-2],[3,0],[1,-2],[0,-2],[1,0],[0,-1],[-1,0],[-1,-1],[0,-2],[2,0],[1,-1],[-1,0],[0,-4],[1,0],[0,-3],[1,-1],[-1,0],[0,-3],[-1,0],[0,-1]],[[652,109],[-1,0]],[[651,109],[-2,0],[0,-1],[-1,0],[-1,-1],[-1,0],[0,-1],[-1,-1],[0,-2],[1,-3],[0,-1],[1,-6],[0,-1],[1,-2]],[[648,90],[-4,0],[-1,-1],[-1,0],[-1,-1],[-1,0],[-2,-2],[-1,0],[0,-1],[-1,-1],[-1,0],[0,-1],[-1,0],[0,-1],[-1,0],[-1,-1],[-1,0],[-2,-2],[-5,0],[-1,-1],[-1,0],[0,-1],[-1,0],[-1,-1],[-1,0],[-1,-1],[-1,-2],[-1,-1],[0,-2],[-1,-3],[-1,-2],[0,-3],[-1,0],[0,-1],[-1,0],[0,-1],[-1,0],[0,-1],[-1,0],[-1,-1],[-1,0],[-5,-5],[0,-1],[-1,0],[0,-1],[-1,-1],[0,-1],[-1,-2],[-1,-1],[0,-2],[-1,0],[0,-1],[-1,-1],[0,-1],[-1,-1],[0,-2],[-1,0],[0,-3],[-1,-1],[0,-1],[-1,0],[0,-1],[-1,-1],[0,-1],[-1,0],[-1,-1],[0,-1],[-1,0],[-1,-1],[-1,0],[-1,-1],[0,-2],[-1,-3],[-1,-1],[0,-1],[-2,-2],[-1,0],[0,-1],[-1,0],[0,-1],[-2,0],[0,-1],[-1,0],[0,1],[-5,0]],[[572,15],[0,2],[1,0],[0,2],[-1,1],[1,0]],[[573,21],[0,-1]],[[573,20],[1,0],[-1,2]],[[573,22],[1,0],[0,1],[-1,0],[0,-1]],[[573,22],[-1,0]],[[572,22],[0,-1],[-1,0],[0,1],[1,0]],[[572,22],[-1,2],[0,4],[-1,0],[0,1],[1,1],[0,1],[1,2],[0,1],[-1,0],[0,9],[-3,0],[0,5],[-2,0],[0,13],[-1,1],[-2,0],[0,6],[4,0],[0,1],[-1,2],[0,1],[1,0],[-2,4],[-1,3],[1,0],[0,2],[-1,1],[1,0],[0,2],[-1,1],[1,0],[0,5]],[[565,90],[0,-1]],[[565,89],[1,1],[-1,0]],[[565,90],[0,1],[1,1],[1,0],[1,1],[0,1],[-1,0],[0,1],[-1,0],[0,1],[1,1]],[[567,96],[0,1]],[[567,97],[0,2],[1,0],[0,1],[-1,0],[2,2],[1,0],[-1,1],[0,1],[1,0],[0,2],[1,0]],[[571,107],[0,-1]],[[571,106],[0,-3],[1,0],[0,-1],[1,0]],[[573,101],[0,1]],[[573,102],[0,2],[-1,0],[0,1],[1,0]],[[573,106],[0,-1]],[[573,105],[1,0],[0,2]],[[574,108],[0,-1]],[[574,107],[1,-1],[0,-2],[1,0],[0,5],[1,0],[0,1],[-1,0],[0,1],[-2,-2],[-1,0],[0,7],[1,0],[0,-1],[2,0],[0,1],[-2,1],[-2,0],[0,1],[-1,0],[0,4],[1,3],[-1,1],[1,0],[0,2],[1,1],[0,1],[1,3],[2,1],[-1,1],[1,1],[-4,4],[0,5],[-1,0],[-1,-2],[0,-2],[-3,3],[0,2],[1,2],[-3,3],[0,-1],[-1,-1],[-2,-1],[-1,1],[0,1],[-4,0],[-2,-1],[-4,3],[0,5],[1,1],[-1,1],[0,1],[1,2],[-1,0],[-2,1],[0,2],[-3,2],[1,1],[0,1],[2,3],[1,1],[2,6],[2,3],[-1,1]],[[553,183],[1,2],[0,-1],[1,3],[-1,0],[-2,2],[0,1],[1,0],[1,4],[2,0],[2,3],[0,1],[1,0],[0,-1],[1,0],[1,-1],[1,1],[1,0],[0,-2],[1,0],[0,1],[1,0],[1,3],[1,1],[2,0],[1,1],[0,-2],[2,-3],[1,0],[0,-2],[2,3],[1,2],[1,0]],[[577,198],[0,1]],[[577,199],[1,0],[0,-2],[2,0],[1,-1],[1,1],[1,0],[1,-1],[1,0],[2,4],[3,-3],[0,-1],[1,-1],[1,3],[1,-1],[1,0],[2,1]],[[821,155],[-17,9],[-2,-3],[0,-2],[-1,-3],[-1,-2],[-1,0],[-1,1],[-1,2],[0,1],[-2,-2],[-3,3],[1,2],[-1,3],[1,1],[1,2],[-2,0],[0,2],[-1,0],[0,2],[-1,1],[-8,0],[0,1],[1,3],[0,2],[-1,0],[0,4],[-1,0],[0,1],[-3,0],[0,-1],[-5,1],[1,15],[0,4],[-3,1],[0,-4],[-1,0],[-1,-1],[-1,-5],[0,-4],[-2,0],[0,-1],[-8,0],[-1,1],[-3,0],[0,2],[-2,0],[0,2],[-2,0],[0,-7],[-1,0],[-1,1],[-5,0],[1,2],[0,1],[-3,1],[0,-4],[-2,1],[-2,0],[0,4],[-2,1],[-1,-3],[1,0],[0,-4],[-2,0],[0,2],[-4,1],[-1,1],[0,-2],[-1,-2],[-4,0],[0,5],[-10,0],[0,5],[-3,0],[-3,-1],[-4,-2],[-1,0],[0,1],[-1,1],[-1,-1],[0,-1],[-2,1],[-1,-1],[0,2],[-2,0],[0,-2],[-1,-1],[0,1],[-1,1],[-1,-2],[-1,0],[-2,1],[0,1],[1,0],[0,4],[-2,2],[-1,-2],[0,-2],[-3,2],[0,4],[-3,0],[-2,1],[0,6],[-1,1],[-3,-11],[0,-2],[-1,1],[-1,0],[-1,-1],[1,-1],[-1,-1],[0,1],[-1,0],[0,-1],[1,-1],[-2,-1]],[[670,192],[0,1]],[[670,193],[0,1],[-1,1],[-2,0],[-1,1],[0,1],[-4,5],[-1,0],[-2,1],[0,2],[-1,1],[0,-1],[-2,-2],[-2,0],[0,-3],[2,-1],[-3,-5],[-1,1],[-1,-1]],[[651,194],[0,1],[-2,3],[-3,-3],[-1,2],[-2,3],[0,-1],[0,0]],[[643,199],[2,4],[1,0],[0,1],[-1,0],[1,1],[1,3],[0,1],[2,3],[1,1],[-1,3],[-2,0],[0,1],[-1,2],[-1,0],[0,5],[-1,2],[-1,1],[-1,0],[0,1],[1,2],[1,-1],[2,2],[0,5],[1,1],[-2,1],[-1,1],[0,1],[-2,2],[0,1],[-3,4]],[[497,856],[-4,0],[-2,1],[-2,-1],[-1,-1],[-3,0],[0,1],[-2,-1],[-1,-1],[0,-3],[-1,-2],[-2,2],[-3,-1],[-3,0],[0,1],[-1,0],[-3,-3],[-3,-1],[-1,-1],[0,1],[-1,2],[-2,2],[-1,-1],[-4,0],[-1,-1],[0,-1],[-1,0],[0,1],[-1,1],[-3,1],[-1,1],[-1,0],[-2,1],[-1,1],[-2,1],[-1,0],[-1,-1],[-2,2],[-1,0],[-1,1],[-2,1],[0,-2],[-1,-1],[-1,-4],[-2,-2],[-2,0],[-1,1],[-1,2],[-1,-1],[0,-1],[1,-1],[-2,-4],[-1,0],[0,-5],[-1,-1],[-1,0],[-1,-1],[-1,-2],[0,-1],[-4,0],[-1,1],[-3,0],[-1,-1],[0,-1],[-1,0],[0,-1],[-1,-1],[0,1],[-1,1],[-1,-3],[0,-1],[1,0],[0,-2],[-1,-1],[0,-5],[-1,-2],[0,-1],[-4,-4],[0,-4],[-1,-2],[-1,-1],[-1,0],[-1,-2],[0,-1],[-1,0]],[[398,805],[-3,1],[0,-1],[-3,1],[-5,-3],[-1,1],[-2,0],[-2,4],[-1,-1],[-2,0],[-1,-4],[0,-1],[1,-2]],[[342,935],[1,1],[0,2],[2,3],[0,3],[1,2],[0,-1],[1,-1],[3,-1],[2,0],[0,1],[3,0],[1,-1],[1,0],[0,-1],[3,-3],[1,0],[4,2],[0,-1],[1,0],[0,1],[5,0],[2,-2],[3,0],[0,-2],[1,0],[1,-2],[0,-1],[1,-3],[0,-1],[2,-2],[2,2],[1,0],[2,1],[3,0],[1,1],[0,2],[1,1],[0,-1],[1,0],[1,1],[1,-1],[2,1],[2,-1],[0,-2],[4,0],[4,-3],[0,-3],[1,-2],[2,0],[1,-1],[1,1],[1,0],[1,1],[2,-1],[1,0],[2,-2],[1,-2],[4,2],[2,0],[2,1],[2,3],[1,0],[2,-2],[4,2],[0,4],[1,2],[1,1],[2,1],[1,1],[0,1],[2,-1],[3,-1],[1,-1],[3,-1],[0,1],[1,1],[3,0],[1,2],[2,-1],[1,-3],[1,0],[0,-1],[1,1],[2,-1],[0,-2],[1,-3],[2,-2],[0,-1],[2,-3],[-1,-3],[0,-4],[2,-2],[2,0],[0,-3],[2,0],[1,1],[2,-2],[0,-1],[1,1],[0,1],[2,-1],[0,-2],[2,-1],[3,0],[0,-2],[-1,-1],[1,-2],[1,-1],[0,-3],[1,-1],[1,0],[0,-2],[1,-2],[1,-1],[1,-3],[0,-3],[2,0],[2,1],[3,0]],[[253,320],[2,-1],[1,1],[0,-1],[2,-3],[0,-5],[1,1],[2,1],[0,-1],[1,0],[0,-2],[3,0],[2,-3],[5,-5],[0,-1],[1,-2],[0,-1],[1,-3],[2,0],[1,1],[1,0],[1,-1],[-1,-1],[0,-3],[1,-1],[0,-1],[-1,1],[-1,-1],[-1,0],[0,-5],[1,-1],[0,-3],[1,-4],[0,-8],[1,-1],[-1,-1],[0,-1],[1,-1],[1,-3],[0,-2],[1,0],[3,-3],[-1,-1],[0,-4],[1,-2],[1,2],[0,2],[2,-1],[2,-2],[0,-3],[1,-2],[0,-3],[3,-2],[1,0],[1,-1],[0,-1],[1,0],[0,-1],[1,-1],[-1,-1],[2,-2],[1,0],[0,-2],[2,0],[0,-2],[1,1],[0,-1],[1,1],[1,-2],[1,0],[-1,2],[0,1],[1,-1],[3,0],[0,1],[2,0],[0,-3],[2,0],[3,-2],[4,0],[0,1],[1,0],[3,-3],[0,-2],[5,-5],[3,0],[0,-1],[-1,-1],[2,-1],[1,-1],[0,-3],[-1,-1],[1,0],[5,-5]],[[338,204],[-1,-3],[0,-1],[-2,-1],[0,-1],[1,0],[-2,-2],[0,-1],[-2,2],[-3,2],[-2,-1],[0,-2],[-2,-1],[-1,1],[-1,2],[-3,0],[-2,-2],[-1,0],[0,-2],[1,0],[1,-1],[0,-3],[-1,-1],[-3,-1],[1,-1],[0,-2],[-4,-2],[0,-1],[-1,0],[0,-3],[1,-1],[1,-2],[-1,0],[-1,-1],[0,-2],[-1,-2],[0,1],[-2,1],[-1,-2],[3,-4],[1,-1],[2,-1],[0,-2],[-1,-2],[-1,0],[0,1],[-1,-1],[0,-4],[-2,-5],[-2,-2],[-3,0],[-1,-3],[1,0],[0,-1],[-1,-3],[-1,-5],[-2,0],[0,-4],[1,-1],[0,-4],[1,0],[-1,-3],[0,-1],[2,-2],[-1,-8],[0,-1],[-1,-1],[-2,2],[0,1],[-8,0],[0,-5],[-1,-1],[-1,-2],[-2,-5]],[[286,103],[-5,0],[0,1],[-1,1],[-1,0],[0,2],[-1,0],[0,1],[-1,2],[-1,0],[-3,3],[-3,2],[-4,4],[-2,3],[0,1],[-2,1],[-1,1],[-2,0],[0,1],[-2,0],[-2,2],[0,3],[1,5],[0,5],[-2,2],[-1,2],[-3,0],[-6,2],[0,1],[-1,0],[-1,3],[-3,4],[-2,10],[0,7],[-3,3],[0,1],[-1,2],[-1,5],[1,2],[1,0],[5,-2],[4,4],[0,10],[3,3],[3,1],[4,-3],[3,-4],[2,-1],[6,4],[1,1],[-1,3],[0,1],[-3,5],[-1,3],[-2,2],[-2,1],[0,1],[-1,1],[-1,0],[-3,-1],[-1,0],[-6,5],[0,1],[-1,0],[0,1],[-5,7],[-1,3],[-3,4],[-1,0],[0,1],[-4,-2],[-3,-4],[-1,-2],[-2,-1],[-4,0],[-3,-4],[0,-1],[-1,-3],[-2,-2],[0,-1],[-1,-4],[0,-2],[-3,-5],[-1,-2],[-1,-3],[-1,-6],[-2,-3],[0,-3],[-1,-2],[-3,-3],[-1,0],[-2,1],[-4,5],[-2,4],[0,2],[-1,1],[-2,3],[-2,4],[1,2],[0,3],[-1,2],[-1,1]],[[671,266],[-2,-2],[-6,-4],[0,-2],[-2,-4],[-2,-2],[-2,3],[-2,1],[-1,-1],[-1,-2],[-2,-3],[-2,-2],[0,-1],[-1,-1],[-1,0],[-1,1]],[[646,248],[0,-1]],[[646,247],[-1,0],[0,3],[-1,0]],[[644,249],[0,1]],[[644,250],[-1,0],[0,1]],[[643,252],[0,-1]],[[643,251],[-2,0],[1,1],[-1,0],[-1,-3],[0,-1],[-1,-1]],[[639,247],[-3,0],[0,-3],[-1,1],[-1,0],[0,-3],[-1,-1],[-1,1],[-4,2],[-1,0],[0,1],[-1,-1],[0,-1],[-1,1],[-2,1],[-1,0],[0,-1],[-1,-1],[-2,1],[0,2],[-1,1],[-1,-2],[0,-4],[-1,0],[0,1],[-1,1],[-1,0],[0,-2],[-1,0],[-1,-1],[0,1],[-1,1],[-3,0],[0,-1],[-1,-1],[-1,2],[-2,-2],[0,3],[-1,0],[0,-3],[1,-1],[0,-4]],[[604,235],[-2,-1],[0,1],[2,2],[-1,1],[-1,-1],[-1,-2],[-1,-4],[0,1],[-1,2],[0,1],[-1,1],[0,4],[1,0],[0,2],[1,0],[1,2],[-1,2],[-1,0],[0,1],[1,0],[-1,1],[-1,0],[0,2],[-1,2],[0,1],[-1,1],[-1,2],[0,2],[-1,0],[0,2],[-1,1],[0,-1],[-2,-2],[0,-1],[-1,-1],[-6,3],[-1,3],[3,3],[0,3],[1,1],[0,4],[1,1],[0,5],[-1,0],[0,1],[-1,0],[-1,3],[0,2],[-1,0],[-1,-1],[0,1],[-4,0],[-3,-1],[-2,2],[0,1],[-1,3],[0,2],[1,1],[-1,1],[0,5],[1,1],[0,3],[1,0],[1,1],[-1,1],[0,3],[-2,4],[0,2],[-3,3],[-1,0],[0,1],[-1,1],[0,1],[-1,0],[0,2],[-1,2],[-1,0],[-1,4],[1,1],[-3,3],[-1,2],[0,3],[-1,1],[-2,0],[0,5],[-2,2],[0,2],[1,1],[0,1],[2,4],[1,1],[0,1],[-2,4],[0,2],[-2,2],[-1,2],[-2,0],[-1,2],[0,3],[-1,0],[0,8],[1,1],[0,1],[1,2],[-2,3],[0,4],[-1,1],[-1,2]],[[342,935],[2,-2],[2,-1],[1,-2],[1,-1],[1,1],[1,-3],[1,-1],[0,-3],[1,-2],[1,0],[2,-2],[1,-2],[1,-4],[0,-1],[-3,-3],[0,1],[-2,0],[-1,-3],[-1,0],[0,-4],[-1,-1],[0,-2],[-2,0],[-1,-1],[0,-1],[-1,0],[-1,-1],[-1,0],[-2,-2],[-1,0],[-1,-1],[0,-2],[-2,-1],[0,1],[-2,1],[-1,-1],[-1,2],[-2,0],[0,1],[-3,0],[-1,-1],[-4,0],[-1,1],[0,1],[-3,3],[0,-1],[-1,0],[0,1],[-1,0],[0,-2],[-1,-1],[-2,-3],[0,-7],[1,-1],[0,-2],[2,1],[2,-1],[1,0],[0,1],[1,-1],[0,-1],[1,-1],[2,-1],[1,0],[1,1],[0,-2],[1,0],[1,-1],[0,-3],[1,0],[1,1],[0,-3],[-2,-2],[0,1],[-1,0],[0,-2],[-2,-2],[0,-2],[1,0],[-1,-1],[-1,0],[-2,-2],[0,-1],[-1,0],[-1,1],[0,-3],[-1,-1],[1,-2],[0,-5],[-1,-1],[-1,1],[-1,0],[0,-6],[-1,-1],[-2,1],[-2,3],[0,1],[-2,2],[0,1],[-2,2],[-1,0],[-2,5],[0,1],[-2,-2],[-2,-3],[-1,-1],[0,-1],[-4,-4],[-1,-4],[0,-7],[-1,-2],[0,-5],[-3,0],[0,1],[-2,0],[-1,-2],[-2,1],[0,-2],[1,-1],[0,-1],[1,0],[0,-2],[-1,0],[-1,-1],[0,-3],[3,-2],[3,0],[0,-1],[1,-1],[0,-2],[1,3],[0,1],[1,1],[3,2],[1,-1],[2,0]],[[249,799],[-1,2],[-1,1],[-1,2],[-2,0],[1,1],[0,1],[-1,1],[-1,2],[1,1],[0,1],[-2,2],[-2,0],[0,4],[-2,1],[-1,-1],[0,1],[-1,1],[0,-1],[-2,0],[-2,2],[-2,-1],[-1,-1],[0,2],[-4,0],[-3,-1],[-1,1],[-1,5],[0,8],[-2,2],[-2,0],[-2,1],[0,3],[1,0],[-1,4],[0,-1],[-3,1],[0,6],[-2,0],[-1,3],[0,1],[-2,0],[0,2],[-1,1],[-2,0]],[[203,856],[1,3],[0,3],[1,2],[0,4],[1,0],[1,2],[0,4],[1,2],[2,1],[1,0],[0,5],[1,3],[0,-1],[2,0],[3,3],[1,2],[0,1],[-1,2],[1,0],[3,-3],[4,-1],[2,0],[0,-1],[2,0],[0,2],[1,3],[0,6],[1,1],[0,1],[2,0],[2,2],[0,-1],[6,-6],[1,-2],[6,0],[1,1],[4,1],[2,2],[1,0],[0,1],[2,3],[0,3],[1,1],[0,2],[5,0],[2,2],[0,1],[-1,3],[-1,1],[1,1],[0,2],[-1,1],[0,2],[1,0],[2,-1],[1,0],[4,4],[1,0],[2,3],[3,6],[1,0],[1,2],[2,0],[2,1],[-1,7],[-1,0],[0,1],[-1,1],[0,1],[1,1],[1,0],[2,-2],[1,1],[1,-1],[2,-1],[0,-2],[2,0],[0,-1],[2,2],[4,2],[2,0],[1,1],[-1,1],[0,1],[1,0],[0,1],[1,2],[-1,1],[0,1],[1,1],[0,4],[1,1],[0,1],[1,1],[-1,0],[0,1],[3,3],[0,1],[2,2],[0,1],[2,0],[0,-4],[1,0],[0,-1],[4,-1],[2,0],[0,2],[2,0],[0,-3],[1,-2],[1,0],[0,-1],[-1,-2],[0,-1],[1,-3],[2,-1],[0,1],[1,0],[1,-2],[1,0],[0,-1],[-1,-1],[2,-2],[1,1],[2,-3],[1,-1],[1,0],[1,-1],[0,-1],[2,-1],[1,0],[1,-1],[1,-2],[3,0],[2,-2]],[[295,816],[-1,1],[0,-1],[1,0]],[[442,264],[-2,-4],[1,-2],[2,0],[0,-2],[2,2],[1,0],[0,1],[2,2],[0,3],[1,0],[0,4],[1,1],[0,2],[1,2],[0,1],[1,0],[1,-1],[0,-6],[1,-1],[0,-4],[1,-3],[0,-1],[1,0],[0,-2],[1,-2],[1,-1],[0,-1],[-1,-3],[1,-1],[0,-4],[2,0],[2,-4],[0,-1],[3,1],[2,1],[3,-2],[1,-2],[1,0],[0,-1],[-1,0],[0,-1],[-1,0],[-2,-3],[1,0],[1,-9],[0,-3],[1,-3],[0,-1],[-1,-2],[1,-7],[1,-1],[1,-4],[0,-1],[-1,-2],[2,0],[0,-2],[-1,-1],[0,-2],[-1,-6],[1,0],[0,-6],[3,0],[-1,-2],[0,-6],[-1,-1],[1,-3],[0,-2],[-1,-1],[1,-1],[2,1],[2,0],[0,-1],[2,0],[1,-1],[0,2],[6,0],[1,-1],[0,-2]],[[489,164],[0,-3],[-4,0],[-3,-2],[1,-6],[1,-2],[1,0],[0,-2],[-1,0],[0,-2],[-1,-1],[-1,-2],[1,-1],[0,-8],[-1,-1],[1,-1],[-1,-1],[1,-1],[1,0],[0,-1],[-2,-2],[-2,-3],[-1,-2],[1,-2],[1,-1],[0,-5],[2,-2],[1,-2],[1,-1],[1,-4],[0,-4],[-1,-2],[0,1],[-2,0],[-3,-1],[0,-1],[-1,-1],[-3,0],[0,-1],[-3,-2],[-2,0],[0,-2],[1,-1],[-1,0],[0,-1],[1,0],[0,-1],[-6,-2],[-6,-3],[0,-4],[-1,-1],[0,-1],[1,1],[0,-2],[-1,0],[1,-1],[0,-1],[-1,-1],[0,-1],[2,0],[1,-1],[1,-3],[1,-1],[-1,0],[-1,-1],[0,-2],[1,0],[0,-1],[2,-5],[2,0],[0,-3],[-1,0],[0,-4],[2,1],[1,0],[0,-2],[1,0],[0,-3],[2,-3],[-1,-1],[-2,1],[0,-1],[-1,-1],[4,0],[1,-1],[1,1],[1,-1],[0,-1],[-1,0],[-1,-1],[1,-2],[0,-2],[-3,-1],[-2,-1],[0,-2],[-1,0],[0,-3],[-1,0],[0,-2],[-1,1],[-1,0],[-1,-2],[1,0],[1,-1],[-1,-4]],[[465,22],[-6,6],[-3,1],[-4,1],[-5,0],[-5,-4],[0,-1],[-1,0],[0,-1],[-2,-2],[-7,-5],[-6,0],[-1,-1],[-2,0],[-4,-2],[-5,0],[-2,1],[-5,2]],[[407,17],[2,16],[1,1],[1,3],[1,4],[2,0],[1,1],[1,-1],[1,3],[-1,1],[0,1],[1,3],[-1,0],[1,2],[1,0],[1,-1],[1,2],[-1,0],[1,3],[0,3],[1,5],[0,3],[1,1],[-1,0],[0,1],[-2,2],[1,3],[2,0],[1,2],[0,6],[-1,1],[-7,1],[-1,0],[0,5],[1,4],[-1,1],[1,4],[4,0],[0,11],[-1,1],[1,5],[0,1],[1,3],[-1,0],[0,2],[-1,1],[1,2],[0,2],[1,3],[-1,1],[0,2],[-5,3],[-2,1],[-2,0],[1,1],[0,2],[-2,1],[-2,0],[0,7],[-2,0],[0,2],[-2,5],[0,1],[-1,1],[-1,0],[0,1],[-1,1],[0,2],[1,1],[-3,3],[1,1],[-1,1],[-1,-2],[-3,-1],[-1,2],[-2,0],[0,3],[1,1],[0,2],[-2,1],[-5,2],[-1,-2],[-1,2],[0,2],[1,3],[0,4],[1,1],[-2,2],[1,1],[0,1],[1,1],[0,3],[-1,0],[0,1],[2,0],[1,2],[1,1]],[[379,800],[0,-2],[-2,-2],[0,-2],[-1,-1],[0,-1],[-1,-1],[0,-1],[1,0],[-2,-2],[1,-2],[1,-1],[0,-3],[-1,-1],[-1,2],[0,1],[-3,2],[-1,2],[0,-4],[-1,-1],[0,-4],[-3,1],[0,2],[-1,-1],[0,-1],[-2,0],[-1,-2],[-3,0],[-1,-2],[0,-3],[-1,0],[0,-3],[-1,-1],[0,-1],[1,-2],[-2,-2],[-2,-1],[-1,1],[0,1],[-1,1],[-2,0],[-1,-1],[0,-1],[-1,-1],[0,-2],[-1,1],[-1,-1],[-3,0],[1,-3],[-1,-3],[1,-1],[0,-2],[-2,0],[0,-5],[-2,0],[-1,1],[-1,-2],[-1,0],[0,1],[-1,-1],[2,-2],[0,-4],[2,0],[1,-1],[0,-3],[1,-1],[0,-2],[-2,0],[0,-2],[1,-1],[-2,-1],[0,-1],[1,0],[-1,-1],[-1,0],[-1,-1],[-1,0],[0,-1],[-2,0],[-1,-2],[-1,-1],[-1,0],[0,-1],[1,-1],[-2,0],[0,-1],[2,-2],[-2,-2],[0,-1],[-1,0],[0,-2],[-1,0],[-1,-1],[1,-1],[0,-1],[-2,-1],[-1,1],[-2,-1],[0,-2],[-2,-1],[-1,1],[0,2],[-2,0],[0,6],[-2,2],[0,2],[-1,1],[0,-1],[-1,-1],[0,-3],[1,-1],[-2,-2],[-1,0],[1,-4],[1,-3],[-2,-2],[0,-1],[-1,-2],[-2,2],[-1,0],[-4,-4],[-2,-1],[-2,2],[0,1],[-1,2],[1,1],[0,2],[-3,3],[-1,-4],[-1,-1],[-1,2],[1,1],[-1,1],[-1,-1],[-1,-2],[0,2],[-1,2],[-1,0],[-1,-1],[-1,2],[-1,1],[-2,1],[0,-1],[-1,0],[-1,1],[0,1],[-1,0],[0,2],[-2,0],[0,8],[-1,1],[-1,0],[-1,1],[0,1],[-1,-1],[-1,1],[0,1],[-2,0]],[[272,726],[0,-1]],[[272,725],[-1,-1],[-3,-2],[-1,1],[0,2],[-4,3],[-2,1]],[[261,729],[-1,0],[-2,2],[0,3],[-1,0],[0,3],[-1,1],[-2,0],[-1,1],[-3,0],[-3,2],[-3,3],[0,1],[-1,0],[-1,1],[-1,2],[0,1],[-1,0],[-2,2],[2,0],[4,2],[0,1],[-1,0],[-1,2],[-1,0],[0,1],[1,1],[0,1],[-1,0],[-1,1],[1,2],[-1,1],[-2,0],[-1,1],[0,2],[-1,1],[0,1],[1,0],[1,1],[0,7],[1,1],[2,1],[2,3],[0,4],[-1,0],[0,7],[1,1],[2,-1],[0,2],[1,3],[1,0],[2,2]],[[249,799],[1,0],[0,2],[1,-1],[0,2],[-1,0],[1,2],[1,1],[0,3],[3,1],[0,-1],[3,3],[4,2],[-1,0],[0,1],[2,1],[1,1],[0,1],[2,0],[2,-1],[1,-1],[1,-2],[1,3],[2,2],[2,-2],[1,1],[5,-1],[0,-2],[1,-1],[-1,0],[0,-1],[1,0],[0,-3],[1,0],[0,-1],[2,-3],[2,-2],[3,3],[0,1],[1,-2],[1,-1],[3,0],[0,-1],[1,0],[0,2],[1,0],[1,1],[1,0],[1,2],[-1,2],[2,2],[1,0],[0,8],[-1,2]],[[301,822],[3,1],[1,0],[1,-1],[1,1],[1,2],[1,1],[0,-1],[1,0],[1,-1],[0,-2],[2,-2],[0,2],[2,-1],[1,0],[2,-2],[2,0],[0,-1],[3,0],[0,-1],[1,0],[1,-1],[1,0],[1,1],[1,-1],[0,-3],[2,-2],[3,0],[1,-1],[0,1],[2,-2],[3,-1],[1,0],[3,-3],[1,0],[0,1],[1,1],[4,-1],[0,-1],[2,0],[0,2],[1,0],[1,1],[1,0],[0,3],[1,0],[1,1],[2,-1],[2,-2],[0,-3],[2,-2],[0,-1],[3,0],[-1,-1],[0,-1],[1,-2],[0,-1],[2,-2],[1,0],[1,1],[1,0],[0,3],[3,0],[3,1],[1,0],[0,-1],[2,0]],[[451,422],[1,-2],[0,-5],[1,-2],[-2,-3],[-1,-2],[1,-2],[0,-7],[-2,-2],[-1,0],[-2,-2],[0,-2],[1,-7],[2,-6],[0,-1],[-1,-1],[1,-4],[0,-1],[-1,0],[-2,2],[-1,-1],[0,-2],[1,-4],[1,0],[0,-6],[-1,-1],[1,0],[0,-1],[1,-3],[-2,-2],[1,-1],[0,-2],[-1,-2],[-1,-1],[1,-1],[-1,-1],[1,-5],[1,1],[1,-2],[0,-1],[-1,-1],[1,-1],[1,0],[2,-2],[-1,-1],[0,-1],[-1,-1],[-1,0],[0,-2],[2,-2],[0,-9],[-1,0],[0,1],[-1,1],[-1,-3],[1,-1],[0,-1],[1,0],[0,-3],[-1,0],[0,-1],[-2,-3],[2,0],[2,-1],[1,-2],[-2,-4],[-2,-2],[0,-2],[2,-1],[0,-2],[-2,-2],[-1,-3],[0,-3],[-1,-2],[1,0],[1,1],[1,-2],[-1,-2],[-2,-2],[0,-5],[1,0],[0,-3],[-1,-2],[0,-1],[-1,-3],[-1,-1],[-1,-2]],[[442,264],[-2,2],[0,7],[-3,3],[-1,-3],[0,-1],[-1,-2],[-2,-1],[-2,0],[0,-3],[-1,-2],[-1,-1],[1,-1],[0,-4],[-1,-1],[0,-5],[-1,-2],[-1,0],[0,-2],[-2,-1],[0,-13],[1,-2],[0,-3],[1,-1],[0,-8],[1,-2],[1,0],[0,-2],[1,-2],[0,-12],[-4,2],[0,4],[-1,3],[-2,0],[0,-5],[-1,-5],[1,-1],[-2,1],[-5,0],[0,-1],[-1,-1],[0,1],[-1,1],[-1,0],[-1,1],[-1,-1],[-1,-2],[-1,-1],[-1,0],[0,-3],[-1,0],[-1,-2],[-1,0],[0,-2],[-1,-2],[0,-2],[-1,1],[-1,0],[-1,2],[0,1],[-2,0],[1,1],[0,2],[-2,0],[0,2],[-2,0],[-2,2],[-1,-1],[-2,-1],[-1,0],[-1,1],[-1,-2]],[[388,195],[-1,8],[-1,3],[-1,0],[-1,2],[0,2],[-1,2],[0,2],[2,2],[-2,1],[-2,0],[0,-1],[-1,1],[-1,2],[-2,0],[0,1],[-1,1],[-1,-1],[-1,0],[0,-1],[-1,0],[0,10],[-1,1],[0,1],[1,2],[-1,2]],[[372,235],[0,11],[-1,1],[0,3],[1,3],[1,1],[0,1],[1,3],[-1,1],[0,2],[-1,1],[1,2],[0,1],[-1,1],[0,2],[-1,0],[0,1],[-1,0],[0,7],[1,1],[0,12],[-1,2],[0,7],[4,4],[0,3],[-1,1],[0,2],[-1,3],[3,1],[2,1],[0,5],[-1,1],[0,1],[1,0],[0,2],[-1,1],[0,1],[1,2],[2,1],[0,1],[1,1],[0,3],[-1,4],[-1,3],[-1,1],[-1,2],[-1,4],[0,3],[-1,4],[3,8],[1,3],[1,1],[0,3],[-2,1],[-3,4],[-2,-1],[-2,-2],[-2,-1],[-1,-1],[-1,0],[-1,1],[-2,-1],[-1,0],[-4,4],[-1,-1],[-1,-2],[-3,2],[-1,1],[0,1]],[[754,854],[1,-1],[3,-1],[0,-1],[-1,-2],[1,-1],[0,-2],[1,0],[0,-2],[2,-2],[-1,0],[0,-1],[1,-1],[1,0],[0,-1],[-1,0],[0,-2],[1,-2],[0,-1],[2,-2],[1,0],[0,-1],[1,-1],[1,1],[0,-1],[1,0],[0,1],[2,0],[0,0],[1,-1],[1,-2],[1,-1],[0,-2],[-1,-2],[0,-4],[2,-2],[0,-2],[1,0],[0,-2],[-1,0],[-1,-1],[0,-4],[1,-1],[0,1],[1,1],[0,-1],[-1,-1],[1,-1],[1,1],[0,-5],[1,0],[0,-2],[1,0],[-1,-1],[0,-1],[-2,0],[1,-1],[0,-1],[1,1],[0,-1],[1,0],[1,1],[0,-2],[1,-1],[0,-1],[1,-1],[1,1],[2,0],[0,-1],[1,0],[0,-3],[1,0],[0,1],[2,0],[-1,1],[1,1],[0,-1],[1,-1],[1,1],[0,-1],[1,-1],[0,-2],[1,-1],[0,-2],[1,-1],[0,-3],[-1,1],[0,-2],[1,0],[0,-2],[2,0],[0,-2],[1,-1],[0,-5],[1,-1],[1,0],[0,-4],[1,-2],[-1,-2],[-1,-1],[0,-1],[3,-1],[2,-1],[1,-1],[0,-1],[-1,1],[-2,-2],[1,-1],[1,0],[2,-2],[1,0],[0,0],[1,-2],[0,-1],[2,-1],[0,-3],[1,0],[1,-1],[2,-1],[1,0],[1,-2],[-1,-1],[2,0],[0,-2],[1,1],[1,-2],[1,0],[0,-2],[3,-1],[1,1],[0,1],[1,-1],[0,-1],[-1,-2],[1,0],[1,-1],[0,-1],[1,0],[0,-1],[2,-2],[0,-1],[2,-1],[-2,-4],[1,-1],[1,0],[0,-5],[1,-1],[0,-1],[1,0],[-1,-2],[0,-1],[-2,-2],[0,-1],[2,-1],[1,0],[0,-4],[-1,0],[1,-2],[1,-3],[-1,-1],[0,-2]],[[825,730],[-1,0],[-1,1],[1,1],[0,-1],[1,-1]],[[661,786],[6,-8],[0,-2],[1,-1],[0,-1],[2,-2],[0,-2],[2,0],[0,-4],[-1,-1],[0,-2],[1,0],[-1,-1],[0,-2],[1,-1],[0,-3],[1,0],[0,-1],[-1,-1],[0,-3],[3,-4],[4,4],[1,0],[0,-1],[1,-1],[1,-2],[1,0],[1,-1],[1,1],[2,1],[1,0],[1,-2],[2,-2],[0,-1],[2,-2],[1,-2],[0,-3],[1,-1],[1,2],[1,1],[1,0],[1,1],[1,0],[0,1],[1,-2],[-1,0],[-1,-1],[1,-1],[1,1],[2,-4],[3,2],[0,1],[2,0],[0,1],[1,1],[0,2],[1,1],[0,3],[1,0],[1,-2],[1,-3],[0,-1],[-1,0],[1,-2],[2,-2],[2,2],[0,2],[-1,0],[1,1],[1,2],[1,1],[0,2],[2,2],[1,0],[1,1],[7,-2],[2,-4],[1,-3],[-1,-1],[0,-1],[1,-2],[1,-1],[1,0],[1,-2],[2,-1],[0,-3],[1,-1],[-1,-1],[0,-1],[-1,-1],[0,-1],[-1,0],[-1,1],[-1,0],[-1,1],[0,1],[-1,0],[-1,-1],[0,-3],[-1,0],[-1,-2],[-1,-1],[0,1],[-1,0],[-1,-2],[4,-5],[1,-1],[1,-2],[2,-2],[0,-5]],[[270,634],[0,-2],[3,-2],[1,0],[1,-1],[0,-1],[2,-1],[2,1],[3,3],[2,1],[1,-1],[2,-1],[1,1],[1,0],[0,-4],[1,0],[1,-4],[0,-2],[1,-1],[1,0],[2,-2],[0,-6],[1,1],[4,0],[0,2],[1,3],[0,-1],[1,0],[2,1],[0,2],[1,0],[1,1],[1,0],[2,1],[1,-2],[0,-2],[5,0],[1,1],[2,0],[1,2],[1,1],[-1,1],[0,3],[2,0],[1,-1],[4,2],[1,-1],[2,2],[2,0],[1,-2],[3,0],[1,-1],[2,0],[0,-2],[1,-2],[1,-1],[1,0],[2,-2],[1,0],[1,-1],[1,1],[0,1],[2,1],[0,-2],[1,-1],[2,2],[1,0],[0,-2],[1,0],[1,-1],[0,-1],[-1,0],[0,-2],[-1,-2],[0,-5],[1,-1],[0,-4],[3,-2],[2,0],[0,-1],[2,0],[1,2],[1,0],[-1,2],[-1,0],[0,-1],[-1,1],[0,2],[2,1],[-1,2],[1,2],[2,1],[1,0],[3,-1],[3,2],[2,0],[2,1],[3,0],[0,1],[2,-1],[0,-1],[1,-1],[0,-1],[1,1],[0,-1],[1,-1],[1,1],[-1,1],[2,2],[1,-1],[0,1],[1,0],[0,-1],[1,-2],[3,0],[1,-2],[2,-2],[1,0]],[[364,404],[-1,-3],[-1,-1],[-1,-3],[-2,-1],[-1,0],[-1,-1],[-1,1],[0,2],[-1,-1],[-2,2]],[[255,599],[0,1],[1,1],[1,0],[3,4],[-2,1],[-1,1],[0,3],[-1,2],[0,3],[-1,0],[0,1],[-1,-1],[1,2],[1,1],[-1,3],[0,4],[1,-1],[1,0],[3,4],[1,2],[2,0],[1,1],[0,1],[-1,3],[1,0],[1,1],[2,-2],[3,0]],[[255,599],[0,-2],[1,-2],[1,-1],[1,0],[0,-3],[1,-1],[2,0],[2,-1],[0,-1]],[[47,547],[1,1],[0,4],[1,1],[1,0],[-1,1],[0,3],[2,-1],[2,0],[-1,5],[0,3],[-1,2],[1,1],[2,4],[3,0],[0,1],[3,0],[1,1],[2,0],[1,1],[1,-1],[0,-1],[1,-2],[4,-1],[0,2],[2,1],[1,-1],[0,-2],[1,0],[1,-1],[2,0],[3,1],[1,-2],[1,-1],[3,-2],[0,3],[1,-1],[0,1],[1,0],[1,2],[1,0],[0,3],[1,5],[1,0],[2,1],[0,-2],[3,0],[1,2],[-1,2],[1,4],[0,1],[2,1],[0,9],[1,4],[1,0],[0,1],[1,1],[6,-2],[1,1],[0,1],[1,4],[1,2],[0,4],[-1,1],[0,1],[-2,2],[-1,0],[-1,5],[1,6],[0,2],[1,1],[1,0],[1,4],[2,4],[-2,2],[0,1],[1,5],[1,3],[3,0],[1,1],[1,0],[1,-1],[0,-1],[3,-1],[1,2],[0,3],[3,1]],[[125,652],[2,1],[0,1],[1,0],[1,-1],[1,0],[1,1],[1,-2],[0,-3],[2,0],[1,-2],[0,-2],[1,-3],[2,-1],[0,4],[-1,0],[1,1],[0,2],[-1,1],[1,3],[1,0],[3,-1],[2,0],[1,1],[0,1],[1,2],[5,0],[1,-1],[2,0],[1,1],[0,-1],[2,1],[3,-2],[3,0],[3,2],[1,1],[2,0],[0,1],[1,1],[4,-2],[0,-3],[-2,-4],[-1,-1],[3,0],[2,-2],[3,-1],[1,0],[0,1],[2,0],[2,1],[1,3],[1,1],[0,2],[1,-1],[0,-1],[3,-3],[1,1],[1,0],[0,-1],[1,1],[0,-4],[1,-1],[1,0],[1,-1],[0,-1],[1,0],[1,1],[1,-1],[2,0],[1,-2],[-1,-3],[0,-2],[1,-1],[0,-3],[1,-3],[-1,-1],[3,-4],[1,-1],[1,2],[0,-1],[1,0],[0,-1],[2,-2],[1,1],[1,-1],[1,0],[1,1],[3,2],[1,0],[0,-7],[2,-2],[0,-5],[1,-2],[1,0],[2,-2],[0,-1],[-1,0],[3,-4],[1,0],[1,-2],[1,0],[0,-2],[3,-1],[5,0],[4,1],[1,1],[2,0],[1,1],[1,0],[1,-1],[2,-1],[3,0],[2,2],[0,1],[1,0]],[[681,829],[0,-3],[-1,0],[0,1],[-1,-1],[0,-4],[2,-5],[1,0],[0,-2],[-1,-2],[-1,2],[0,1],[-4,-3],[0,-1],[3,-3],[0,-1],[-1,-2],[1,0],[0,-1],[-7,-1],[-2,2],[0,1],[-2,1],[0,2],[-1,1],[-3,0],[-1,2],[0,1],[-3,-2],[-1,-1],[1,-2],[1,-1],[-1,-1],[1,-2],[-1,0],[0,-3],[1,-1],[0,-1],[1,0],[1,-2],[1,-3],[1,0],[1,-1],[0,1],[1,0],[1,-2],[-1,-2],[0,-1],[-2,2],[-4,-6]],[[661,786],[-1,2],[-1,1],[-1,0],[-1,3],[-3,3],[0,2],[-1,1],[-3,2],[-2,-2],[-1,1],[-1,-2],[0,-1],[-1,0],[-8,-5],[0,-1],[-1,-1],[-3,-2],[-2,3],[-1,0],[-3,3],[-1,0],[-1,-2],[-3,-2],[-2,2],[-4,-3],[-1,-1],[-2,-1],[-2,1],[-1,2],[-1,0],[-1,-1],[-2,1],[-2,0],[-1,-1],[-2,-1],[-1,0],[0,-2],[-1,-2],[-2,1],[-1,1],[-1,2],[0,1],[-2,3],[-1,0],[-2,2],[0,1],[-2,0],[0,1],[-1,0],[-3,1],[-2,0],[1,-2],[1,0],[0,-2],[1,-3],[1,-1],[0,-1],[1,-4],[-2,-4],[-3,-2],[-2,-1],[-1,-2],[0,-1],[-1,-2],[0,-1],[-1,0],[0,-2],[1,-3],[-1,-1],[-1,0],[-1,-3],[-1,-1],[1,-1],[0,-1],[-1,-1],[-1,-2],[0,-2],[-1,0],[-1,-6]],[[508,757],[0,10],[-1,1],[0,4],[-1,2],[1,2],[0,1],[1,1],[1,2],[1,3],[-2,1],[-1,1],[-2,3],[-1,1],[2,3],[2,1],[2,2],[-1,4],[0,2],[-1,0],[0,8],[-1,-1],[-2,2],[0,2],[-3,4],[-1,1],[-1,0],[-1,1],[2,0],[3,3],[1,-2],[2,-2],[0,3],[1,1],[1,0],[0,1],[2,2],[-1,1],[-1,-1],[-2,4],[-1,1],[0,1],[1,1],[1,0],[1,1],[0,2],[2,1],[0,4],[-1,1],[-1,0],[0,1],[-2,4],[0,3],[-2,0],[-3,2],[-1,2],[-4,4]],[[497,856],[0,3],[2,0],[1,2],[2,2],[4,2],[1,0],[0,4],[-3,1],[0,1],[-2,2],[-3,4],[-2,2],[-1,0],[0,5]],[[496,884],[4,0],[1,-1],[0,1],[1,1],[3,-1],[0,-1],[1,2],[1,1],[0,1],[1,0],[5,3],[1,1],[0,1],[2,3],[1,2],[1,0],[1,1],[0,3],[2,4],[0,1],[1,1],[1,2],[0,1],[2,2],[0,5],[1,2],[1,1],[2,-1],[1,0],[2,3],[1,0],[0,1],[1,0],[0,1],[3,0],[11,2],[1,1],[14,2],[1,0],[3,2],[2,0],[6,-1],[3,0],[1,1],[0,-1],[1,0],[3,-1],[4,3],[2,2],[0,1],[1,0],[2,1],[2,-1],[1,-1],[2,0],[0,1],[1,1],[0,1],[3,0],[1,-1],[1,0],[0,1],[2,0],[3,1],[2,1],[4,1],[4,-2]],[[615,406],[-1,-1],[0,-4],[-1,0],[-1,-1],[-2,2],[-1,0],[0,1],[-1,1],[0,1],[-1,2],[-2,0],[-1,-1],[-3,1],[-2,2],[-1,-3],[-2,-2],[0,-6],[-1,-1],[1,-1],[-1,-3],[0,-1],[-2,-1],[0,-3],[-1,0],[-1,1],[-1,0],[-1,1],[0,2],[-2,6],[-1,0],[-1,1],[0,1],[-2,-1],[-1,-2],[-2,1],[-2,-1],[-2,4],[-1,1],[-2,3],[-1,-1],[-2,-1],[-1,0],[-1,1],[0,-2],[-1,-1],[-1,-2],[-1,-1],[0,-1],[-1,-1],[-1,0],[-1,2],[-4,-2],[-1,0],[0,1],[-2,1],[-2,-2],[-1,-2],[-2,0],[-1,-1],[0,-1]],[[549,392],[-2,-1],[-2,-2],[0,-1],[-1,-2],[1,-3],[-1,-3],[-4,1],[-2,-1],[-3,-1]],[[535,379],[-1,2],[0,5],[-1,2],[-3,-3],[-1,2],[-1,1],[0,1],[1,2],[1,1],[0,1],[-1,1],[0,1],[-2,4],[0,5],[-1,3],[0,1],[-1,0],[-1,2],[-1,-1],[-2,0],[-1,3],[-2,2],[-1,2],[0,1],[-1,1],[-1,0],[0,2],[-3,3],[-1,0],[-1,-1],[-4,2],[-2,0],[-1,-1],[-4,0],[0,1],[-2,0],[-2,-2],[-3,3],[-8,0],[0,1],[-1,1],[-2,1],[-1,-1],[-2,1],[-1,0],[-2,-1],[-2,0],[0,1],[-2,-1],[-3,0]],[[256,352],[0,-1],[-1,-2],[-1,-1],[-2,-1],[0,-3],[-2,-2],[-1,0],[-2,-1],[0,-2],[-1,0],[-1,-2],[0,-2],[-2,-3],[0,-1],[2,-4],[2,-1],[3,0],[2,-2],[1,-2],[0,-2]],[[253,320],[0,-1],[-2,-2],[0,-1],[-5,-10],[-2,0],[-1,-2],[0,-2],[-3,-6],[-2,-2],[-1,0],[-1,-3],[1,-1],[1,0],[0,-3],[-1,0],[-2,-1],[1,-2],[0,-6],[-1,-1],[0,-5],[-1,-2],[0,-1],[-1,-2],[0,-1],[-1,-1],[0,-3],[-1,0],[0,-3],[-2,-4],[0,-5],[-1,-2],[0,-3],[-2,-1],[0,1],[-1,1],[0,-1],[-1,0],[0,-1],[-1,0],[0,-1],[-2,-2],[0,3],[-1,4],[-1,1],[-2,0],[-2,1],[-3,0],[-2,3],[0,2],[-1,1],[-2,1],[-1,1],[0,-4],[-1,-1],[0,-1],[-1,-2],[1,-3],[0,-3],[-1,-1],[0,-1],[-1,-1],[-1,0],[-1,1],[-1,-2],[0,-7],[-1,-3],[0,-6],[1,-2],[2,-1],[0,-5],[-2,-5],[0,-2],[-1,-1],[-1,3],[-1,-1],[0,-1],[-2,1],[-2,5],[-1,1],[-1,-2],[-1,-1],[-4,-1],[-1,-1]],[[185,211],[-1,2],[0,4],[-1,1],[-4,1],[-4,2],[-2,0],[-6,2],[-3,-1],[-2,3],[-5,-2],[-3,0],[-3,2],[-6,-1],[-1,2],[-1,4],[0,7],[-1,4],[-2,4],[-3,2],[-2,1],[-4,0],[-4,1],[-5,-1],[-3,3],[0,3],[-2,4],[-1,1],[0,7],[1,2],[2,0],[0,1],[2,-1],[1,2],[2,-1],[1,-1],[0,2],[1,-1],[4,0],[3,3],[4,1],[0,4],[-1,2],[0,3],[-9,6],[-2,1],[-1,0],[-3,3],[0,1],[1,1],[-1,1],[-2,1],[0,1],[-1,1],[0,1],[-2,2],[2,2],[2,0],[1,2],[1,0],[1,-1],[3,2],[0,1],[-1,2],[2,3],[1,2],[1,3],[-1,3],[1,3],[0,1],[2,0],[3,2],[0,3],[-2,4],[-1,1],[-1,0],[0,2],[-1,2]],[[831,692],[0,-3],[1,0],[0,-1],[1,-3],[2,-1],[0,-2],[1,-1],[0,1],[1,-2],[0,-3],[1,0],[0,-2],[-1,-1],[1,-2],[0,-2],[1,0],[0,-2],[1,-1],[1,-2],[0,-5],[1,-1],[0,1],[1,-1],[0,-1],[1,0],[0,-6],[1,-1],[-1,-1],[1,-1],[-1,-1],[1,-1],[0,-5],[-1,-1],[0,-4],[-1,0],[0,-4],[1,-2],[-1,0],[-1,-3],[0,-1],[1,0],[0,-3],[-1,0],[0,-2],[-1,0],[0,-3],[1,1],[1,-2],[0,-3],[2,0],[0,-3],[1,-1],[-1,-1],[0,-2],[1,0],[0,-4],[-1,-2],[-2,-1],[1,-1],[-1,-1],[0,-1],[1,0],[0,-2],[-2,1],[0,-2],[-2,-3],[0,-3],[-1,-1],[-1,0],[1,-2],[1,0],[0,-2],[-1,0],[0,-1],[1,-1],[1,-2],[-1,-2],[-1,-1],[-1,0],[0,-2],[-1,0],[0,-2],[-1,1],[-1,0],[0,-2],[-1,0],[0,1],[-1,-2],[0,-3],[1,-1],[0,-1],[-1,0],[-1,-2],[-1,0],[-1,-4],[1,-3],[0,0],[1,0],[0,-4],[1,1],[1,-1],[0,-1],[-1,0],[0,-1],[1,0],[-1,-1],[0,-2],[1,0],[-1,-2],[-1,-1],[0,-4],[1,-1],[0,-1],[-1,0],[0,-2],[-1,-2]],[[735,678],[2,0],[1,1],[-1,2],[0,1],[-1,0],[0,6],[1,1],[0,2],[-1,0],[-1,2],[1,0],[0,2],[-1,1],[-1,0],[0,2],[-1,2],[1,2]],[[734,702],[2,-1],[1,0],[0,-2],[1,0],[1,1],[1,-1],[2,0],[1,1],[1,0],[0,-1],[2,0],[0,-1],[1,0],[0,1],[2,0],[0,1],[1,1],[0,1],[2,0],[0,2],[1,-1],[1,1],[1,0],[0,-2],[3,-3],[0,-1],[1,0],[2,1],[0,-1],[1,0],[0,1],[3,0],[0,2],[2,-1],[1,0],[1,2],[0,2],[-1,0],[0,5],[1,0],[1,-1],[1,1],[1,-4],[0,-1],[1,-2]],[[773,701],[0,1]],[[773,702],[1,1],[1,0],[0,-2],[1,1],[0,1],[1,0],[0,1],[2,0],[1,1],[1,0],[0,2],[-1,2],[0,1],[-1,1],[-1,0],[0,4],[-1,1],[1,0],[0,2],[-1,0],[0,3],[1,3],[1,1],[1,0],[0,-1],[1,-2],[2,0],[2,-5],[1,-2],[0,-1],[2,0],[2,-4],[1,0],[0,-2],[3,-6],[0,-1],[2,0]],[[796,701],[0,1]],[[796,702],[0,-2],[1,0],[0,3],[-1,1],[0,5],[-1,2],[0,5],[1,0],[1,-1],[0,-3],[2,0],[0,-11],[-1,0],[0,-2],[-1,-2],[4,-1],[0,1],[1,1],[1,0],[2,-2]],[[805,696],[0,1]],[[805,697],[0,-4],[2,-4]],[[807,689],[0,2]],[[807,691],[0,-4],[1,-1],[1,0],[2,2],[2,1],[-1,1],[0,5],[-1,1],[0,2],[1,0],[1,-2],[4,0],[0,-2],[1,-2],[1,1],[1,0],[0,-1],[1,-1],[1,2],[1,0],[1,2],[1,-1],[1,1],[1,-1],[2,0],[2,-2]],[[617,408],[0,5],[1,2],[-1,2],[0,3],[-1,0],[-1,1],[-2,4],[0,1],[1,1],[-1,2],[0,1],[-3,0],[-1,-1],[0,5],[-2,2],[-4,0],[-1,1],[1,2],[1,0],[0,6],[-1,0],[-2,1],[-2,2],[-1,0],[0,2],[-4,0],[-1,-1],[-1,2],[0,1],[-1,2],[-1,0],[0,-1],[-2,0],[0,1],[1,1],[0,2],[1,1],[-3,0],[-2,1],[0,2],[-1,0],[-2,-1],[-1,1],[0,1],[-1,1],[-2,-1],[-1,1],[-1,0],[-1,-1],[0,-1],[-2,-3],[-1,0],[0,1],[1,1],[-1,1],[1,2],[-1,2],[0,2],[-2,2],[0,-1],[-1,1],[0,1],[1,0],[-1,1],[-2,0],[0,3],[-1,1],[0,-1],[-1,1],[-2,0],[-2,2],[0,5],[-1,3],[1,0],[2,2],[1,-1]],[[564,486],[-1,-1],[1,0],[0,1]],[[564,486],[1,2],[3,1],[1,0],[0,2],[-2,-1],[-1,-1],[-5,1],[-1,0],[0,-1],[-1,3],[2,2],[-1,2],[-1,1],[0,5],[-1,3],[1,3],[0,3],[1,1],[1,0],[0,1],[2,4],[0,1],[-2,2],[0,3],[-3,0],[-2,-1],[-1,0],[-2,3],[-2,0],[0,1],[-2,1],[0,8]],[[558,489],[1,0],[0,-1],[-1,1]],[[353,399],[0,-5],[-2,-4],[0,-2],[1,-1],[0,-5],[1,-2],[0,-2],[-1,-1],[0,-4]],[[352,373],[-2,-1],[-2,-2],[-1,0],[-1,-1],[0,-1],[-1,0],[-4,-4],[-1,0],[0,-2],[-3,-1],[-1,1],[-4,3],[0,4],[-2,0],[0,1],[-1,-1],[0,-1],[-3,0],[-2,-2],[0,-2],[-2,-3],[0,1],[-2,2],[-1,-1],[-3,0],[-3,-2],[-1,-2],[0,-2],[-1,0],[-2,1],[-1,0],[0,-1],[-2,0],[0,1],[-1,1],[0,-1],[-1,0],[0,-1],[-2,2],[-3,0],[-1,-2],[-1,-1],[0,-1],[-1,-1],[-1,0],[-3,-2],[-2,0],[-1,1],[-1,-1],[-1,0],[-1,1],[0,2],[-1,0],[-1,-1]],[[284,354],[0,-5],[-3,0],[2,2],[1,3]],[[284,354],[1,2],[-3,1],[-1,0],[-4,-3],[-2,-1],[0,3],[-2,0],[-1,2],[-1,0],[0,-1],[-1,-1],[-2,-1],[-2,-2],[0,2],[-1,0],[-1,-1],[-1,0],[-2,-2],[-1,0],[-1,1],[-1,0],[0,-1],[-1,-1],[-1,1]],[[256,352],[1,4],[-1,1],[0,3],[1,1],[0,5],[1,1],[-1,1],[-1,0],[-1,2],[-1,3],[0,2],[-1,2],[1,2],[2,2],[1,0],[2,6],[0,1],[-1,2],[0,7],[-1,2],[0,4],[-1,0],[-1,1],[0,5],[-2,1],[0,2],[-1,1],[-1,0],[-1,-1],[0,2],[1,1],[0,1],[1,2],[-1,1],[-2,0],[-1,-1],[-2,0],[1,1],[0,2],[-2,2],[0,-1],[-2,1],[-2,-1],[0,3],[-3,0],[-1,1],[0,2],[-1,2],[-1,1],[-1,0],[-2,5],[0,3],[-3,2]],[[221,506],[-1,2],[-1,3],[1,1],[3,-1],[1,0],[0,1],[1,2],[1,0],[0,-1],[2,0],[0,2],[2,-1],[0,5],[-1,0],[0,2],[1,1],[0,1],[-1,2],[0,4],[-1,0],[0,1],[-1,1],[0,4],[2,0],[2,2],[0,2],[1,0],[0,3],[1,1],[0,1],[-1,1],[0,5],[-1,0],[0,3],[-1,4],[1,2],[2,0],[-1,1],[4,4],[1,-1],[0,-2],[1,-1],[2,1],[2,-1],[1,2],[2,0],[3,-3],[1,1],[0,1],[1,1],[1,-1],[1,0],[0,1],[1,1],[1,3],[-1,0],[0,2],[1,0],[0,2],[1,4],[0,1],[1,2],[0,4],[1,1],[3,2],[1,0],[0,1],[2,3]],[[263,588],[1,0],[2,-1],[1,-2],[1,0],[1,-1],[0,-1],[1,-1],[3,1],[1,0],[0,1],[2,1],[1,0],[1,-1],[1,0],[3,-1],[1,-1],[0,-3],[1,-3],[1,-1],[1,-2],[-2,-4],[1,-1],[0,-3],[2,-3],[0,-1],[1,-1],[0,-1],[1,0],[1,-1],[1,0],[2,-1],[1,1],[1,0],[2,-1],[0,-2],[1,-1],[2,-3],[-1,-1],[0,-2],[1,-1],[1,-2],[-1,-3],[-2,2],[0,-1],[-3,-1],[1,-2],[0,-1],[1,-1],[-1,-3],[2,0],[1,-2],[0,-2],[-1,-1],[1,-1],[0,-3],[1,0],[0,-4],[3,-1],[1,-1],[3,-1],[1,0],[1,-1],[2,2],[2,-1],[1,1],[0,1],[1,-1],[0,-12],[1,-1],[0,-3],[1,-4],[1,-3],[1,-1],[2,-1],[3,0],[0,-1],[1,0],[0,-2],[-2,0],[-1,-3],[1,0],[1,-3],[1,0],[0,-2],[-1,-1],[1,-1],[-1,-1],[0,-4],[1,-3],[1,-2],[0,-3],[1,-1],[0,-1],[-1,0],[1,-3],[1,0],[1,-1],[1,-3],[-1,-4],[0,-3],[-1,-2],[2,-4],[4,-4],[0,-2],[-1,0],[-1,-2],[-3,-3],[-1,-2],[1,-2],[0,-1],[3,1],[1,1],[2,-2],[-1,-2],[0,-4],[1,-2],[2,0],[1,-1],[2,0],[0,-1],[1,0],[1,1],[1,-2],[0,-2],[1,-2],[1,-1],[1,0],[2,-2],[0,-2],[1,0],[1,-1],[1,-4],[2,-3],[-1,-1],[1,-2],[0,-1]],[[806,246],[0,2],[-1,0],[-1,1],[-3,0],[0,1],[-1,3],[0,5],[-2,0],[0,-1],[-1,0],[-1,1],[0,-1],[-1,-2],[-2,0],[-1,1],[-2,-2],[0,-1],[2,-2],[0,-1],[-1,0],[-2,-2],[0,-1],[-7,1],[-1,0],[0,1],[-5,0],[0,1],[-6,0],[-1,1],[-1,0],[1,-1],[0,-2],[-3,0],[0,2],[-2,0],[0,-1],[-3,2],[-1,2],[-1,1],[-3,-6],[0,1],[-1,0],[-1,1],[0,-1],[-1,-1],[-1,3],[0,1],[-3,2],[-2,-3],[-1,-2],[-2,2],[-1,-3],[-1,-2],[-2,-3],[-3,4],[0,3],[-2,1]],[[571,747],[1,-1],[1,0],[6,-3],[1,-1],[0,-4],[2,-3],[1,0],[0,-4],[1,-3],[1,-1],[0,-4],[1,-3],[1,0],[0,1],[1,1],[1,-1],[1,-2],[0,-4],[2,-4],[1,0],[-2,-1],[-2,1],[-3,1],[0,-3],[-1,-2],[-2,-5],[0,-2],[1,-2],[-1,-2],[0,-1],[-1,-1],[0,-1],[1,-1],[1,0],[0,3],[1,0],[1,-2],[-1,-2],[-1,0],[0,-1],[1,-3],[2,-2],[-1,0],[0,-1],[1,-1],[0,-2],[-1,-2],[0,-7],[1,-1],[-1,-1],[0,-6],[4,-5],[0,-2],[1,-1],[2,-4],[4,0],[0,4],[-2,4],[1,3],[4,0],[1,-1],[4,0]],[[635,565],[0,-1],[-1,-1],[0,-3],[1,-1],[-3,-3],[-2,0],[0,-3],[-1,-2],[-3,0],[0,-3],[-1,-1],[-4,2],[-2,-2],[-2,0],[-1,-1]],[[616,546],[1,0]],[[617,546],[-4,0],[-2,-1],[0,-2],[-1,0],[0,-1],[-1,-2],[-1,0],[-2,-1],[0,1],[-1,1],[-1,0],[-3,-2],[-1,1],[-2,0],[0,-1],[-1,-1],[-2,0],[-1,1],[-1,-1],[-1,0],[-1,1],[0,1],[-1,1],[0,2],[-2,2],[-1,3],[-1,1],[0,1],[-1,0],[0,3],[-1,2],[0,1],[-2,1],[0,2],[-4,8],[1,1],[0,1],[-1,2],[-3,1],[-1,-1],[-1,0],[0,-2],[-5,-5],[-3,0],[-2,-3],[-1,-3],[-1,1],[-1,-2],[-1,0],[-4,-5],[0,-5],[-1,-3],[-1,0],[-1,-1],[0,-4],[-1,-2],[0,-2],[-2,0]],[[549,535],[0,4],[-4,0],[0,1],[-2,0],[-1,1],[-1,0],[-2,4],[-1,3],[-2,2],[-4,0],[-2,-1],[0,3],[-1,1],[-1,-3],[1,-2],[0,-4],[-2,-1],[-6,6],[0,-1],[-1,0]],[[527,748],[4,2],[1,2],[1,0],[0,1],[-1,2],[0,2],[1,2],[0,2],[1,2],[1,0],[3,2],[1,1],[1,0],[1,-1],[1,1],[3,0],[1,1],[1,-1],[-1,-1],[0,-1],[2,-4],[4,-4],[2,-1],[1,-2],[1,0],[1,-2],[0,-2],[1,-3],[0,-1],[4,0],[2,-1],[1,0],[1,1],[1,2],[1,1],[2,-2],[1,1]],[[47,547],[1,-1],[0,-2],[5,0],[1,-1],[0,-2],[1,-2],[1,-1],[1,0],[0,-3],[3,-3],[1,0],[2,-1],[1,-1],[2,0],[2,-2],[1,0],[0,-2],[1,-1],[1,-4],[1,-1],[11,0],[0,1],[2,-1],[0,-2],[1,-3],[1,0],[0,-4],[2,-4],[1,1],[1,0],[0,-1],[5,5],[1,-1],[1,-2],[5,-3],[0,3],[2,2],[1,0],[0,1],[1,3],[1,1],[2,-1],[1,-1],[1,1],[0,-1],[2,0],[0,-2],[1,0],[1,-1],[0,-1],[-1,-1],[1,-1],[1,1],[0,1],[2,3],[0,1],[1,-1],[2,2],[0,1],[2,1],[1,1],[0,2],[-1,2],[0,3]],[[124,525],[0,-1]],[[124,524],[1,-1],[0,-1],[2,2],[1,2],[2,1],[3,-1],[2,-7],[-1,-1],[0,-1],[-1,-1],[0,-1],[2,-1],[1,0],[0,-3],[1,0],[0,1],[3,-1],[3,-3],[0,-1],[2,0],[1,-1],[-1,-4],[0,-2],[1,1],[2,-3],[0,-4],[1,-2],[2,2],[0,2],[1,4],[2,4],[0,3],[2,3],[0,-2],[3,-5],[0,-1],[1,-1],[0,-1],[-1,-1],[1,-2],[-1,-3],[4,1],[0,5],[1,1],[0,2],[1,2],[0,-1],[3,-3],[2,0],[0,2],[2,-1],[3,2],[0,4],[1,1],[3,0],[1,1],[0,1],[2,-1],[1,-3],[0,-2],[1,1],[1,0],[3,-1],[1,-1],[2,-1],[3,-3],[3,-1],[0,-3],[1,0],[2,-1],[2,2],[3,-2],[2,-2],[0,-2],[2,0],[1,1],[0,4],[1,2],[2,0],[2,-1],[1,1],[0,1],[1,0],[-1,1],[1,2],[0,3],[1,1],[3,0]],[[221,506],[2,-1],[1,-2],[4,-4],[0,-2],[-1,-2],[0,-3],[-2,-2],[-2,-3],[1,0],[1,-2],[1,-1],[0,-2],[1,-1],[3,0],[0,-1],[1,0],[1,-1],[0,-1],[1,-1],[1,0],[0,-7],[1,-4],[2,0],[1,1],[1,2],[1,0],[2,-2],[0,-4],[-1,-1],[-1,-2],[-3,-3],[-1,0],[-3,-3],[0,-9],[-2,-1],[-1,0],[-1,-3]],[[229,441],[-1,-1],[-1,0],[-1,1],[-1,-1],[-2,0],[-4,-1],[-2,0],[-1,-3],[-1,-2],[0,-7],[-1,-1],[-2,-3],[-1,0],[-2,4],[-3,0],[0,1],[-1,0],[-1,2],[-1,-1],[-1,-2],[-1,0],[0,1],[-1,-1]],[[200,427],[0,-1]],[[200,426],[0,2],[-1,1],[0,-3],[-1,-1],[-1,0],[-1,-1],[-1,1],[-1,-2],[-2,-3],[-2,2],[-1,2],[-1,-1],[0,-1],[1,-1],[0,-5],[1,0],[1,-4],[1,-1],[-1,0],[0,-2],[-1,0],[0,-1],[1,0],[-2,-2],[-1,0],[0,-2],[-1,0],[-2,1],[0,1],[-2,0],[0,-1],[-2,2],[-1,0],[-1,-1],[-1,0],[0,2],[-2,6],[0,1],[-1,1],[1,0],[1,1],[-1,2],[-6,-1],[0,-3],[1,-1],[0,-2],[-4,0],[-1,-1],[-2,0],[-3,1],[-4,2],[0,1],[-3,3],[-2,0],[0,2],[-1,0],[-2,3],[-2,-1],[-3,-3],[-2,1],[-1,0],[0,-3],[-2,-4],[0,-1],[1,-1],[-2,-2],[1,-1],[0,-2],[-1,-2],[-1,0],[-1,-1],[1,0],[0,-1],[-2,0],[-1,1],[-2,0],[-5,-3],[0,-8],[1,-2],[1,0],[1,-3],[-3,-1],[-1,-1],[-1,0],[0,-3],[3,-6],[1,-3],[2,-1],[-1,-1],[2,-2],[1,0],[1,-1],[1,-7],[0,-1],[-1,0],[1,-2],[1,-1],[1,-2],[-2,-1],[-1,-2],[0,-1],[-1,-1],[0,-2],[1,-1],[-1,-2],[-2,-2],[1,-2],[0,-1],[-2,-1],[-1,0],[0,-1]],[[129,338],[-5,3],[0,1],[-3,4],[-1,-1],[0,-1],[-2,1],[-2,0],[-2,2],[0,1],[-1,0],[-1,1],[-1,-1],[-2,1],[-2,-2],[-3,3],[-2,1],[-1,0],[-2,3],[1,2],[-1,1],[-1,2],[-1,5],[0,3],[-1,0],[0,-1],[-1,0],[0,0],[-1,-1],[0,-1],[-1,-1],[-1,0],[-1,-1],[-1,0],[-2,-1],[0,1],[-2,3],[-2,0],[0,3],[-4,-1],[-1,3],[-1,1],[-2,3],[-2,2],[-2,4],[-1,0],[0,2],[-2,5],[-2,0],[-3,2],[0,2],[1,0],[0,4],[-1,0],[0,2],[-4,3],[-6,0],[0,3],[-1,2],[1,0],[3,3],[3,4],[-1,3],[0,1],[-1,2],[0,1],[-2,4],[-1,0],[-1,-1],[0,1],[-1,6],[1,2],[1,0],[0,1],[1,4],[1,1],[0,7],[-1,1],[1,2],[0,9],[1,2],[0,1],[1,5],[-4,2],[-1,-4],[0,-3],[-1,0],[-3,1],[-2,-1],[0,-1],[-2,1],[0,1],[-1,1],[0,2],[-1,5],[-2,0],[0,2],[-1,2],[1,2],[0,2],[-1,1],[-4,6],[-1,-1],[-1,0],[0,2],[-1,0],[-1,3],[0,1],[-1,4],[-2,0],[0,-2],[-3,-1],[-2,4],[-1,5],[-1,4],[-4,4],[-1,-1],[-3,0],[-6,7],[1,1],[0,1],[-1,3],[-1,4],[0,2],[-1,2],[-2,2],[0,1],[-1,3],[-3,2],[0,1],[-1,2],[1,0],[0,1],[-1,1],[0,1],[1,1],[1,3],[1,2],[2,1],[0,-1],[4,3],[1,1],[0,-2],[1,-2],[0,1],[1,0],[2,-1],[0,1],[2,-2],[3,-1],[2,0],[3,6],[0,2],[1,2],[2,-2],[2,0],[2,-2],[2,-3],[2,-2],[1,0],[1,-2],[1,-1],[1,-2],[2,2],[0,3],[2,0],[1,-1],[1,0],[0,2],[1,1],[0,1],[1,0]],[[104,508],[-1,0],[1,-1],[0,1]],[[759,382],[1,-4],[-4,-3],[-1,0],[1,-2],[0,-3],[-1,0],[0,-1],[-1,-1],[-1,0],[1,-1],[0,-9],[-2,-2],[-2,1],[-1,0],[-1,3],[-2,-1],[1,-1],[1,-2],[-1,-1],[0,-2],[2,-2],[-1,-2],[0,-1],[1,0],[1,-1],[0,-2],[-1,-1],[1,-1],[-1,0],[-1,-1],[0,1],[-1,0],[-1,-1],[-2,1],[-1,-2],[0,-1],[-4,4],[0,-1],[-1,-1],[-3,3],[-3,6],[-3,-4],[-2,-3],[-1,-1],[0,-1],[-1,-2],[-2,-3],[-1,-1],[-2,-5],[2,-3],[1,-3],[2,1],[0,5],[4,3],[0,-3],[2,-10],[1,0],[1,-1],[-1,-1],[0,-3],[1,0],[0,1],[2,0],[0,-4],[-1,-1],[1,0],[-1,-2],[0,-7],[5,0],[0,-2],[1,0],[0,-5],[3,0],[-2,-10],[-3,-16],[0,-1],[-2,1],[-1,0],[1,-2],[0,-1],[1,-1],[-2,-10],[-2,0],[1,-1],[1,-2],[0,-2]],[[735,251],[-6,0],[0,-4],[1,0],[1,-1],[0,-1],[2,-2],[-1,-3],[-1,1],[-1,0],[0,-1],[-1,1],[-1,0],[-1,-1],[-4,2],[1,2],[0,2],[1,4],[-1,1],[-5,2],[-1,2],[-4,4],[-1,-2],[-1,-1],[-2,-4],[0,-1],[-6,4],[-1,0],[-3,3],[0,-1],[-1,-2],[-2,2],[-1,-2],[-1,-1],[-1,0],[0,1],[-1,-1],[0,-1],[-4,4],[-3,-1],[-3,0],[0,2],[-4,-2],[-1,0],[-3,3],[0,-1],[-1,-1],[-1,4],[0,1],[-2,4]],[[671,266],[1,1],[-1,2],[1,0],[-1,1],[-1,2],[-1,0],[-2,4],[-1,3],[-1,0],[-1,-1],[0,1],[-1,5],[2,0],[5,3],[0,2],[-2,0],[0,2],[-2,6],[-1,0],[-2,2],[0,1],[-2,0],[0,-2],[-1,-1],[0,1],[-1,0],[0,3]],[[658,301],[1,0]],[[659,301],[-1,2],[0,4],[-2,5],[-1,1],[-1,0],[0,1],[1,0],[0,11],[1,1],[0,1],[1,0],[-1,3],[0,10],[-2,-2],[-1,-2],[-1,-1],[-3,0],[-2,-4],[-3,1],[1,3],[0,1],[-1,0],[0,4],[1,3],[-3,1],[-1,-2],[-1,0],[-1,-2],[-2,1],[-1,0],[-1,1],[-1,0]],[[634,340],[0,2]],[[634,342],[-1,2],[0,1],[-1,2],[0,1],[-1,2],[1,1],[-1,2],[0,3],[-1,1],[-1,-1],[-2,1],[1,1],[1,3],[2,2],[1,0],[0,2],[-1,1],[0,1],[-1,0],[-1,1],[-2,4],[0,2],[-2,1],[-1,0],[-1,3],[1,2],[1,3],[-2,1],[-1,1],[0,1],[1,3],[0,6],[-3,4],[-1,0],[-2,2],[-1,2],[-1,3]],[[615,406],[1,2],[1,0]],[[617,408],[1,3],[2,4],[0,1],[1,1],[1,2],[0,2],[2,2],[0,-3],[1,-2],[1,2],[0,5],[1,0],[0,3],[1,1],[1,0],[0,1],[1,1],[2,0],[1,1],[1,-2],[0,-4],[2,-1],[0,-1],[1,-1],[0,2],[2,2],[1,0],[0,2],[1,1],[0,1],[1,1],[0,9],[1,3],[0,3],[1,1],[1,2],[0,2],[1,0],[0,2],[1,1],[1,0],[0,2],[-1,1],[1,2],[0,8],[1,2]],[[508,757],[3,-4],[2,0],[1,1],[1,-2],[2,0],[0,1],[2,2],[2,0],[0,-1],[1,-2],[1,0],[2,-1],[0,-1],[1,-2],[1,0]],[[527,748],[-1,-2],[0,-6],[1,-3],[3,-3],[0,-5],[1,-2],[1,-1],[0,-6],[-2,-4],[0,-5],[-1,-2],[1,-3],[0,-5],[-2,-8],[1,0],[1,-1],[2,-1],[-1,-1],[0,-3],[1,-3],[0,-1],[3,-3],[0,-2],[-4,-4],[-2,0],[0,-6],[2,-4],[1,-3],[0,-1],[-1,-3],[-1,-1],[-1,1],[-1,0],[-2,-1],[0,-5],[-1,-1],[0,-1],[1,0],[0,-1],[-2,-2],[0,1],[-2,0],[0,-2],[-2,-4],[-2,-3],[-1,0],[0,-2],[-2,0],[-1,1],[-1,0],[-4,-2],[0,-3],[-2,-1],[-3,-2],[0,-1],[-1,-2],[0,-1],[-1,-3],[-1,0],[-1,-3],[1,0],[1,-1],[2,-3],[0,-2],[-1,-1],[-1,0],[0,-1],[-1,0],[0,1],[-1,-1],[0,-2],[-1,-1],[-2,0],[-1,-1],[0,-1],[-1,-2],[0,-5],[2,0],[1,-3],[1,-1],[-2,-2],[-3,0],[0,1],[-2,2],[-2,-2],[-2,0],[1,-1],[0,-2],[-2,-2],[-1,0],[0,-3],[1,0],[0,-3],[1,-1],[0,-1],[-1,-2],[0,-1],[2,-2],[2,-3],[3,-3],[0,-2],[1,-3],[1,0],[1,1],[0,-1],[1,0],[2,-2],[0,2],[2,0],[0,1],[1,-1],[2,-1],[2,1],[2,-1],[1,-2],[3,0],[0,-5],[2,-5],[3,-3],[2,-1]],[[520,548],[-1,-2],[-2,0],[-1,-2],[-1,0],[0,-1],[-1,0],[-2,1],[-2,0],[0,1],[-4,-4],[-3,2],[-5,-5],[-1,-2],[-1,-4],[0,-3]],[[420,568],[-1,1],[-1,0],[-1,1],[1,0],[0,1],[-2,2],[-2,-1],[0,-2],[-1,1],[0,1],[-1,1],[0,2],[-1,2],[0,6],[-2,1],[-1,0],[-2,1],[-1,-1],[-1,0],[-3,2],[-1,2],[-2,1],[0,1],[1,1],[-3,0],[-1,1],[-1,2],[2,2],[3,4],[0,5],[-1,2],[1,2],[-1,2],[0,-2],[-1,-2],[-2,-3],[-1,1]],[[394,605],[2,2],[-2,2],[0,1]],[[393,610],[1,0]],[[394,610],[0,1],[-2,0],[0,4],[1,1],[-1,3],[0,3],[-1,1],[3,6],[2,-1],[2,-2],[1,1],[0,2],[1,0],[0,4],[1,0],[0,3],[2,5],[0,1],[-1,1],[-3,1],[-1,1],[0,3],[1,0],[0,3],[3,1],[0,1],[2,1],[2,0],[1,5],[0,1],[1,1],[0,1],[1,0],[-2,3],[-2,0],[-3,5],[1,2],[1,0],[0,1],[1,1],[1,-1],[2,-1],[1,0],[0,1],[-1,2],[0,3],[4,2],[1,0],[2,2],[0,2],[-1,1]],[[414,685],[2,-1],[2,-2],[0,-1],[2,-2],[1,0],[0,-1],[2,0],[1,-2],[2,-1],[1,0],[0,-1],[1,0],[1,1],[1,-1],[1,1],[2,-2],[4,0],[0,1],[1,0],[0,3],[1,1],[1,0],[0,1],[1,-1],[2,-1],[2,4],[-1,1],[0,-1],[-1,1],[1,2],[0,5],[2,2],[1,0],[0,1],[1,1],[1,0],[0,2],[1,0],[1,1],[1,4],[0,3],[1,1],[-1,1],[0,2],[3,0],[1,1],[0,1],[1,0],[0,3],[1,3],[1,1],[1,-1],[1,0],[1,1],[1,-1],[0,-1],[1,0],[0,-1],[-1,-2],[1,0],[0,-1],[1,-1],[0,-1],[1,0],[3,-1],[1,0],[1,-1],[2,2],[1,-1],[1,1],[0,1],[-1,0],[0,1],[-2,3],[1,1],[1,3],[-1,1],[1,3],[0,2],[1,3],[1,0],[2,4],[0,2],[1,4],[0,1],[1,1],[2,3],[0,1],[2,2],[1,3],[3,3],[3,0],[0,-1],[1,0],[2,-1],[1,1],[0,1],[1,3],[1,-1],[2,0],[1,1],[1,-1],[0,-1],[2,0],[2,2],[0,1],[1,2],[1,0],[1,1]],[[924,228],[-5,-9],[-1,-5],[-2,-4],[-5,-15],[-3,-7],[-1,-2],[-7,-12],[-6,-11],[-1,-5],[-1,-2],[0,-2],[-1,1],[0,0],[-2,0],[0,-2],[-2,-2],[-1,0],[-1,-5],[0,-15],[1,-2],[1,0],[1,-1],[0,-7],[1,-1],[0,-2],[-1,0],[0,-2],[-1,-1],[0,0],[0,-2],[1,0],[0,1],[1,-1],[-1,-1],[-1,0],[2,-2],[-1,0],[-1,-1],[0,-7],[1,0],[0,2],[1,1],[1,-4],[-2,-1],[-1,0],[-1,-2],[2,-8],[1,-6],[0,-6],[-1,-1],[0,-3],[-1,-2],[-1,-3],[0,-6],[-1,0],[0,-1],[-1,-1],[0,-1],[-1,-4],[0,-7],[-1,-2],[0,-2],[-1,-2],[0,-2],[-1,-2],[0,-1],[1,-1],[-1,-1],[0,-10],[-2,-1],[-13,0],[-2,1],[-4,1],[-3,2],[-8,0],[-3,1],[-1,0],[-2,1],[-5,3],[-3,2],[-2,2],[-9,7],[-1,0],[-1,1],[-2,1],[-1,1],[-1,7],[0,1],[-1,5],[-2,8],[0,4],[-1,2],[0,4],[-1,2],[-2,3],[-5,-6],[-4,-4],[-2,0],[-6,-1],[-1,-1],[-2,0],[-2,1],[0,1],[-1,5],[-3,9],[-3,4],[-2,-5],[-1,-3],[-2,1],[-4,0],[-7,1],[-2,1],[-2,-1],[-2,0],[-2,-1],[-2,0],[0,1],[-1,1],[0,1],[-2,2],[0,2],[-1,2],[-3,2],[-4,2],[0,2],[-1,0],[0,2],[-1,1],[0,2],[1,0],[0,1],[-1,1],[0,2]],[[742,109],[2,2],[0,1],[4,0],[0,-1],[1,-1],[2,0],[1,-1],[1,0],[1,1],[3,0],[1,-1],[4,0],[0,1],[1,1],[0,1],[1,1],[2,1],[1,1],[0,1],[1,1],[0,1],[1,0],[0,1],[1,0],[1,1],[0,1],[1,0],[2,2],[3,2],[2,0],[1,1],[3,0],[0,-1],[3,0],[1,-1],[3,0],[1,1],[0,1],[2,2],[0,1],[3,3],[2,1],[3,2],[3,0],[3,1],[2,-1],[2,0],[2,2],[2,3],[0,1],[2,4],[1,1],[0,1],[1,2],[1,1],[0,1],[1,4]],[[821,155],[0,5],[2,5],[2,2],[1,2],[0,1],[1,1],[0,1],[1,0],[2,2],[0,1],[1,1],[-1,1],[0,2],[-1,0],[0,5],[-1,4],[-2,2],[-2,1],[0,3],[-1,6],[-2,3],[0,1],[-1,4],[1,1],[1,2],[0,5],[-1,2],[-3,5],[-1,1],[-1,2],[-2,2],[-2,0],[-1,1],[-1,3],[-3,2],[-1,0],[0,2],[-1,2],[0,2],[1,6]],[[806,246],[2,2],[6,2],[5,-5],[1,0],[1,1],[2,0],[0,1],[3,3],[1,5]],[[889,116],[1,0],[0,-1],[-1,0]],[[889,106],[0,0]],[[889,116],[0,-1]],[[889,109],[-1,0],[1,1],[0,-1]],[[496,529],[0,-2],[2,-2],[-2,-1],[-1,-1],[-1,0],[0,-1],[-2,-2],[-1,1],[-1,0],[-1,-2],[-1,-1],[0,-1],[-1,-3],[-5,0],[0,-1],[2,-4],[0,-2],[-4,0],[-1,-1],[-1,0],[-1,1],[0,-3],[-2,-4],[0,-2],[-2,1],[-1,1],[-2,-1],[0,-5],[1,-5],[4,-5],[1,0],[1,-1],[0,-5],[-2,0],[-2,-1],[-1,1],[-1,-1],[1,-1],[0,-2],[-1,-1],[-1,1],[0,1],[-2,2],[0,-3],[-1,0],[-2,-1],[0,-2],[-1,-1],[-1,-2],[1,-1],[0,-7],[1,-2],[2,-6],[1,-2],[-1,-4],[0,-2],[1,-3],[-1,-2],[0,-4],[-1,0],[0,-1],[1,-4],[1,-3]],[[468,427],[-2,-2],[-1,0],[0,2],[-3,0],[-1,-1],[-2,-1],[-3,-3],[-1,0],[-1,1],[-3,-1]],[[451,422],[-1,1],[-1,0],[-2,-2],[0,-1],[-1,0],[0,2],[-2,0],[-1,1],[0,1],[-2,-2],[-3,0],[-2,1],[-1,-1],[-4,-2],[0,2],[-1,-2],[-2,-1],[-1,-1],[-1,0],[-1,-1],[-1,0],[0,-1],[-1,-1],[0,-1],[-3,0],[-2,-2],[0,-2],[-1,0],[-4,-2],[-1,0],[-1,-1],[-2,0],[-1,-1],[-1,1],[-3,0],[-1,1],[-1,0],[-2,1],[-2,2],[-2,0],[0,-1],[-1,1],[-2,1],[0,-1],[-1,0],[-4,1],[-1,0],[-1,-1],[-1,0],[-1,-1],[-2,0],[-2,2],[-1,0],[-2,-1],[-3,0],[-2,-2],[-1,-2],[-2,-1],[-1,-1],[-2,0],[-2,-1]],[[364,404],[-4,0],[-1,3],[0,2],[-2,3],[0,2],[-2,3],[-1,1],[1,1],[0,3],[1,1],[2,1],[1,2],[-1,2],[-1,1],[0,3],[1,0],[0,3],[-2,3],[-1,1],[-1,2],[-2,1],[0,1],[2,2],[-2,2],[0,1],[1,1],[0,2],[1,1],[0,1],[1,2],[0,3],[1,1],[1,-1],[1,0],[1,1],[0,2],[-1,1],[-1,2],[-1,1],[0,3],[-1,0],[0,1],[1,2],[2,-1],[3,1],[1,-1],[0,1],[1,0],[0,4],[1,0],[1,-1],[1,1],[0,1],[1,0],[0,3],[1,1],[1,2],[0,2],[2,2],[0,2],[-2,0],[-2,2],[0,4],[4,2],[4,0]],[[375,497],[0,-1]],[[375,496],[1,0],[1,1],[0,2],[1,1],[0,1],[1,2],[1,0],[0,-1],[1,-1],[1,0],[0,3],[-1,0],[0,4],[-1,1],[0,5],[-1,0],[5,7],[2,0],[2,2],[0,-1],[1,-2],[2,0],[1,1],[0,-1]],[[392,519],[0,1]],[[392,520],[2,0],[0,-1],[-1,-1],[1,-1],[0,-3],[1,-2],[1,0],[0,4],[2,2],[0,3],[1,0],[0,1],[-1,1],[0,2],[1,3],[1,1],[0,4],[2,-2],[1,1],[0,1],[1,1],[0,1],[1,2],[3,4],[1,0],[1,1],[1,-1],[1,1],[3,2],[1,1],[2,0],[0,3],[-1,2],[-1,0],[0,10],[1,2],[2,0],[2,1],[0,2],[-1,1],[0,2]],[[420,568],[2,-2],[1,0],[0,2],[1,1],[0,3],[2,1],[0,-2],[1,-3],[0,-1],[2,0],[2,-1],[2,1],[1,-2],[2,0],[0,1],[2,0],[0,1],[2,2],[2,-1],[1,0],[1,-1],[1,1],[2,0],[1,-1],[0,-3],[1,1],[1,2],[1,-1],[1,0],[0,1],[1,1],[1,-1],[1,1],[0,1],[1,2],[1,-1],[1,0],[1,-2],[0,-1],[1,-1],[1,0],[0,2],[1,0],[0,2],[2,2],[2,0],[0,-1],[1,-2],[-1,-2],[1,0],[0,-1],[-1,-4]],[[466,561],[0,1]],[[466,562],[-1,1],[-1,-1],[1,-1],[1,0]],[[466,561],[1,-2],[0,-3],[1,-2],[0,-3],[-1,-2],[0,-5],[-1,-2],[1,-2],[0,-6],[2,-2],[0,-2],[1,0],[1,-1],[1,1],[2,1],[1,0],[1,-1],[2,2],[-1,1],[0,1],[4,-2],[3,3],[2,1],[3,0],[2,-1],[0,-3],[2,-3],[3,0]],[[360,460],[0,1],[-1,-1],[1,-1],[0,1]],[[831,535],[1,0],[-2,-2],[0,-2],[1,0],[-1,-2],[-1,0],[-1,-2],[1,-1],[0,-1],[-1,0],[0,-1],[1,0],[1,-1],[0,-1],[-1,-1],[-1,-2],[0,-3],[1,-1],[-1,-1],[0,-1],[1,0],[0,-3],[1,0],[-1,-2],[1,-1],[0,-4],[1,-1],[0,-4],[1,-1],[0,-3],[-1,-2],[1,-1],[-1,0],[0,-4],[2,0],[0,-2],[-1,-2],[-1,-1],[-1,0],[1,-1],[0,-2],[-1,-1],[1,-1],[-1,-1],[1,-2],[-1,-1],[2,-2],[0,-3],[-1,0],[1,-2],[1,-1],[2,0],[0,-3],[-1,-1],[1,-2],[0,-2],[1,-1],[0,-5],[1,-2],[-1,-1],[0,-3],[1,-2],[0,-2],[-1,-4],[1,-1],[0,-1],[-2,-2],[-1,-2],[-1,0],[0,-1],[-2,2],[0,-1],[-1,0],[0,-1],[-2,-2],[0,-1],[1,-1],[2,-3],[0,-1],[1,-2],[0,1],[2,0],[0,-2],[1,0],[0,-1],[1,-5],[0,-8],[1,-1],[1,-3],[1,-2],[2,-2]],[[822,384],[-3,-2],[0,1],[-1,0],[0,-1],[-1,-1],[-3,3],[-4,0],[-3,3],[-2,0],[0,-4],[-1,-1],[-1,1],[-2,0],[-1,-1],[-1,1],[0,1],[-1,0],[-2,1],[0,3],[-4,-2],[-1,1],[1,3],[0,2],[-1,0],[0,-1],[-1,1],[-1,-1],[-2,0],[-2,2],[0,2],[1,1],[-1,1],[1,1],[0,3],[-2,-2],[-1,0],[0,3],[-1,0],[0,-2],[-1,0],[0,-4],[-1,-1],[-1,1],[0,1],[-1,0],[0,2],[-1,0],[0,2],[-2,0],[-1,2],[0,-1],[-2,0]],[[766,542],[1,-3],[2,-2],[1,-4],[-2,-2],[0,-1],[1,-2],[0,-3],[-1,-1],[0,-1],[1,-1],[1,-3],[0,-2],[1,-3],[2,-1],[2,1],[2,2],[-1,1],[0,1],[1,1],[0,2],[-1,0],[1,3],[1,0],[1,1],[0,2],[-1,1],[-1,0],[-1,-1],[-1,1],[2,1],[0,3],[-2,4],[1,1],[0,3],[-1,1],[0,2],[1,1],[1,-1],[-1,-1],[1,-2],[1,1],[2,1],[0,-1],[1,-1],[1,1],[0,1],[1,0],[1,-1],[0,1],[1,0],[1,-1],[1,0],[1,1],[0,-2],[6,0],[0,-3],[1,-1],[1,0],[0,-3],[1,1],[0,-1],[2,2],[0,1],[1,1],[1,-1],[0,1],[1,0],[-1,1],[0,1],[1,0],[1,1],[0,6],[1,0],[0,1],[1,0],[0,-4],[2,0],[2,2],[1,0],[0,-1],[1,1],[2,-4],[2,2],[0,-2],[1,-2],[1,-1],[0,-2],[1,0],[2,1],[0,-2],[1,-1],[2,1],[3,2],[4,0],[1,-1],[0,-1]],[[735,678],[0,-2],[2,-2],[0,-1],[1,0],[0,-3],[2,-1],[6,-6],[1,0],[0,-2],[-1,0],[0,-1],[-2,-2],[1,-2],[2,-2],[-2,-4],[-3,-3],[2,-4],[1,-1],[1,-2],[1,0],[1,-2],[0,-1],[2,-6],[1,-4],[1,0],[0,-1],[1,-3],[1,1],[-1,-2],[0,-1],[1,-2],[1,-6],[1,-1],[1,0],[0,-6],[1,0],[0,-3],[1,-2],[1,-1],[0,-1],[1,-3],[0,-3],[1,0],[0,-4],[1,-5],[1,-1],[-1,-2],[-1,-1],[0,-4],[1,-2],[1,-1],[-1,-1],[0,-9],[1,-3],[0,-1],[3,0],[0,-3],[-1,0],[1,-2],[0,-3],[-1,-2],[0,-1],[1,-1],[0,-1],[-2,0]],[[654,520],[0,3],[-2,4],[1,1],[0,1],[-3,3],[0,2],[-1,0],[-2,1],[-1,1],[0,1],[1,2],[1,0],[0,4],[-3,0],[-1,-1],[0,5],[-1,2],[0,1],[-1,2],[0,2],[1,0],[0,4],[-1,4],[-2,2],[-3,1],[-2,0]],[[635,565],[0,3],[-1,2],[0,1],[1,2],[1,1],[0,2],[1,1],[0,4],[1,2],[0,1],[-2,2],[-3,-1],[-1,-1],[0,-1],[-1,-3],[-2,-1],[-3,0],[-1,1],[-1,0],[-1,1],[0,2],[1,2],[0,1],[1,1],[0,8],[-1,0],[-3,2],[-3,1],[-4,0],[-1,1],[0,1],[1,1],[-2,1],[-1,0],[-1,-1],[-1,0]],[[609,600],[0,1]],[[609,601],[-1,0],[0,-1],[-1,0],[0,5],[-1,2],[1,0],[1,1],[0,3],[1,0],[0,1],[-1,1],[1,0],[0,2],[-1,1],[1,2],[5,0],[0,-1],[1,-1],[1,5],[0,2],[-1,2],[-1,0],[-2,2],[-1,2],[0,5],[-1,1],[-1,3],[-1,2],[-1,1],[-1,3],[0,2],[1,1],[1,2],[1,0],[-3,9],[-1,0],[0,4]],[[605,662],[2,1],[1,-1],[1,0],[0,1],[2,3],[2,0],[2,-2],[0,-6],[1,-1],[0,-4],[2,-2],[0,1],[1,1],[3,1],[1,-1],[0,-2],[1,-1],[1,1],[2,1],[2,0],[1,1],[0,3],[1,2],[-1,1],[2,0],[0,1],[1,2],[2,1],[0,-2],[1,0],[1,-2],[1,-3],[0,-3],[3,0],[1,1],[0,1],[1,-1],[0,-1],[1,-1],[4,0],[2,3],[0,1],[1,2],[2,2],[1,-1],[0,-1],[1,1],[2,-1],[2,0],[1,2],[1,1],[1,0],[0,-1],[1,1],[2,-2],[0,-1],[2,0],[2,1],[2,5],[1,1],[1,2],[1,-1],[1,2],[0,-1],[1,0],[1,3],[2,0],[-1,2],[0,2],[1,2],[0,1],[3,0],[0,1],[2,-1],[1,-1]],[[685,676],[0,1],[1,0],[-1,-1]],[[685,676],[0,-2],[2,0],[0,-3],[3,-3],[0,-2],[2,1],[0,1],[1,2],[1,1],[0,1],[2,2],[-1,3],[-1,1],[2,2],[0,-1],[1,1],[0,5],[1,0],[2,2],[0,3],[3,0],[0,-1],[1,0],[0,-2],[-1,0],[0,-3],[-1,0],[1,-1],[1,0],[-1,-1],[0,-1],[2,-1],[0,-1],[1,1],[0,1],[1,-3],[0,-4],[1,1],[1,0],[4,2],[1,0],[1,1],[3,0],[1,-2],[0,-1],[1,0],[0,1],[1,1],[3,1],[0,-2],[1,-2],[0,-1],[2,0],[1,1],[0,-2],[1,-1],[0,-2],[1,1],[0,3],[3,0],[0,3],[2,2]],[[924,228],[-1,0],[-1,2],[-1,0],[-1,1],[-4,1],[0,-3],[-3,-2],[-4,-4],[-3,-5],[-2,0],[0,1],[-1,-1],[-1,1],[-1,2],[0,2],[-3,0],[0,-1],[-1,-1],[-2,1],[-1,1],[-1,-1],[-1,0],[0,1],[1,0],[-1,1],[-1,0],[0,2],[-8,-2],[-1,-1],[-2,0],[-5,1],[0,-5],[-1,-1],[-5,3],[0,2],[-1,0],[-2,2],[0,1],[-1,1],[-1,-4],[1,0],[0,-2],[1,-1],[0,-1],[-1,-2],[0,-2],[-1,-1],[-1,1],[0,1],[-1,0],[0,2],[-1,0],[0,1],[-1,1],[0,2],[-1,0],[0,7],[-1,0],[-1,2],[-4,0],[-1,1],[1,0],[0,2],[-1,1],[-2,-1],[-2,-2],[-1,0],[1,2],[0,1],[-1,0],[1,1],[-1,2],[-1,4],[1,1],[0,1],[-1,0],[-2,1],[0,1],[-2,0],[0,-2],[-2,0],[-2,2],[0,5],[-3,3],[-2,0],[-2,-1],[-4,2]],[[827,255],[0,3],[2,4],[0,4],[1,1],[0,2],[1,1],[1,0],[2,4],[-2,2],[0,4],[1,6],[1,3],[1,2],[0,1],[-1,1],[-1,7],[0,3],[2,2],[0,2],[-1,3],[-1,4],[0,4],[1,1],[4,0],[0,1],[-1,2],[0,1],[1,2],[2,1],[-3,3],[-1,2],[-1,1],[-1,0],[-3,3],[-2,3],[0,1],[1,3],[1,2],[2,3],[-1,2],[-1,3],[0,1],[-2,-2],[-3,0],[-1,1],[-1,0],[-2,2],[-1,0],[0,1],[-2,2],[0,1],[-1,1],[1,2],[0,2],[1,3],[1,4],[0,4],[1,1],[0,9]],[[822,384],[0,1],[1,1],[0,1],[2,1],[0,1],[1,0],[0,1],[2,2],[2,0],[2,-1],[1,0],[5,-5],[1,0],[0,9],[1,2],[1,0]],[[841,397],[2,0],[3,-2],[2,-3],[1,-2],[0,-8],[3,-7],[2,-6],[1,-2],[5,-4],[4,-2],[0,-1],[1,0],[1,-1],[1,0],[1,-1],[1,0],[2,-2],[1,0],[0,-1],[1,0],[1,-1],[1,0],[0,-1],[1,0],[0,-1],[1,0],[0,-1],[1,0],[1,-1],[7,0],[5,-3],[2,-2],[2,0],[2,1],[1,1],[1,0],[3,1],[1,1],[0,3],[-2,1],[-1,1],[-2,4],[1,1],[2,1],[2,0],[1,2],[0,2],[-1,1],[-2,1],[1,2],[2,1],[1,0],[2,-2],[1,-2],[3,0],[2,-2],[3,-5],[2,-1],[2,2],[0,3],[-1,2],[2,4],[1,0],[3,3],[2,1],[2,2],[2,1],[3,2],[2,1],[5,3],[2,1],[1,1],[1,3],[2,1],[4,4],[2,-1],[1,-1],[2,0],[1,1],[0,1],[1,2],[2,0],[2,-2],[7,0],[1,1],[1,-1],[0,-1],[10,-5],[2,0],[3,-4],[1,0],[0,-1],[1,0],[0,-1],[1,-1],[1,-2],[1,-1],[1,-3],[1,-1],[0,-1],[1,0],[0,-1],[1,-2],[0,-3],[1,-1],[0,-9],[-1,-1],[0,-3],[1,-5],[1,-2],[0,-2],[-2,1],[-2,0],[-1,1],[0,-7],[1,-3],[1,-1],[5,0],[-1,-3],[-2,-5],[-2,-6],[0,-2],[-1,-3],[-2,-34],[0,-6],[-1,0],[0,-6],[-1,-2],[-3,-7],[1,3],[-2,0],[-2,-2],[-21,-3],[-9,-2],[-9,-3],[-6,-4],[-4,-4],[-6,-8],[-4,-7]],[[862,221],[0,1],[-1,-1],[1,0]],[[986,256],[-1,-1],[0,1],[1,0]],[[984,254],[0,0]],[[984,253],[-1,0],[1,1],[0,-1]],[[981,249],[-2,-1],[-4,0],[-1,1],[0,1],[2,-1],[2,0],[2,1],[2,2],[1,0],[-1,-2],[-1,-1]],[[754,854],[-1,-1],[-5,-3],[-2,1],[-1,0],[-1,-2],[0,1],[-1,0],[0,-1],[-1,1],[-1,0],[-1,-1],[0,-1],[-1,0],[1,-2],[-1,-2],[0,-1],[1,0],[0,-3],[-3,0],[0,-2],[-1,1],[-3,0],[-1,-1],[0,2],[-1,0],[0,1],[-1,1],[-1,0]],[[729,842],[0,-1]],[[729,841],[0,2],[-1,0],[0,1],[-4,1],[-1,-2],[-1,-3],[-1,0],[0,-8],[1,-5],[-4,0],[0,-3],[-1,-3],[0,3],[-3,3],[0,1],[1,1],[-1,2],[-1,0],[-1,2],[-1,0],[0,1],[-2,-1],[-2,1],[-1,0],[-1,-1],[-5,0],[-1,1],[-3,0],[-2,2],[-2,-1],[-1,0],[-3,1],[-3,0],[-2,2],[-1,-1],[-1,0],[1,-2],[-1,-2],[1,-1],[1,0],[0,-1],[1,-2],[-3,0]],[[681,829],[-7,-1],[-3,-2],[-2,1],[1,1],[-1,2],[0,3],[-1,1],[-1,0],[-1,1],[0,2],[2,1],[3,1],[0,3],[-2,0],[0,1],[-2,4],[0,2],[-1,2],[-1,1],[0,2],[-1,2],[1,1],[0,3],[-1,0],[0,5],[1,0],[-1,1],[0,1],[-2,0],[-2,2],[1,0],[0,1],[-5,10],[0,2],[-1,2],[0,1],[-1,0],[-1,-1],[0,3],[-1,0],[0,1],[-2,-1],[-1,-2],[0,4],[1,0],[0,7],[-2,-1],[-1,-1],[-1,0],[-1,2],[0,1],[-1,1],[-1,0],[-2,4],[0,4],[-1,0],[0,1],[-1,0],[1,2],[0,1],[-1,1],[-1,2],[-1,-1],[-2,2],[1,0],[0,2],[-1,2],[-1,0],[-3,3],[0,-1],[-1,0],[0,-2],[-1,1],[0,-1],[-1,0],[0,1],[-1,1],[0,5],[-2,0],[0,1],[-1,1],[0,-1],[-1,0],[0,1],[-1,0],[-1,1],[-1,0],[0,1],[1,1],[-1,1],[1,1],[-2,2],[0,1],[1,0],[0,1],[-2,2]],[[618,938],[1,0],[2,2],[0,-1],[1,0],[3,1],[2,2],[1,2],[1,5],[0,2],[1,2],[0,1],[6,6],[1,4],[0,2],[1,2],[0,2],[1,1],[0,1],[1,1],[1,2],[1,1],[0,4],[1,2],[1,0],[0,1],[1,0],[0,-1],[1,2],[1,1],[1,-1],[-1,-1],[3,0],[0,1],[2,1],[1,-1],[1,1],[-1,0],[0,1],[2,1],[1,0],[0,1],[1,1],[4,0],[0,-1],[2,0],[2,1],[0,1],[1,1],[1,-1],[1,0],[0,1],[-1,1],[1,2],[1,1],[1,-1],[3,0],[0,1],[-1,1],[2,0],[0,2],[1,0],[1,-1],[1,1],[0,-2],[1,-1],[2,1],[0,2],[1,1],[1,-1],[0,-1],[1,-2],[1,1],[0,2],[1,-1],[0,-2],[2,1],[3,-1],[1,1],[2,1],[2,-2],[0,-4],[2,1],[1,-2],[0,-1],[3,-3],[1,0],[1,-1],[0,-1],[-1,-1],[0,-1],[1,-1],[1,1],[0,3],[2,0],[1,-1],[1,-2],[-1,-2],[-1,-1],[0,-1],[1,-1],[3,0],[2,-2],[0,-1],[-1,-1],[-2,2],[-1,0],[0,-3],[1,-1],[4,-2],[1,1],[1,2],[1,0],[0,-2],[1,0],[0,-7],[-1,-1],[1,-2],[1,0],[0,-3],[4,-4],[0,-3],[2,-1],[0,-2],[-1,0],[0,-3],[1,0],[0,1],[1,0],[1,1],[1,-1],[-1,-1],[0,-3],[4,0],[-1,-4],[0,-1],[-1,-1],[4,-4],[-1,-1],[-1,-2],[-1,-3],[3,-2],[2,-2],[1,-7],[0,-5],[4,-2],[0,-1],[-1,-1],[-1,0],[0,1],[-1,-1],[0,-3],[1,0],[1,1],[0,-2],[-1,0],[1,-2],[1,0],[0,-1],[1,-2],[0,-1],[1,0],[0,-4],[1,0],[1,-1],[0,-2],[1,1],[0,-1],[-1,-1],[0,-2],[1,-1],[0,-1],[-1,0],[-1,1],[-1,0],[0,1],[-1,-3],[0,-1],[1,-1],[1,-2],[1,0],[-1,-2],[0,-1],[2,-2],[0,-3],[2,-2],[0,-2],[1,-1],[0,-1],[1,-2],[2,-1],[1,-1],[0,-1],[2,-3],[1,-2]],[[765,546],[0,-1],[-1,-2],[2,0],[0,-1]],[[766,542],[-2,0],[0,-3],[-3,0],[-3,3],[0,-1],[-1,-1],[1,-2],[0,-7],[-6,0],[0,-2],[-4,0],[-1,1],[-3,0],[-1,-2],[0,-2],[1,-1],[-2,0],[0,-3],[-1,-1],[-2,0],[-1,1],[0,-5],[-1,-3],[1,-4],[0,-5],[1,-4],[0,-2],[1,-2],[2,-7],[1,-2],[-1,-1],[-2,0],[-1,-2],[3,0],[0,-2],[1,-2],[0,1],[1,0],[2,-6],[0,-1],[1,-5],[1,-2],[1,-1],[0,-1],[2,-6],[0,-6],[1,-1],[0,-1],[1,-1],[1,-3],[0,-1],[2,-3],[1,-1],[1,0],[0,-2],[1,0],[0,2],[2,-2],[0,-4],[1,-1],[0,-2],[1,0],[2,1],[0,-3],[1,0],[1,-1],[0,-2],[-1,-1],[1,-1],[1,-2],[0,-1],[2,-2],[-1,-1],[-2,0],[-1,-2],[1,-1],[0,-1],[2,-2],[0,-3],[-1,-1],[0,-1],[1,-2],[1,-1],[0,-1],[-1,0],[0,-2],[1,-1],[0,1],[1,0],[1,-2]],[[772,402],[-7,-10],[-5,-5],[0,-1],[-1,-1],[0,-1],[-1,0],[1,-1],[0,-1]],[[759,382],[-3,-4],[-1,1],[-2,-1],[0,-1],[-4,0],[0,2],[-3,1],[-4,1],[-1,6],[1,2],[1,0],[0,5],[-1,1],[-2,-1],[-1,-3],[0,-1],[-2,-1],[-1,2],[-1,3],[-1,0],[-2,-3],[-1,-2],[0,-1],[-2,-1],[-1,-2],[-3,0],[1,2],[-2,2],[1,1],[0,1],[1,2],[1,1],[1,0],[2,3],[-2,1],[-1,-1],[-2,2],[0,-1],[-1,0],[0,-2],[-1,-3],[-3,0],[-2,1],[-3,6],[-1,0],[-1,1],[0,2],[-2,5],[-1,3],[2,2],[-3,-1],[-1,-2],[0,-1],[-1,1],[0,1],[-2,1],[-2,0],[0,1],[-1,-3],[-1,-2],[-1,1],[-2,1],[-2,-1],[-1,-1],[-1,3],[-2,4],[-6,0],[-1,2],[1,0],[0,2],[-1,1],[-2,0],[-2,3],[0,2],[-2,3],[-3,0],[-2,1],[0,2],[-2,1],[-2,-2],[-1,2],[-1,1],[-1,-1],[-1,1],[-1,0],[0,1],[-1,1],[-1,0],[-1,2],[0,2],[-2,2],[-1,2],[0,3],[-1,2],[-1,1],[-1,3],[-2,2],[0,2],[-1,0],[1,2],[0,6],[-3,3],[-2,3]],[[649,470],[-1,0],[-1,4],[0,9],[1,2],[0,2],[-1,1],[0,4],[1,2],[0,1],[1,0],[0,2],[-1,2],[1,2],[-1,2],[1,2],[3,3],[1,2],[0,4],[1,1],[0,5]],[[654,520],[3,0],[1,1],[0,1],[1,0],[2,-2],[1,-2],[2,0],[2,-2],[2,0],[1,1],[0,4],[2,1],[1,0],[0,1],[1,0],[1,1],[1,2],[0,2],[1,0],[0,1],[3,0],[3,3],[1,-1],[1,1],[1,0],[1,-1],[3,0],[0,1],[1,-1],[0,-1],[2,-2],[0,-2],[2,2],[3,-1],[0,2],[2,1],[4,-2],[2,-2],[1,0],[1,3],[1,0],[0,5],[1,2],[4,0],[7,-4],[1,-1],[1,1],[2,0],[0,3],[2,0],[2,6],[-1,0],[-1,1],[0,2],[1,1],[4,3],[0,3],[1,0],[1,-2],[0,3],[1,0],[0,-1],[2,1],[0,1],[1,0]],[[737,552],[0,1]],[[737,553],[1,0],[0,-2],[1,-1],[3,2],[-1,1],[0,2],[5,1],[1,-1],[0,-2],[-1,-1],[2,-2],[0,-1],[1,-1],[1,0],[0,-3],[1,1],[1,0],[1,1],[0,6],[1,1],[3,0],[0,-1],[3,-1],[1,-2],[0,-2],[1,-2],[1,0],[0,1],[1,1],[1,-1],[0,-1]]]}