{"type":"Topology","objects":{"data":{"geometries":[{"properties":{"index":1450,"nuts_2_code":"FRB0","nuts_2_name":"Centre \u2014 Val de Loire"},"type":"Polygon","arcs":[[-140,-139,138,-138,-137,136,-136,-135,-134,-133,132,-132,-131,130,-130,-96,-95,-484,-49,-48,47,-47,-46,45,-45,-247,-100,-99,-98,97,-97,-152,-291,-290,289]],"id":0},{"properties":{"index":1451,"nuts_2_code":"FRF1","nuts_2_name":"Alsace"},"type":"Polygon","arcs":[[0,1,-107,-62,-61,60,-60,58,-58,57,-57,-56,55,54,-54,-53,52,-52,-51,50,-50]],"id":1},{"properties":{"index":1452,"nuts_2_code":"FRE1","nuts_2_name":"Nord-Pas de Calais"},"type":"MultiPolygon","arcs":[[[-28,-27,26,-26,-25,24,-24,-23,21,-21,19,-19,17,-38,2]],[[3]],[[4]],[[5]]],"id":2},{"properties":{"index":1453,"nuts_2_code":"FRI1","nuts_2_name":"Aquitaine"},"type":"MultiPolygon","arcs":[[[-437,-436,435,-435,-434,433,-433,-432,431,-431,-430,429,-429,-428,427,-427,425,-425,424,-424,422,440,-422,-421,420,-420,6,-10,7,8,-255,-254,253,-253,251,-251,250,-250,-249,-44,-43,42,-42,-41,40,-40,39,-39],[-442,-441],[442]],[[10]],[[10]],[[9,-10]],[[10,-11]],[[11,-12]],[[12]],[[13]],[[14]],[[15]],[[15]],[[15]]],"id":3},{"properties":{"index":1454,"nuts_2_code":"FRF2","nuts_2_name":"Champagne-Ardenne"},"type":"MultiPolygon","arcs":[[[-77,-76,75,-75,-74,73,-73,71,-71,70,-70,-69,68,-68,-67,66,-66,-65,-64,63,-63,-118,-117,-116,-94,-93,92,-92,-91,90,-90,89,-89,88,-88,-87,86,-86,-85,84,-84,-83,82,-82,-81,80,-80,-79,78,-128,-127,126,-36,-35,34,-34,-33,32,-32,-31,30,-30,16]],[[149,-150]]],"id":4},{"properties":{"index":1455,"nuts_2_code":"FRE2","nuts_2_name":"Picardie"},"type":"Polygon","arcs":[[17,18,19,20,21,22,23,-25,24,25,-27,26,27,28,29,-31,30,31,-33,32,33,-35,34,35,126,-126,-125,124,123,-123,148,-149,-148,-147,146,-146,-145,144,-144,-143,142,-142,-141,140,285,-285,-284,-283,282,-282,-281,280,-299,36,37]],"id":5},{"properties":{"index":1456,"nuts_2_code":"FRI2","nuts_2_name":"Limousin"},"type":"Polygon","arcs":[[-483,-482,481,-481,-480,479,-479,-440,-439,438,-438,38,-40,39,-41,40,41,-43,42,43,-249,-248,44,-46,45,46,-48,47,48]],"id":6},{"properties":{"index":1457,"nuts_2_code":"FRF3","nuts_2_name":"Lorraine"},"type":"Polygon","arcs":[[49,-51,50,51,-53,52,53,54,-56,55,56,-58,57,58,59,-61,60,61,-121,-120,119,-119,-118,117,62,-64,63,64,65,-67,66,67,-69,68,69,-71,70,71,72,-74,73,74,-76,75,76,77]],"id":7},{"properties":{"index":1458,"nuts_2_code":"FRC1","nuts_2_name":"Bourgogne"},"type":"Polygon","arcs":[[-79,78,79,-81,80,81,-83,82,83,-85,84,85,-87,86,87,-89,88,-90,89,-91,90,91,-93,92,93,115,-115,-114,-113,-112,-111,-110,109,-109,-311,-310,309,-309,-308,307,-307,-459,-458,-457,456,-456,-455,454,-454,94,-96,-129],[121],[121]],"id":8},{"properties":{"index":1459,"nuts_2_code":"FRG0","nuts_2_name":"Pays de la Loire"},"type":"MultiPolygon","arcs":[[[-154,153,-153,96,-98,97,98,99,-271,-270,269,-269,-268,267,-267,265,-265,-264,263,-263,261,-261,260,-260,258,257,-257,100,-175,-174,173,-173,-172,171,-161,-160,159,-159,-158,157,-157,-156,155,-155],[271]],[[101]],[[102]],[[103]],[[104]],[[105]]],"id":9},{"properties":{"index":1460,"nuts_2_code":"FRC2","nuts_2_name":"Franche-Comt\u00e9"},"type":"MultiPolygon","arcs":[[[106,107,-305,-304,303,-303,-302,301,-301,108,-110,109,110,111,112,-114,113,114,-116,115,116,117,118,-120,119,120]],[[121]],[[121]]],"id":10},{"properties":{"index":1461,"nuts_2_code":"FR10","nuts_2_name":"Ile-de-France"},"type":"Polygon","arcs":[[-149,122,-124,-125,124,125,-127,126,127,128,129,-131,130,131,-133,132,133,-135,135,-137,136,137,-139,138,139,-289,-288,287,-287,-286,-141,140,141,-143,142,143,-145,144,145,-147,146,147,148],[-150,149]],"id":11},{"properties":{"index":1462,"nuts_2_code":"FRD1","nuts_2_name":"Basse-Normandie "},"type":"MultiPolygon","arcs":[[[150,-296,295,-295,-294,293,-293,-292,291,151,152,-154,153,154,-156,155,156,-158,157,158,-160,159,160,-172,171,-171,167,161,162,163,-167,164]],[[165,-166]],[[166,-167]],[[167,-168]],[[168]],[[169]]],"id":12},{"properties":{"index":1463,"nuts_2_code":"FRH0","nuts_2_name":"Bretagne"},"type":"MultiPolygon","arcs":[[[170,171,172,-174,173,174,175,176,177,-201,197,178,198,179,181,180,182,183,206,-207,184,214,-215,212,185,-213,186,187,233,188,189,-218,216,-216,210,190]],[[191]],[[192]],[[193]],[[193]],[[194]],[[195]],[[195]],[[195]],[[196]],[[198,-199]],[[198,-199]],[[198,-199]],[[198,-199]],[[198,-199]],[[198,-199]],[[198,-199]],[[198,-199]],[[198,-199]],[[197,-198]],[[198,-199]],[[199,-200]],[[199,-200]],[[200,-201]],[[202,-203]],[[202]],[[202,-203]],[[202,-203]],[[203]],[[201]],[[202]],[[203]],[[202]],[[203]],[[207]],[[205]],[[207]],[[204,-205]],[[205]],[[208]],[[206,-207]],[[208]],[[208]],[[207]],[[208]],[[208]],[[209]],[[210,-211]],[[210,-211]],[[211]],[[211]],[[213,-214]],[[212,-213]],[[213,-214]],[[214,-215]],[[216,-217]],[[215,-216]],[[216,-217]],[[216,-217]],[[217,-218]],[[219,-220]],[[218]],[[218]],[[218]],[[219,-220]],[[220]],[[221]],[[221]],[[221]],[[222]],[[223]],[[224]],[[224]],[[224]],[[224]],[[224]],[[225]],[[228]],[[226]],[[227]],[[228]],[[228]],[[229]],[[230]],[[231]],[[232]],[[233,-234]],[[234]],[[235]],[[235]],[[235]],[[236]],[[236]],[[237]],[[237]],[[238]],[[239]],[[241]],[[240]],[[241]],[[242]],[[242]],[[242]],[[242]],[[242]],[[243]],[[243]],[[244]],[[245]]],"id":13},{"properties":{"index":1464,"nuts_2_code":"FRI3","nuts_2_name":"Poitou-Charentes"},"type":"MultiPolygon","arcs":[[[246,247,248,249,-251,250,251,252,-254,253,254,255,256,257,258,259,-261,260,261,262,-264,263,264,265,266,-268,267,268,-270,269,270]],[[271]],[[272]],[[273]],[[273]],[[274]],[[275]],[[276]],[[277]],[[277]],[[278]],[[279]]],"id":14},{"properties":{"index":1465,"nuts_2_code":"FRD2","nuts_2_name":"Haute-Normandie "},"type":"MultiPolygon","arcs":[[[-281,280,281,-283,282,283,284,-286,285,286,-288,287,288,-290,289,290,-292,291,292,-294,293,294,-296,295,296,297,298]],[[299]]],"id":15},{"properties":{"index":1537,"nuts_2_code":"FRK2","nuts_2_name":"Rh\u00f4ne-Alpes"},"type":"Polygon","arcs":[[300,-302,301,302,-304,303,304,305,-326,-325,324,-324,-323,321,-321,-320,319,-319,-318,317,-317,-344,-343,342,-342,-467,-466,465,-465,-464,463,-463,-462,461,460,-460,-459,458,306,-308,307,308,-310,309,310],[-339,-340]],"id":16},{"properties":{"index":1541,"nuts_2_code":"FRL0","nuts_2_name":"Provence-Alpes-C\u00f4te d\u2019Azur"},"type":"MultiPolygon","arcs":[[[311,326,327,312,333,313,314,-341,315,-347,-346,345,-345,316,-318,317,318,-320,319,320,321,322,323,-325,324,325]],[[326,-327]],[[327,-328]],[[328]],[[329]],[[330]],[[330]],[[331]],[[332]],[[333,-334]],[[333,-334]],[[334,-335]],[[335]],[[336]],[[336]],[[336]],[[336]],[[336]],[[337]],[[338,339]],[[340,-341]]],"id":17},{"properties":{"index":1543,"nuts_2_code":"FRJ1","nuts_2_name":"Languedoc-Roussillon"},"type":"Polygon","arcs":[[341,-343,342,343,344,-346,345,346,347,-418,-417,416,-416,-415,414,-414,412,-412,411,-411,-410,409,-409,-408,407,-407,-406,405,-405,-404,403,-403,-402,401,-401,-400,399,-399,-398,397,-397,470,-470,-469,468,-468],[348]],"id":18},{"properties":{"index":1544,"nuts_2_code":"FRM0","nuts_2_name":"Corse"},"type":"MultiPolygon","arcs":[[[349]],[[350]],[[351]],[[352]],[[352]],[[353]],[[354]],[[355]],[[356]],[[356]],[[356]],[[357]],[[358]],[[359]]],"id":19},{"properties":{"index":1545,"nuts_2_code":"FRY1","nuts_2_name":"Guadeloupe"},"type":"MultiPolygon","arcs":[[[360]],[[361]],[[-367,362,363,372,364]],[[365,366]],[[367]],[[368]],[[371]],[[369]],[[371]],[[370]],[[371]],[[372,-373]],[[373]],[[374,-375]],[[374,375,-375]],[[375,-376]],[[376]],[[376]],[[376]]],"id":20},{"properties":{"index":1546,"nuts_2_code":"FRY2","nuts_2_name":"Martinique "},"type":"MultiPolygon","arcs":[[[-385,377,-381,378,379]],[[380,-381]],[[381,-382]],[[381,-382]],[[381,-382]],[[381,-382]],[[382]],[[383,-384]],[[384,-385]],[[385]],[[386]]],"id":21},{"properties":{"index":1547,"nuts_2_code":"FRY3","nuts_2_name":"Guyane"},"type":"MultiPolygon","arcs":[[[387]],[[388]],[[389]],[[389]],[[390]],[[391]],[[391]],[[392]],[[393]],[[394]]],"id":22},{"properties":{"index":1548,"nuts_2_code":"FRY4","nuts_2_name":"La R\u00e9union "},"type":"Polygon","arcs":[[395]],"id":23},{"properties":{"index":1549,"nuts_2_code":"FRJ2","nuts_2_name":"Midi-Pyr\u00e9n\u00e9es"},"type":"MultiPolygon","arcs":[[[-478,-477,476,-476,-475,474,-474,472,-472,-471,396,-398,397,398,-400,399,400,-402,401,402,-404,403,404,-406,405,406,-408,407,408,-410,409,410,-412,411,412,413,-415,414,415,-417,416,417,418,419,-421,420,421,-441,422,423,425,-425,424,426,-428,427,428,-430,429,430,-432,431,432,-434,433,434,-436,435,436,437,-439,438,439]],[[440,441]],[[442]]],"id":24},{"properties":{"index":1550,"nuts_2_code":"FRY5","nuts_2_name":"Mayotte"},"type":"MultiPolygon","arcs":[[[-447,443]],[[444,-445]],[[444,-445]],[[444,-445]],[[445,-446]],[[446,447]],[[448]],[[449]],[[450]],[[451]],[[451]],[[451]],[[452]]],"id":25},{"properties":{"index":1557,"nuts_2_code":"FRK1","nuts_2_name":"Auvergne"},"type":"Polygon","arcs":[[453,-455,454,455,-457,456,457,458,459,-461,-462,461,462,-464,463,464,-466,465,466,467,-469,468,469,-471,470,471,-473,473,-475,474,475,-477,476,477,478,-480,479,480,-482,481,482,483]],"id":26}],"type":"GeometryCollection"}},"bbox":[-63.151187618999984,-21.38890872199994,55.83576576500009,51.08938134751675],"transform":{"scale":[0.11910605944344352,0.07255084091042711],"translate":[-63.151187618999984,-21.38890872199994]},"arcs":[[[594,971],[3,0],[1,-1],[1,0],[0,-1],[-1,-1],[0,-1],[-1,0],[0,-1],[-1,0],[0,-3],[-1,0],[0,-4],[-1,0],[0,-5],[-1,-1],[0,0],[0,-1],[1,0],[0,-2],[-1,0],[0,-1],[-2,0],[0,0],[-1,0]],[[590,949],[0,0]],[[543,989],[0,2],[1,0],[0,1],[-1,0],[0,2],[1,0],[0,1],[-1,1],[1,0],[0,1],[2,0],[0,1],[4,0],[1,1],[1,0],[0,-4],[1,0],[0,-1],[2,0],[1,1],[1,0],[0,-1],[1,0],[0,-1],[0,0],[0,-2],[3,0],[0,-3],[1,0],[0,1],[1,0],[0,0],[1,0],[0,-1],[2,0],[0,-1],[-1,0],[0,-2],[0,0],[0,-1]],[[550,999],[0,0]],[[549,998],[0,0]],[[543,994],[0,0]],[[528,885],[-2,0],[0,-1],[-1,0],[0,2],[-1,0],[0,1],[-3,0],[0,1],[-2,0],[0,1],[0,0],[0,-1],[-1,0],[0,2],[1,0],[0,1],[-1,0],[0,1],[-1,0],[0,0],[-2,0],[0,1],[2,0],[0,2],[1,0],[0,4],[1,0],[0,7],[1,0],[0,4],[2,0],[0,1],[-1,0],[0,1],[-1,0],[0,9],[1,0],[0,1],[1,0],[0,-1],[1,0],[0,-1],[1,-1],[0,-1]],[[524,917],[0,-1],[1,0],[0,2],[-1,0]],[[524,918],[0,2]],[[524,917],[0,1]],[[524,917],[0,0]],[[524,918],[0,0]],[[522,910],[0,0]],[[521,923],[0,0]],[[520,911],[0,0]],[[520,909],[0,0]],[[566,983],[0,1],[1,-1],[1,0],[0,1],[2,0],[0,2],[1,0],[0,-2],[-1,0],[0,-1],[1,0],[0,-2],[2,0],[0,-1],[2,0],[0,-1]],[[546,989],[0,0]],[[546,989],[1,0],[0,-1]],[[547,988],[0,0]],[[547,988],[1,0],[0,-1],[3,0],[0,-1]],[[551,986],[-1,0],[0,-1],[1,0],[0,1]],[[551,986],[1,0],[0,-1],[1,0]],[[553,985],[0,1],[1,0],[0,-1]],[[553,985],[1,0]],[[554,985],[0,-1],[1,0],[0,1],[1,0],[0,-1],[4,0]],[[560,985],[0,-1]],[[560,984],[1,0],[0,1],[2,0],[0,-1],[1,1],[0,-1],[1,0]],[[565,984],[0,-1],[1,0]],[[566,983],[0,-3],[-1,0],[0,-1],[-1,0],[0,-4],[-1,0]],[[562,976],[1,0],[0,-1]],[[563,975],[-2,0],[0,-2],[1,0],[0,-1],[-1,0]],[[560,972],[1,0]],[[561,972],[0,-1]],[[560,971],[1,0]],[[561,971],[0,-1],[-1,0],[0,-2]],[[542,985],[1,1],[0,1],[1,0],[0,1],[-1,0],[0,1]],[[543,989],[3,0]],[[542,915],[0,2],[-1,0],[0,4],[-1,0],[0,2],[-1,0]],[[539,922],[0,1]],[[539,924],[0,-1]],[[539,923],[-1,0],[0,1],[-1,0]],[[537,923],[0,1]],[[537,924],[-1,1]],[[540,934],[3,0]],[[543,935],[0,-1]],[[543,934],[1,0]],[[544,935],[0,-1]],[[544,934],[1,0],[0,1],[4,0]],[[594,971],[0,-2],[-1,0],[0,1],[-1,0]],[[592,969],[0,1]],[[592,970],[-2,0],[0,1],[-1,0],[0,-2]],[[588,969],[1,0]],[[589,969],[0,-1],[1,0]],[[590,968],[0,0]],[[590,967],[0,1]],[[590,968],[1,0],[0,-1]],[[592,967],[-1,0]],[[591,967],[0,0]],[[591,967],[0,-1],[1,0],[-1,-1],[0,-1],[-1,0],[0,-3]],[[591,961],[-1,0]],[[590,961],[0,-3],[-1,0],[0,-2],[-1,0],[0,-2]],[[580,956],[-1,0],[0,1],[-1,0]],[[578,958],[0,-1]],[[578,957],[-1,1],[1,0]],[[578,958],[0,2],[-1,0],[0,1],[-1,0],[0,1]],[[575,962],[1,0]],[[576,962],[0,1],[-1,0],[0,1],[-1,-1],[0,1],[-1,0],[0,1],[-1,0],[0,2],[-1,0],[0,1],[1,0],[0,1]],[[571,969],[1,0]],[[572,969],[0,1]],[[573,970],[-1,0]],[[572,970],[0,0]],[[572,970],[0,4]],[[573,974],[-1,0]],[[572,974],[1,1]],[[572,975],[1,0]],[[573,975],[0,3],[2,0],[0,1]],[[575,979],[1,0],[0,-2],[1,0],[0,1],[2,0],[0,-1],[1,0],[0,-1],[1,0],[0,1],[4,0],[0,-1],[1,0],[0,-1],[0,0],[0,-2],[1,0],[0,-1],[1,0],[0,1],[1,0],[0,-1],[3,0],[0,1],[1,0],[0,-2],[1,0]],[[559,961],[0,1]],[[559,962],[1,0],[0,-2],[1,0],[-1,-1],[1,0]],[[561,958],[0,1]],[[561,959],[1,0],[0,-2],[1,0]],[[563,956],[0,1]],[[563,957],[-1,-1],[1,0]],[[563,955],[0,1]],[[563,956],[1,0]],[[564,955],[0,1]],[[564,956],[1,0]],[[565,955],[0,1]],[[565,956],[1,0]],[[566,955],[0,1]],[[566,956],[2,0],[0,1],[2,0],[0,-1],[1,0],[0,-1],[1,0],[0,-2]],[[571,953],[1,0]],[[572,953],[0,-1],[2,0],[0,-1],[1,0]],[[556,940],[0,5],[-1,0],[0,2],[-1,0],[0,1],[1,0],[0,1],[-1,1],[1,0],[0,2],[-1,0],[0,1],[2,0],[0,1],[-1,1],[1,0],[0,3],[-1,0],[0,1]],[[555,959],[0,0]],[[537,959],[1,0],[0,-1],[-1,0],[0,-4],[-1,0],[0,-1],[-1,0],[0,-1],[-1,0],[0,-1]],[[533,951],[1,0]],[[534,951],[-1,-1],[0,1]],[[533,951],[-1,0],[0,-3],[-1,0],[0,-3]],[[521,933],[-2,0],[0,1],[-2,0],[0,1],[-2,0],[0,2],[-1,0],[0,2],[-1,0],[0,1],[-1,0],[0,1],[1,1],[0,1],[0,0],[0,1],[-2,0],[0,1],[1,0],[0,1],[1,0],[0,1],[1,0],[0,-1],[0,0],[0,1],[-2,0],[0,-1],[-2,0],[0,0],[-1,0],[0,2],[1,0],[0,1]],[[514,947],[0,0]],[[512,943],[-1,0],[0,-1],[1,0],[0,0],[-1,0],[0,1],[1,0]],[[511,939],[0,-1],[-1,0],[0,1],[1,0]],[[509,947],[0,0]],[[508,948],[0,0]],[[588,954],[0,-1],[1,0],[0,-2],[1,0],[0,-2]],[[590,949],[-1,0],[0,0],[-1,0],[0,-1],[1,0],[0,-1],[-1,0],[1,-1],[-1,0],[0,-1],[-1,0],[0,-1],[-1,0],[0,-1],[0,0],[-1,-1],[-1,0],[0,-3],[-1,0],[0,-1],[-1,0],[0,-2],[-1,0],[0,-1]],[[575,935],[1,0],[0,1],[-1,0],[0,1],[1,0],[0,2],[-1,0],[0,1],[1,0],[0,1],[-1,0],[0,1],[-1,0],[0,1],[1,0],[0,1],[1,0],[0,3]],[[577,947],[-1,0]],[[576,947],[0,2]],[[576,949],[0,0]],[[576,949],[-1,0],[1,1]],[[576,949],[0,1]],[[576,950],[0,1]],[[575,951],[1,0]],[[576,951],[0,1],[2,0],[0,2],[1,0],[0,1],[1,0]],[[580,955],[0,1]],[[580,956],[1,0],[0,1],[1,0],[0,-1]],[[582,955],[0,1]],[[582,956],[1,-1],[0,1],[1,0],[0,-1],[1,0],[0,1],[1,0],[0,-1],[1,0],[0,-1],[1,0]],[[576,941],[0,0]],[[552,972],[1,-1],[1,0]],[[554,971],[0,0]],[[554,972],[0,-1]],[[554,971],[2,0],[0,1],[1,0],[0,-2],[1,0],[0,-1],[1,0],[0,-1]],[[560,968],[-1,0]],[[559,968],[0,-3],[1,0],[-1,-1],[0,-2]],[[559,962],[-1,0],[0,-1],[-1,0],[0,1],[-1,-1],[0,-2],[-1,0]],[[555,959],[-1,0]],[[554,958],[0,1]],[[554,959],[-1,0],[0,-1],[-2,0],[0,3],[-3,0],[0,-1],[-1,0],[0,2]],[[546,962],[1,0]],[[547,962],[0,1],[-1,-1]],[[546,962],[0,0]],[[546,962],[0,1],[-1,0],[0,1],[-1,0],[1,1],[-1,0],[0,1]],[[543,966],[1,0]],[[544,966],[0,1],[-1,0],[0,1]],[[544,968],[-1,0]],[[543,968],[0,1]],[[545,974],[0,-1]],[[545,973],[1,0]],[[546,972],[0,1]],[[546,973],[2,0]],[[548,972],[0,1]],[[548,973],[1,0]],[[549,972],[0,1]],[[549,973],[1,0],[0,-1],[2,0]],[[552,972],[0,-1]],[[559,962],[0,0]],[[532,976],[1,0],[0,-3],[1,0],[-1,-1],[1,0],[0,-1]],[[537,966],[0,-2],[1,0],[0,-3],[-1,0],[0,-2]],[[537,959],[-1,0],[0,1],[-2,0],[0,1],[-1,0],[0,2],[-1,0]],[[531,963],[1,0]],[[532,963],[-1,-1],[-1,0],[0,1],[-1,0],[0,1],[-1,0]],[[528,963],[0,1]],[[528,964],[-1,-1],[-3,0]],[[524,962],[0,1]],[[524,963],[-2,0]],[[522,964],[0,-1]],[[522,963],[-1,0]],[[518,965],[0,0]],[[518,965],[0,1],[0,0],[0,-1]],[[518,965],[0,1],[-1,0],[0,5],[1,-1],[0,1],[-1,0],[0,2],[-1,0],[0,2],[-1,0],[0,2],[-1,0],[0,1],[1,0],[0,1],[-1,0],[0,1],[2,0],[0,-1],[2,0],[0,1],[2,0],[0,-2]],[[519,978],[0,-1],[1,0],[0,-2],[1,0],[0,1],[2,0],[0,-1],[4,0],[0,-1],[3,0],[0,1],[1,0],[0,1],[1,0]],[[520,978],[0,0]],[[519,978],[1,0]],[[517,965],[1,0]],[[517,969],[0,0]],[[515,968],[0,0]],[[517,965],[0,-1],[1,-1],[1,0],[1,1],[1,0]],[[521,964],[0,-1]],[[521,963],[0,-6],[1,0],[0,-1],[-2,0],[0,-3],[-1,0],[0,1],[-2,0],[0,-1],[-1,0],[0,-1],[-3,0],[0,-2],[-1,0]],[[512,949],[0,1]],[[512,950],[-1,0],[0,-1],[-1,0]],[[510,949],[0,0]],[[510,949],[0,1],[-3,0]],[[507,950],[0,-1],[-1,1]],[[507,951],[1,0],[-1,1],[0,-1]],[[507,951],[-2,0]],[[505,951],[0,1],[0,0],[0,-1]],[[505,951],[0,0]],[[505,951],[1,-1]],[[506,950],[-1,0]],[[505,951],[-1,0],[0,0],[-1,0],[0,1]],[[504,953],[0,0]],[[503,952],[-1,0],[0,1],[1,0],[0,0],[-1,0],[0,-1],[-1,0],[0,2],[0,0],[0,-1],[-2,0],[0,1],[-2,0],[0,0],[-1,0],[0,1],[0,0],[0,0],[0,0],[-1,-1],[0,0],[-1,0],[0,1],[-1,0],[0,1],[-1,0],[0,1],[0,0],[0,0],[0,0],[0,1],[2,0],[0,1],[-1,0]],[[493,959],[0,0]],[[493,960],[-1,0],[0,0],[0,0],[0,0],[1,0]],[[493,960],[1,0],[0,0],[2,0],[0,0],[-1,0],[0,1],[-2,0],[0,1],[1,0],[0,0],[-2,0],[0,-1],[-2,0],[0,2],[0,0],[0,1],[2,0],[0,0],[1,0],[-1,1],[1,0],[0,1],[1,0],[0,-1],[1,0],[0,1],[2,0],[0,0],[0,0],[0,-1],[1,0],[0,1],[3,0],[0,1],[0,0],[0,1],[0,0],[0,-1],[1,0],[0,1]],[[504,968],[1,0],[0,-1],[1,0],[0,-1],[0,0],[1,-1],[0,0],[0,-1],[1,-1],[0,1],[1,0],[0,1],[1,0],[0,1],[1,0],[0,-1],[1,0],[0,0],[1,0],[0,-1],[1,0],[0,-1],[0,0],[0,2],[-1,0],[0,1],[2,0],[0,-1],[2,0]],[[514,966],[0,0]],[[513,966],[0,0]],[[512,965],[0,0]],[[509,950],[0,0]],[[508,950],[0,0]],[[508,949],[0,0]],[[507,950],[0,1]],[[507,951],[0,0]],[[507,950],[0,0]],[[507,950],[-1,0]],[[506,947],[0,0]],[[506,950],[0,0]],[[506,951],[0,0]],[[505,950],[0,0]],[[505,967],[0,0]],[[505,950],[0,1]],[[505,948],[0,0]],[[505,968],[0,0]],[[503,948],[1,0],[0,-1],[0,0],[0,0],[-1,0],[0,1]],[[504,968],[0,0]],[[504,949],[0,0]],[[504,952],[0,1]],[[504,952],[0,0]],[[503,952],[1,0]],[[504,968],[-1,0]],[[503,968],[0,0]],[[503,968],[-1,0]],[[502,952],[0,0]],[[502,968],[0,0]],[[501,952],[1,-1],[-1,0],[0,1]],[[501,969],[0,0]],[[501,968],[0,0]],[[500,968],[0,0]],[[500,967],[0,0]],[[497,966],[0,0]],[[497,967],[0,0]],[[497,952],[0,0]],[[497,953],[0,0]],[[496,953],[0,0]],[[496,966],[0,0]],[[494,961],[0,0]],[[494,958],[0,0]],[[493,959],[0,1]],[[492,961],[0,0]],[[492,965],[0,0]],[[491,965],[0,0]],[[490,964],[0,0]],[[490,963],[0,0]],[[490,961],[0,0]],[[489,961],[0,0]],[[489,957],[0,0]],[[489,962],[0,0]],[[488,962],[0,0]],[[488,963],[-1,-1],[0,1],[1,0]],[[487,963],[0,0]],[[531,945],[0,-1],[1,0],[0,-1],[1,0],[0,-1],[2,0],[0,1],[1,-1],[0,-1],[1,0],[0,-2],[1,0],[0,-2],[1,0],[0,-1],[1,0],[0,-2]],[[540,934],[-1,0],[0,-1],[-1,0],[-1,-1],[0,-3],[1,0],[0,-1],[-1,0],[0,-2],[-1,0],[0,-1]],[[536,925],[-1,0]],[[535,925],[0,-1],[-1,0],[0,-1]],[[535,923],[-1,0]],[[534,923],[0,0]],[[534,923],[0,-1],[-1,0],[0,-1],[-1,0],[0,-3],[-2,0],[0,-1]],[[530,916],[0,1]],[[530,917],[-1,0],[0,-1],[-1,0],[0,1],[-1,0],[0,2],[-2,0],[0,1],[-1,0]],[[524,920],[0,2],[-1,0],[0,1],[-1,0],[0,1],[-1,0],[-1,1],[0,1],[1,0],[0,-1],[0,0],[0,2],[0,0],[0,1],[1,0],[0,0],[-1,0],[0,3],[-1,0],[0,1],[1,0],[0,1]],[[521,933],[0,1],[1,0],[0,-1],[1,0]],[[523,933],[0,0]],[[523,933],[0,1],[1,0],[-1,-1]],[[523,933],[2,0],[0,1]],[[526,934],[-1,0]],[[525,934],[0,0]],[[525,934],[0,4]],[[524,938],[1,0]],[[525,938],[0,1],[-1,0],[0,2],[-1,0],[0,2],[1,0]],[[524,943],[0,0]],[[524,943],[0,-1],[1,0],[0,1]],[[524,943],[1,0]],[[525,943],[1,0],[0,1],[3,0]],[[529,943],[0,1]],[[529,944],[1,0],[0,1],[1,0]],[[523,942],[0,0]],[[521,928],[0,0]],[[521,929],[0,0]],[[521,926],[0,0]],[[520,929],[0,0]],[[520,926],[0,1],[-1,0],[0,2],[-1,0],[0,1],[1,-1],[1,0],[0,-3]],[[520,931],[0,0]],[[518,932],[1,0],[0,-1],[-1,0],[0,1]],[[518,932],[0,0]],[[544,980],[1,0]],[[545,980],[0,-1]],[[544,979],[1,0]],[[545,979],[-1,-1],[1,0],[0,-4]],[[545,974],[-1,0],[0,-1]],[[545,973],[-1,0]],[[544,973],[0,-2],[-2,0],[1,-1]],[[542,970],[1,0]],[[543,970],[0,-1]],[[542,969],[1,0]],[[543,969],[-1,-1],[0,-1],[-3,0],[0,-1],[-2,0]],[[536,966],[1,0]],[[537,966],[0,1],[-1,0],[0,1],[-1,0],[0,1],[-1,0]],[[533,969],[1,0]],[[534,969],[0,2]],[[533,971],[1,0]],[[534,971],[0,1],[-1,0],[1,1],[-1,0],[0,3],[1,0],[0,1],[1,0],[0,-1],[1,0],[0,0],[-1,0],[0,1],[-1,0],[0,-1],[-2,0]],[[532,976],[-1,1],[0,2],[1,0],[0,1],[1,0],[0,1],[2,0],[0,1],[2,0],[1,1],[2,0],[0,1],[1,0],[0,1],[1,0]],[[542,985],[0,-1],[1,0],[0,-1],[1,0],[1,-1],[0,-2]],[[531,977],[0,0]],[[575,935],[0,-1],[1,0],[0,-2],[1,0],[0,1],[1,0]],[[578,934],[0,-1]],[[578,933],[0,-1],[1,1]],[[579,932],[0,1]],[[579,933],[1,0],[0,1],[1,0],[0,1]],[[581,935],[0,-1],[1,0],[0,-1],[0,0],[0,-1],[-2,0],[1,-1],[1,0],[0,1],[1,0],[0,1],[0,0],[0,1],[1,0],[0,1],[3,0],[0,-2],[1,0],[0,-1],[-1,0],[0,-1],[1,0],[0,-1],[1,0],[0,-3],[-1,0],[0,0],[-1,0],[0,-2],[1,0],[0,-1],[1,0],[0,-2],[1,0],[0,-1],[0,0],[0,-3],[-1,0],[0,-1],[-3,0]],[[563,932],[1,0],[0,-1],[1,1]],[[565,931],[0,1]],[[565,932],[1,0],[0,-1],[1,0],[0,2],[3,0],[0,-1]],[[570,931],[0,1]],[[570,932],[1,0],[0,4],[3,0],[0,-1],[1,0]],[[586,917],[0,-2],[1,0],[0,-2],[2,0],[0,-2],[0,0],[0,-1],[-1,0],[0,-3],[0,0],[0,-1],[1,0],[0,-2],[2,0],[0,-1],[3,0],[0,1],[1,0],[0,-3],[-1,0],[0,-1],[-1,0],[0,-2],[-1,0],[0,-1],[-1,0],[0,0],[-1,0],[0,-2],[-1,0]],[[589,894],[-1,0],[0,-1],[-1,0],[0,-1],[-1,0],[0,-1],[0,0],[0,-1],[-2,0],[0,-1],[-2,0],[0,-1],[0,0],[0,1],[-2,0],[0,-1],[-1,0]],[[579,889],[-1,0],[0,1],[-3,0],[0,2],[-3,0],[0,1],[-1,0]],[[571,893],[0,0]],[[571,892],[-2,0],[0,1],[0,0],[0,1],[-3,0]],[[569,905],[0,1],[1,0],[0,-1],[1,0]],[[571,904],[0,1]],[[571,905],[1,0],[1,1]],[[573,905],[0,1]],[[573,906],[1,0],[0,-1],[-1,0]],[[573,905],[0,0]],[[573,905],[1,-1],[1,0],[0,-1],[2,0]],[[577,903],[0,1],[1,0]],[[577,903],[1,0],[0,1]],[[578,904],[0,1],[-1,0],[0,1],[-1,0],[0,2],[2,0],[-1,1],[1,1],[1,0],[0,2],[1,0],[0,1],[4,0],[0,1],[-1,0],[0,1],[-1,0],[0,1],[1,0],[0,1],[1,-1],[1,0],[0,1],[1,0]],[[589,895],[0,0]],[[589,895],[0,-1]],[[586,890],[0,0]],[[585,888],[0,0]],[[584,888],[0,0]],[[583,888],[0,-1],[-1,0],[0,1],[1,0]],[[582,888],[0,0]],[[579,888],[0,1]],[[579,889],[0,0]],[[577,890],[0,0]],[[575,890],[0,0]],[[575,891],[0,0]],[[573,906],[-1,0],[0,0],[-1,0],[0,-1]],[[571,905],[0,2],[2,0],[0,-1]],[[571,892],[0,1]],[[563,912],[0,-3],[1,0],[0,-3],[1,0],[0,-1],[1,0],[0,1],[1,0],[0,-1],[1,0]],[[568,906],[0,-1]],[[568,905],[1,0]],[[569,905],[0,-1],[1,0],[0,-2],[1,0],[0,-1],[-1,0],[0,-1],[-1,0],[0,-3],[-1,0],[-1,-1]],[[568,896],[-1,0]],[[567,896],[0,-1],[-1,0],[0,-1]],[[566,894],[-1,0],[0,1],[-2,0],[0,-1],[-1,0],[0,-1],[-1,0],[-1,-1],[0,-1],[-1,0],[0,0],[-1,0],[-1,-1],[0,-1],[-1,0],[0,-8],[1,0],[-1,-1],[-2,0],[0,-1],[-1,0],[0,-1],[-1,0],[0,0],[-1,0],[0,1],[-1,0],[0,1],[-1,0],[0,-1],[-1,1],[0,-1],[-1,0],[0,1],[-2,0],[0,2]],[[547,880],[0,0]],[[609,872],[0,-4],[-1,0],[0,0],[0,0],[0,-3],[-1,0],[0,1],[-1,0],[0,1],[-2,0],[0,2],[1,0],[0,1],[-2,0],[0,1],[1,0],[0,2],[-1,-1],[0,1],[0,0],[0,1],[1,0],[0,1],[-1,0],[0,1],[-1,0],[0,1],[1,0],[0,1],[0,0],[0,1],[-1,0],[0,0],[1,0],[0,2],[1,0],[0,1],[1,0],[0,0],[1,1],[0,1],[2,0],[0,0],[1,0],[0,1],[-1,0],[1,1],[0,0],[0,2],[1,-1],[0,-13],[-1,0],[0,-2]],[[609,888],[0,0]],[[609,869],[0,0]],[[609,868],[0,0]],[[609,867],[0,0]],[[609,887],[0,0]],[[608,866],[0,0]],[[608,865],[0,0]],[[605,883],[0,0]],[[603,872],[0,0]],[[602,872],[0,0]],[[17,520],[0,0],[0,0]],[[17,518],[0,0]],[[14,519],[-1,-1],[0,1]],[[13,519],[0,-4],[-1,0],[0,3],[-1,0],[0,2]],[[12,520],[1,0],[0,-1]],[[13,519],[1,1],[0,2],[1,0],[0,-2],[1,0],[0,-1],[-1,0],[0,-1],[-1,0],[0,1]],[[14,519],[-1,0]],[[16,514],[-1,0],[0,1],[1,0],[0,-1]],[[14,518],[0,0]],[[13,520],[0,0]],[[13,514],[0,0]],[[13,513],[0,0]],[[11,520],[1,0]],[[11,518],[0,0]],[[1,544],[0,1]],[[1,544],[0,0]],[[0,544],[0,0]],[[19,496],[0,-1],[1,0],[0,-1]],[[19,494],[0,0]],[[19,494],[-2,0],[0,1],[1,0],[0,1],[-1,0],[0,2],[-1,0],[0,2],[1,0],[0,-1],[1,0],[0,-1],[1,0],[0,-1]],[[19,494],[1,0]],[[19,496],[0,0]],[[19,493],[0,0]],[[19,497],[0,0]],[[19,496],[0,1]],[[18,495],[0,0]],[[18,494],[0,0]],[[77,374],[2,0],[0,-1],[1,-1],[1,0],[1,-1],[2,0],[1,-1],[1,0],[0,-1],[1,0],[0,-1],[1,-1],[0,-1],[1,0],[0,-1],[1,-1],[0,-1],[1,0],[0,-1],[1,0],[0,-1],[1,0],[0,-1],[1,0],[0,-1],[1,0],[0,-2],[1,0],[0,-4],[1,0],[0,-2],[-2,-2],[0,-2],[-1,0],[0,-2],[-1,-1],[0,-2],[-1,-1],[0,-1],[-1,0],[0,-4],[-1,0],[0,-4],[-1,0],[0,-3],[-1,0],[0,-2],[-1,0],[0,-1],[-1,0],[0,-1],[-3,0],[0,2],[-1,0],[0,-1],[-2,0],[0,1],[-1,-1],[0,1],[-1,0],[0,-1],[-1,0],[0,-1],[-1,0],[0,-1],[-1,0],[0,0],[-1,0],[0,1],[-1,0],[0,1],[-1,0],[0,1],[1,0],[0,2],[1,0],[0,3],[1,0],[0,7],[1,0],[0,3],[1,0],[0,3],[-1,0],[0,2],[-1,0],[0,2],[-1,0],[0,6],[-1,0],[0,10],[1,0],[0,2],[1,0],[0,1],[1,1],[0,2],[1,0],[0,3]],[[96,356],[0,0]],[[92,362],[0,0]],[[92,363],[0,0]],[[89,368],[0,0]],[[85,370],[0,0]],[[85,371],[0,0]],[[78,374],[0,0]],[[996,7],[1,0],[0,-1],[1,0],[0,-2],[1,0],[0,-3],[-1,-1],[-2,0],[0,1],[-1,0],[0,1],[-1,0],[0,4],[1,0],[0,1],[1,0]],[[555,910],[1,0],[0,-2],[1,0],[0,-1],[-1,0],[0,-1],[1,0],[0,-1]],[[556,905],[1,0]],[[557,905],[0,-1],[1,0]],[[559,904],[-1,0]],[[558,904],[0,-2],[1,0],[0,-1],[-1,0],[0,-1],[-1,0],[0,-1]],[[558,899],[-1,0]],[[557,899],[-1,0],[0,-2],[-2,0],[0,-1],[-1,0]],[[553,897],[0,-1]],[[553,896],[-1,0]],[[552,897],[0,-1]],[[552,896],[0,-1],[1,0],[0,-1],[-1,0],[0,-1],[-1,0]],[[551,894],[0,-1]],[[551,893],[-1,0],[0,1],[-1,0],[0,-1],[-2,0]],[[547,894],[0,-1]],[[547,893],[-1,0]],[[546,894],[0,-1]],[[546,893],[0,0]],[[546,893],[-1,0],[0,-2]],[[544,891],[1,0]],[[545,891],[0,-1],[1,0],[0,-1],[1,0],[0,-2]],[[546,887],[1,0]],[[547,887],[0,-1],[-1,-1],[0,-1],[2,0],[0,-1],[-1,0],[0,-1],[-2,0]],[[545,882],[-2,0],[0,0],[-1,0],[0,2],[-2,0],[0,0],[-1,0],[0,1],[-3,0],[0,-2],[-2,0],[0,1],[-1,0],[0,-1],[-1,0],[0,1],[-1,0],[0,-1],[-1,0],[0,1],[-1,0],[0,1],[-1,0]],[[528,885],[0,1]],[[527,886],[1,0]],[[528,886],[0,2],[1,0],[0,2],[1,0],[0,2]],[[530,893],[0,0]],[[530,893],[0,2],[-1,0],[0,1],[-1,0],[0,1],[1,1],[-1,0],[0,1],[1,0],[0,1]],[[528,900],[1,0]],[[529,900],[0,0]],[[529,900],[0,1],[1,0],[0,-1],[1,0],[0,1],[1,0]],[[532,902],[0,-1]],[[532,901],[1,0]],[[533,902],[0,-1]],[[533,901],[1,1],[2,0],[0,1],[2,0],[0,1]],[[537,904],[1,0]],[[538,904],[0,2]],[[538,907],[0,-1]],[[538,906],[1,0],[0,3]],[[538,909],[1,0]],[[539,909],[1,1],[0,1],[1,0],[0,1],[1,0],[0,3]],[[542,915],[1,0],[0,1],[1,0],[0,-1],[1,0],[0,-1],[1,0],[0,1],[1,0]],[[547,914],[0,1]],[[547,915],[1,0]],[[530,893],[0,-1]],[[530,892],[-1,0],[0,1],[1,0]],[[530,891],[-1,0],[0,0],[1,0]],[[910,119],[1,0],[0,-1],[-1,0]],[[910,119],[0,0]],[[910,118],[0,0]],[[910,119],[0,-1]],[[910,118],[0,-2],[-1,0],[0,3],[-1,0],[0,1],[1,0],[0,0],[1,-1]],[[910,117],[0,0]],[[910,116],[0,0]],[[909,117],[0,0]],[[909,120],[0,0]],[[908,120],[0,0]],[[556,940],[0,-1],[1,0]],[[557,938],[0,1]],[[557,939],[1,0],[0,-1],[1,0]],[[559,939],[0,-1]],[[559,938],[1,0],[0,1],[1,0],[0,-2],[1,0],[0,-1],[1,0],[0,-1],[1,0],[0,-2],[-1,0]],[[563,933],[0,-1]],[[563,932],[-1,0],[0,-4]],[[562,928],[0,0]],[[561,928],[1,0]],[[562,928],[0,-1]],[[561,927],[1,0]],[[562,927],[-1,-1],[1,0],[0,-2],[1,0],[0,-2],[1,0],[0,-1],[-1,0],[0,-1],[4,0],[0,-1],[1,0],[0,-2],[-1,0],[0,-2],[-1,0],[0,-1],[-1,0],[0,-1],[-1,0]],[[564,912],[0,1]],[[564,913],[-1,0],[0,-1]],[[563,912],[-1,0],[0,1],[-2,0],[0,-1],[-1,0],[0,3],[-1,0],[0,-1],[-1,0]],[[557,913],[0,1]],[[557,914],[-1,0],[0,-3],[-1,0]],[[555,910],[0,1]],[[555,911],[0,1],[-1,0],[0,1],[-1,0]],[[553,913],[1,1],[-1,0],[0,-1]],[[553,913],[-1,0],[0,-2],[-1,0],[0,-1],[-1,0]],[[550,911],[0,-1]],[[550,910],[-2,0],[0,1]],[[549,911],[-1,0]],[[548,911],[0,4]],[[548,915],[0,1]],[[549,916],[-1,0]],[[548,916],[1,1],[0,2],[1,0],[0,2],[1,0]],[[551,920],[0,1]],[[551,921],[0,5],[-1,0],[0,1],[2,0],[0,4],[-1,0],[0,2],[-1,0],[0,1],[-1,0],[0,1]],[[549,935],[1,0],[0,1],[2,0],[0,2],[1,0],[0,1],[1,0],[1,1],[1,0]]]}