{"type":"Topology","objects":{"data":{"geometries":[{"properties":{"index":657,"nuts_3_code":"FRB01","nuts_3_name":"Cher"},"type":"Polygon","arcs":[[-2,-524,-1013,1012,-85,-84,83,-83,-123,122,-122,-121,120,-120,-119,118,-118,-188,-187,186,-186,-185,184,-184,-183,182]],"id":0},{"properties":{"index":658,"nuts_3_code":"FRE21","nuts_3_name":"Aisne"},"type":"MultiPolygon","arcs":[[[0,-547,-700,-699,698,-698,-697,696,-696,-695,694,-694,-693,-141,-140,139,-16,15,-17,16,-15,-14,13,-13,-50,-152,-151,150,-150],[-18,17]],[[16,-17]]],"id":1},{"properties":{"index":659,"nuts_3_code":"FRC12","nuts_3_name":"Ni\u00e8vre"},"type":"Polygon","arcs":[[-257,-256,-23,259,-22,-21,20,-20,-515,-514,513,-513,-512,511,-511,1,-182,-48,-47,46,-46,-45,44,-44,-43,42,-42,-41,40,-40,-39]],"id":2},{"properties":{"index":660,"nuts_3_code":"FRC21","nuts_3_name":"Doubs"},"type":"Polygon","arcs":[[-34,32,2,-10,-9,8,-8,-7,6,-6,-5,4,-4,-30,28,-28,27,-27,-26,25,-25]],"id":3},{"properties":{"index":661,"nuts_3_code":"FRC22","nuts_3_name":"Jura"},"type":"MultiPolygon","arcs":[[[3,-5,4,5,-7,6,7,-9,8,9,10,11,-376,-375,374,-374,-373,372,-372,-19,-254,-253,-31]],[[23]],[[23]]],"id":4},{"properties":{"index":662,"nuts_3_code":"FRE22","nuts_3_name":"Oise"},"type":"MultiPolygon","arcs":[[[100,-54,-53,-52,51,-51,12,-14,13,14,-17,16,-16,15,-140,-139,-138,137,-137,-136,-247,-246,-245,244,-244,-243,242,-242,-241,240,-240,-239,238,-238,-90,-89,-105,-104,103,-103,-102,101,-101],[-17,16]],[[17,-18]]],"id":5},{"properties":{"index":663,"nuts_3_code":"FRC13","nuts_3_name":"Sa\u00f4ne-et-Loire"},"type":"Polygon","arcs":[[18,-386,-385,384,-292,-291,-280,-279,278,-278,-517,-516,19,-21,20,21,-260,22,-255],[23],[23]],"id":6},{"properties":{"index":664,"nuts_3_code":"FRC23","nuts_3_name":"Haute-Sa\u00f4ne"},"type":"Polygon","arcs":[[-477,476,-35,24,-26,25,26,-28,27,-29,29,30,252,-252,-251,-250,-249,248,-248,-751,-750,-749,-480,-479,478,-478]],"id":7},{"properties":{"index":665,"nuts_3_code":"FRC24","nuts_3_name":"Territoire de Belfort"},"type":"Polygon","arcs":[[31,32,33,34,-477,476,-38]],"id":8},{"properties":{"index":666,"nuts_3_code":"FRF12","nuts_3_name":"Haut-Rhin"},"type":"Polygon","arcs":[[35,36,37,-476,-475,-73]],"id":9},{"properties":{"index":667,"nuts_3_code":"FRC14","nuts_3_name":"Yonne"},"type":"Polygon","arcs":[[-570,569,-569,-568,567,-567,-566,-565,-564,563,-563,-562,561,-561,-560,559,-559,-558,-259,-258,-257,38,-40,-41,40,41,-43,42,43,-45,44,45,-47,46,47,-181,-180,-135]],"id":10},{"properties":{"index":668,"nuts_3_code":"FRD11","nuts_3_name":"Calvados "},"type":"MultiPolygon","arcs":[[[-81,-80,79,-79,-78,77,-77,-62,-61,60,59,-59,57,-57,56,-56,48,-113,-99,-98,97,-97]],[[81]]],"id":11},{"properties":{"index":669,"nuts_3_code":"FRE23","nuts_3_name":"Somme"},"type":"Polygon","arcs":[[214,-214,212,-212,210,-210,-209,-208,207,-207,-153,49,50,-52,51,52,53,-101,-115,54,-216]],"id":12},{"properties":{"index":670,"nuts_3_code":"FRD12","nuts_3_name":"Manche "},"type":"MultiPolygon","arcs":[[[55,-57,56,57,58,59,-61,60,61,75,-75,-587,-586,585,-585,-1026,1025,-1025,68,62,63,64,-68,65]],[[66,-67]],[[67,-68]],[[68,-69]],[[69]],[[70]]],"id":13},{"properties":{"index":671,"nuts_3_code":"FRF11","nuts_3_name":"Bas-Rhin"},"type":"Polygon","arcs":[[71,72,474,-475,-474,-854,853,-469,467,-467,466,-466,-465,464,463,-463,-462,461,-461,-460,459,-459]],"id":14},{"properties":{"index":673,"nuts_3_code":"FRB02","nuts_3_name":"Eure-et-Loir"},"type":"Polygon","arcs":[[-146,-145,144,-144,-143,142,-142,-165,-164,-163,162,-162,-194,-134,-133,132,-132,-650,-649,-74,-92,-91,90]],"id":15},{"properties":{"index":675,"nuts_3_code":"FRD13","nuts_3_name":"Orne"},"type":"Polygon","arcs":[[-96,-95,94,-94,-93,92,73,-670,-669,668,-668,-592,-591,590,-590,-589,588,-588,74,-76,76,-78,77,78,-80,79,80],[81]],"id":16},{"properties":{"index":676,"nuts_3_code":"FRB03","nuts_3_name":"Indre"},"type":"Polygon","arcs":[[-123,82,-84,83,84,-1013,-1023,-1022,1021,-1021,-1020,1019,-1019,-458,-495,-494,493,-88,-87,86,-86,-125,-124]],"id":17},{"properties":{"index":677,"nuts_3_code":"FRB04","nuts_3_name":"Indre-et-Loire"},"type":"Polygon","arcs":[[-125,85,-87,86,87,-494,-493,-573,-655,-654,-653,652,-652,-131,-130,129,-129,-128,127,-127,126,-126]],"id":18},{"properties":{"index":679,"nuts_3_code":"FR101","nuts_3_name":"Paris"},"type":"Polygon","arcs":[[-196,-205,-175,-174]],"id":19},{"properties":{"index":680,"nuts_3_code":"FRD21","nuts_3_name":"Eure"},"type":"MultiPolygon","arcs":[[[110,-110,109,-109,107,-107,106,-106,88,89,237,-238,-237,-149,-148,147,-147,-91,90,91,-93,92,93,-95,94,95,96,-98,97,98,99]],[[115]]],"id":20},{"properties":{"index":681,"nuts_3_code":"FRD22","nuts_3_name":"Seine-Maritime"},"type":"MultiPolygon","arcs":[[[100,-102,101,102,-104,103,104,105,-107,106,107,108,110,-110,109,111,112,113,114],[115]],[[116]]],"id":21},{"properties":{"index":683,"nuts_3_code":"FRB05","nuts_3_name":"Loir-et-Cher"},"type":"Polygon","arcs":[[-193,-192,191,-191,-190,189,-189,117,-119,118,119,-121,120,121,-123,122,123,124,125,-127,126,-128,127,128,-130,129,130,-651,-650,131,-133,132,133]],"id":22},{"properties":{"index":684,"nuts_3_code":"FR102","nuts_3_name":"Seine-et-Marne "},"type":"Polygon","arcs":[[-693,-692,-571,134,-179,-178,177,-177,-176,175,-161,-160,159,-159,-158,157,-157,-199,-198,-230,-247,135,-137,-138,137,138,139,140],[-572,571]],"id":23},{"properties":{"index":685,"nuts_3_code":"FR103","nuts_3_name":"Yvelines "},"type":"Polygon","arcs":[[-236,-235,234,-234,-233,-173,-171,-170,-169,168,-168,-167,166,-166,-165,164,141,-143,142,143,-145,144,145,146,-148,147,148]],"id":24},{"properties":{"index":686,"nuts_3_code":"FRE11","nuts_3_name":"Nord"},"type":"MultiPolygon","arcs":[[[149,-151,150,151,152,-227,-226,225,-225,223,-223,221,-221,219,-219,218,-218,153]],[[227]],[[154]],[[155]]],"id":25},{"properties":{"index":688,"nuts_3_code":"FR104","nuts_3_name":"Essonne"},"type":"Polygon","arcs":[[-203,-202,-201,200,-200,156,-158,157,158,-160,159,-161,160,-176,-195,161,-163,162,163,164,165,-167,166,167,-169,168,-170,170,-172,202]],"id":26},{"properties":{"index":689,"nuts_3_code":"FR105","nuts_3_name":"Hauts-de-Seine "},"type":"Polygon","arcs":[[-204,-203,202,171,172,232,-232,-197,173,174]],"id":27},{"properties":{"index":690,"nuts_3_code":"FRB06","nuts_3_name":"Loiret"},"type":"Polygon","arcs":[[175,176,-178,177,178,-180,180,181,-183,182,183,-185,184,185,-187,186,187,188,-190,189,190,-192,191,192,193,194]],"id":28},{"properties":{"index":692,"nuts_3_code":"FR106","nuts_3_name":"Seine-Saint-Denis "},"type":"Polygon","arcs":[[-206,-205,195,196,-232,-231,197]],"id":29},{"properties":{"index":693,"nuts_3_code":"FR107","nuts_3_name":"Val-de-Marne"},"type":"Polygon","arcs":[[198,199,-201,200,201,202,203,-205,204,205]],"id":30},{"properties":{"index":694,"nuts_3_code":"FRE12","nuts_3_name":"Pas-de-Calais"},"type":"MultiPolygon","arcs":[[[206,-208,207,208,209,210,211,212,213,214,215,216,217,-219,218,219,220,221,222,223,224,-226,225,226],[227]],[[228]]],"id":31},{"properties":{"index":696,"nuts_3_code":"FR108","nuts_3_name":"Val-d\u2019Oise"},"type":"Polygon","arcs":[[229,230,231,-233,232,233,-235,234,235,236,237,-239,238,239,-241,240,241,-243,242,243,-245,244,245,246]],"id":32},{"properties":{"index":697,"nuts_3_code":"FRC11","nuts_3_name":"C\u00f4te-d\u2019Or"},"type":"MultiPolygon","arcs":[[[-755,-754,-753,752,-752,-751,247,-249,248,249,-251,251,-253,252,253,254,255,-257,256,-258,258,557,-557,-756]],[[259,-260]]],"id":33},{"properties":{"index":740,"nuts_3_code":"FRY10","nuts_3_name":"Guadeloupe"},"type":"MultiPolygon","arcs":[[[260]],[[261]],[[-267,262,263,272,264]],[[265,266]],[[267]],[[268]],[[271]],[[269]],[[271]],[[270]],[[271]],[[272,-273]],[[273]],[[274,-275]],[[274,275,-275]],[[275,-276]],[[276]],[[276]],[[276]]],"id":34},{"properties":{"index":745,"nuts_3_code":"FRK24","nuts_3_name":"Is\u00e8re"},"type":"Polygon","arcs":[[-381,-296,-295,294,-294,-347,-445,-444,443,-443,-442,441,-441,-413,-281,286,-286,-285,284,-284,-283,282,-282,-382],[447]],"id":35},{"properties":{"index":751,"nuts_3_code":"FRK25","nuts_3_name":"Loire"},"type":"Polygon","arcs":[[516,277,-279,278,279,-291,-290,-289,288,-288,-287,280,-412,-317,-331,-330,329,-329,-520,-519,-518,-517]],"id":36},{"properties":{"index":752,"nuts_3_code":"FRK26","nuts_3_name":"Rh\u00f4ne"},"type":"Polygon","arcs":[[-384,383,-383,281,-283,282,283,-285,284,285,-287,286,287,-289,288,289,290,291,-385]],"id":37},{"properties":{"index":754,"nuts_3_code":"FRK27","nuts_3_name":"Savoie"},"type":"Polygon","arcs":[[292,-348,293,-295,294,295,380,-381,-380,-379,378,-305,-304,303,-303,-302,301,-301,-300,299,-299,-298,297,-297]],"id":38},{"properties":{"index":757,"nuts_3_code":"FRK28","nuts_3_name":"Haute-Savoie"},"type":"Polygon","arcs":[[296,-298,297,298,-300,299,300,-302,301,302,-304,303,304,-379,-378,305]],"id":39},{"properties":{"index":760,"nuts_3_code":"FRK12","nuts_3_name":"Cantal"},"type":"Polygon","arcs":[[334,-318,-681,-680,-679,678,-678,-822,-821,-820,-819,-818,817,-817,-457,-456,455,-455,-960,-959,958,-958,-957,956,-956,-342,-341,-340,-339,338,-338,-337,336,-336,-335]],"id":40},{"properties":{"index":761,"nuts_3_code":"FRY20","nuts_3_name":"Martinique "},"type":"MultiPolygon","arcs":[[[-314,306,-310,307,308]],[[309,-310]],[[310,-311]],[[310,-311]],[[310,-311]],[[310,-311]],[[311]],[[312,-313]],[[313,-314]],[[314]],[[315]]],"id":41},{"properties":{"index":762,"nuts_3_code":"FRK13","nuts_3_name":"Haute-Loire"},"type":"Polygon","arcs":[[316,-411,-410,409,-409,-682,-681,317,-335,-334,-333,332,-332]],"id":42},{"properties":{"index":763,"nuts_3_code":"FRL01","nuts_3_name":"Alpes-de-Haute-Provence"},"type":"Polygon","arcs":[[318,-351,-350,349,400,-401,-400,-399,398,-398,-397,396,-396,-417,-416,-415,414,-414,-432,-431,-430,429,-346,-345,344,-344]],"id":43},{"properties":{"index":769,"nuts_3_code":"FRY30","nuts_3_name":"Guyane"},"type":"MultiPolygon","arcs":[[[319]],[[320]],[[321]],[[321]],[[322]],[[323]],[[323]],[[324]],[[325]],[[326]]],"id":44},{"properties":{"index":770,"nuts_3_code":"FRY40","nuts_3_name":"La R\u00e9union"},"type":"Polygon","arcs":[[327]],"id":45},{"properties":{"index":771,"nuts_3_code":"FRK14","nuts_3_name":"Puy-de-D\u00f4me"},"type":"Polygon","arcs":[[-520,328,-330,329,330,331,-333,332,333,334,335,-337,336,337,-339,338,339,340,341,-955,-1016,-1015,-523,-522,521,-521]],"id":46},{"properties":{"index":772,"nuts_3_code":"FRL02","nuts_3_name":"Hautes-Alpes "},"type":"Polygon","arcs":[[342,343,-345,344,345,-429,346,347]],"id":47},{"properties":{"index":773,"nuts_3_code":"FRL03","nuts_3_name":"Alpes-Maritimes"},"type":"MultiPolygon","arcs":[[[352,353,348,-387,-401,-350,349,350,351]],[[352,-353]],[[353,-354]]],"id":48},{"properties":{"index":775,"nuts_3_code":"FRY50","nuts_3_name":"Mayotte "},"type":"MultiPolygon","arcs":[[[-358,354]],[[355,-356]],[[355,-356]],[[355,-356]],[[356,-357]],[[357,358]],[[359]],[[360]],[[361]],[[362]],[[362]],[[362]],[[363]]],"id":49},{"properties":{"index":777,"nuts_3_code":"FRL04","nuts_3_name":"Bouches-du-Rh\u00f4ne"},"type":"MultiPolygon","arcs":[[[417,-395,-394,393,-393,-392,391,-391,364,365,-371,366,-552,-551,550,-550,-419,-418]],[[367]],[[368]],[[368]],[[368]],[[368]],[[368]],[[369]],[[370,-371]]],"id":50},{"properties":{"index":781,"nuts_3_code":"FRK21","nuts_3_name":"Ain"},"type":"Polygon","arcs":[[371,-373,372,373,-375,374,375,376,377,378,379,380,381,382,-384,383,384,385]],"id":51},{"properties":{"index":782,"nuts_3_code":"FRL05","nuts_3_name":"Var"},"type":"MultiPolygon","arcs":[[[386,387,406,388,389,390,-392,391,392,-394,393,394,-418,-417,416,395,-397,396,397,-399,398,399,400]],[[401]],[[402]],[[403]],[[403]],[[404]],[[405]],[[406,-407]],[[406,-407]],[[407,-408]]],"id":52},{"properties":{"index":785,"nuts_3_code":"FRK22","nuts_3_name":"Ard\u00e8che"},"type":"Polygon","arcs":[[-440,-420,-556,-555,554,-554,-672,-671,408,-410,409,410,411,412]],"id":53},{"properties":{"index":786,"nuts_3_code":"FRL06","nuts_3_name":"Vaucluse"},"type":"MultiPolygon","arcs":[[[-439,-438,437,-437,-436,-435,-434,-433,413,-415,414,415,416,417,418,-549,419]],[[-446,-447]]],"id":54},{"properties":{"index":788,"nuts_3_code":"FRM01","nuts_3_name":"Corse-du-Sud"},"type":"MultiPolygon","arcs":[[[420,449,-449]],[[421]],[[422]],[[422]],[[423]],[[424]],[[425]],[[425]],[[425]],[[426]],[[427]]],"id":55},{"properties":{"index":792,"nuts_3_code":"FRK23","nuts_3_name":"Dr\u00f4me"},"type":"MultiPolygon","arcs":[[[428,-430,429,430,431,432,-434,-435,-436,435,436,-438,437,438,439,440,-442,441,442,-444,443,444],[445,446]],[[447]]],"id":56},{"properties":{"index":793,"nuts_3_code":"FRM02","nuts_3_name":"Haute-Corse"},"type":"MultiPolygon","arcs":[[[448,449,450]],[[451]],[[452]],[[453]]],"id":57},{"properties":{"index":796,"nuts_3_code":"FRJ25","nuts_3_name":"Lot"},"type":"Polygon","arcs":[[454,-456,455,456,-816,-492,-491,-490,489,-489,-488,-487,486,-486,-827,-826,825,-704,-963,-962,961,-961]],"id":58},{"properties":{"index":797,"nuts_3_code":"FRI23","nuts_3_name":"Haute-Vienne"},"type":"MultiPolygon","arcs":[[[-1018,-966,-716,-715,714,-714,713,-713,-712,711,-711,-710,709,-472,-496,457]],[[1023]]],"id":59},{"properties":{"index":798,"nuts_3_code":"FRF33","nuts_3_name":"Moselle"},"type":"MultiPolygon","arcs":[[[458,-460,459,460,-462,461,462,463,-465,464,465,-467,466,467,468,852,-852,-851,850,-850,-849,848,-848,-847,846,-846,469]],[[861]]],"id":60},{"properties":{"index":799,"nuts_3_code":"FRJ26","nuts_3_name":"Hautes-Pyr\u00e9n\u00e9es "},"type":"MultiPolygon","arcs":[[[-998,997,-923,-922,921,-921,470,-941,-940,939,-939,952,937,-937,1001,-1001,-1000,999,-999]],[[-953,-952]],[[953]]],"id":61},{"properties":{"index":800,"nuts_3_code":"FRI33","nuts_3_name":"Deux-S\u00e8vres"},"type":"MultiPolygon","arcs":[[[-575,-510,-509,-508,-507,506,-506,-505,-504,503,-503,-502,-501,-500,-473,-527,-526,525,-525,-725,-724,723,-723,-722,-721,720,-720,-719,-580,-579,-578,-577,576,-576,574],[529]],[[733,-734]]],"id":62},{"properties":{"index":801,"nuts_3_code":"FRJ27","nuts_3_name":"Tarn"},"type":"Polygon","arcs":[[-603,-602,601,-601,-600,599,-599,-546,-545,544,-544,-899,-936,935,-935,-934,-933,932,-932,-931,930,-930,-929,-485,-484,483,-483,-482,481,-481,810,-810]],"id":63},{"properties":{"index":802,"nuts_3_code":"FRI31","nuts_3_name":"Charente"},"type":"Polygon","arcs":[[471,-710,-709,-708,707,-707,-706,-528,472,-499,-498,497,-497]],"id":64},{"properties":{"index":803,"nuts_3_code":"FRF34","nuts_3_name":"Vosges"},"type":"MultiPolygon","arcs":[[[473,-475,474,475,476,477,-479,478,479,-749,-748,-747,-746,-745,-744,743,-979,-978,-859,-858,857,-857,-856,855,-855]],[[860,-861]]],"id":65},{"properties":{"index":804,"nuts_3_code":"FRJ28","nuts_3_name":"Tarn-et-Garonne"},"type":"Polygon","arcs":[[-815,-814,813,-813,-812,-811,480,-482,481,482,-484,483,484,-928,-927,-926,-925,-924,-996,-995,-833,-832,831,-831,-830,829,-829,-828,485,-487,486,-488,488,-490,489,-491,491]],"id":66},{"properties":{"index":805,"nuts_3_code":"FRI34","nuts_3_name":"Vienne"},"type":"Polygon","arcs":[[492,493,494,495,496,-498,497,498,499,-501,-502,502,-504,503,-505,505,-507,506,507,-509,-510,509,574,-574]],"id":67},{"properties":{"index":806,"nuts_3_code":"FRK11","nuts_3_name":"Allier"},"type":"Polygon","arcs":[[510,-512,511,512,-514,513,514,515,516,517,-519,519,520,-522,521,522,-1015,-1014,523]],"id":68},{"properties":{"index":807,"nuts_3_code":"FRI32","nuts_3_name":"Charente-Maritime"},"type":"MultiPolygon","arcs":[[[524,-526,525,526,527,-705,-763,528,-729,727,726,-726]],[[529]],[[530]],[[531]],[[531]],[[532]],[[533]],[[534]],[[535]],[[535]],[[536]],[[537]]],"id":69},{"properties":{"index":808,"nuts_3_code":"FRG01","nuts_3_name":"Loire-Atlantique"},"type":"MultiPolygon","arcs":[[[-581,-733,-732,731,-731,538,-616,-615,614,-614,1029,-1029],[735]],[[539]],[[540]],[[541]]],"id":70},{"properties":{"index":809,"nuts_3_code":"FRJ11","nuts_3_name":"Aude"},"type":"Polygon","arcs":[[-598,-597,596,-596,-595,594,-594,542,-702,-741,-740,739,-739,903,-904,-903,901,-901,900,-900,-899,898,543,-545,544,545]],"id":71},{"properties":{"index":810,"nuts_3_code":"FRF21","nuts_3_name":"Ardennes"},"type":"Polygon","arcs":[[-991,-990,989,-989,-988,987,-987,986,-687,-686,685,-685,-684,683,-683,546,547]],"id":72},{"properties":{"index":811,"nuts_3_code":"FRJ12","nuts_3_name":"Gard"},"type":"Polygon","arcs":[[548,549,-551,550,551,552,-613,-612,611,-611,609,-609,608,-608,-607,606,-606,-605,604,-604,-806,-805,-677,-676,675,-675,-674,673,-673,-672,671,553,-555,554,555]],"id":73},{"properties":{"index":812,"nuts_3_code":"FRF22","nuts_3_name":"Aube"},"type":"MultiPolygon","arcs":[[[-757,-756,755,556,-558,557,-559,558,-560,559,560,-562,561,562,-564,563,-565,-566,565,566,-568,567,568,-570,569,570,-691,-690,-689,688,-688]],[[571,-572]]],"id":74},{"properties":{"index":813,"nuts_3_code":"FRG02","nuts_3_name":"Maine-et-Loire"},"type":"MultiPolygon","arcs":[[[-662,661,-661,-660,-659,-658,-657,656,-656,572,573,-575,574,575,-577,576,577,-579,579,-719,-718,-717,580,-1028,1027,-584,-583,582,-582]],[[734]]],"id":75},{"properties":{"index":814,"nuts_3_code":"FRG03","nuts_3_name":"Mayenne"},"type":"Polygon","arcs":[[-667,-666,665,-665,-664,663,-663,581,-583,582,583,-1028,-1027,-1026,1025,584,-586,585,586,587,-589,588,589,-591,590,591]],"id":76},{"properties":{"index":815,"nuts_3_code":"FRJ13","nuts_3_name":"H\u00e9rault"},"type":"Polygon","arcs":[[592,593,-595,594,595,-597,596,597,598,-600,599,600,-602,601,602,-809,-808,807,-807,603,-605,604,605,-607,606,607,-609,608,609,610,-612,611,612]],"id":77},{"properties":{"index":816,"nuts_3_code":"FRH04","nuts_3_name":"Morbihan"},"type":"MultiPolygon","arcs":[[[-1038,1036,-1036,-1035,1034,-1034,-1033,1032,1033,-1032,1030,-1030,613,-615,614,615,616,617,618,-635,631,619,632,620,622,621,623,624,639,-640,625,645,-646,643,626,-644,627,-870,-869,868,-868,-867,-788,-787,786,-786]],[[628]],[[629]],[[629]],[[629]],[[630]],[[632,-633]],[[632,-633]],[[632,-633]],[[632,-633]],[[632,-633]],[[632,-633]],[[632,-633]],[[632,-633]],[[632,-633]],[[631,-632]],[[632,-633]],[[633,-634]],[[633,-634]],[[634,-635]],[[636,-637]],[[636]],[[636,-637]],[[636,-637]],[[637]],[[635]],[[636]],[[637]],[[636]],[[637]],[[640]],[[640]],[[638,-639]],[[639,-640]],[[640]],[[641]],[[642]],[[642]],[[644,-645]],[[643,-644]],[[644,-645]],[[645,-646]],[[646]],[[646]],[[646]],[[876]],[[647]]],"id":78},{"properties":{"index":817,"nuts_3_code":"FRG04","nuts_3_name":"Sarthe"},"type":"Polygon","arcs":[[648,649,650,651,-653,652,653,654,655,-657,656,-658,658,-660,660,-662,661,662,-664,663,664,-666,665,666,667,-669,668,669]],"id":79},{"properties":{"index":818,"nuts_3_code":"FRJ14","nuts_3_name":"Loz\u00e8re"},"type":"Polygon","arcs":[[670,671,672,-674,673,674,-676,675,676,804,-804,-803,802,-802,-822,677,-679,678,679,680,681]],"id":80},{"properties":{"index":819,"nuts_3_code":"FRF23","nuts_3_name":"Marne"},"type":"Polygon","arcs":[[682,-684,683,684,-686,685,686,-987,-986,-985,-984,983,-983,-982,981,-981,-762,-761,760,-760,-759,758,-758,687,-689,688,689,-691,691,-693,692,693,-695,694,695,-697,696,697,-699,698,699]],"id":81},{"properties":{"index":820,"nuts_3_code":"FRJ15","nuts_3_name":"Pyr\u00e9n\u00e9es-Orientales"},"type":"Polygon","arcs":[[700,-742,701],[702]],"id":82},{"properties":{"index":821,"nuts_3_code":"FRI11","nuts_3_name":"Dordogne"},"type":"Polygon","arcs":[[-965,-964,703,-825,-824,823,-823,-845,-766,-765,764,-764,704,705,-707,-708,707,708,709,710,-712,711,712,-714,713,-715,714,715]],"id":83},{"properties":{"index":822,"nuts_3_code":"FRG05","nuts_3_name":"Vend\u00e9e"},"type":"MultiPolygon","arcs":[[[716,717,718,719,-721,720,721,722,-724,723,724,725,726,727,728,729,730,-732,731,732],[-734,733],[734]],[[735]],[[736]],[[737]]],"id":84},{"properties":{"index":823,"nuts_3_code":"FRJ21","nuts_3_name":"Ari\u00e8ge"},"type":"Polygon","arcs":[[-904,738,-740,739,740,741,742,-919,917,916,-916,-915,914,-914,912,-912,910,-910,-909,907,908,-907,-906,905,-905]],"id":85},{"properties":{"index":824,"nuts_3_code":"FRF24","nuts_3_name":"Haute-Marne"},"type":"Polygon","arcs":[[-980,-744,743,744,-746,-747,746,747,748,749,750,751,-753,752,753,-755,755,756,757,-759,758,759,-761,760,761]],"id":86},{"properties":{"index":825,"nuts_3_code":"FRI12","nuts_3_name":"Gironde"},"type":"MultiPolygon","arcs":[[[762,763,-765,764,765,844,-845,-844,843,-843,-842,840,-840,838,-838,-837,836,-836,-835,834,-783,-782,-781,780,-780,-779,778,-778,766,-770,767,768]],[[770]],[[770]],[[769,-770]],[[770,-771]],[[771,-772]],[[772]],[[773]],[[774]],[[775]],[[775]],[[775]]],"id":87},{"properties":{"index":826,"nuts_3_code":"FRI13","nuts_3_name":"Landes"},"type":"Polygon","arcs":[[-834,-1007,1005,-1005,1004,-1004,-951,-950,949,-949,-948,-947,946,-946,-945,-944,943,-943,776,777,-779,778,779,-781,780,781,782,-835]],"id":88},{"properties":{"index":827,"nuts_3_code":"FRH01","nuts_3_name":"C\u00f4tes-d\u2019Armor"},"type":"MultiPolygon","arcs":[[[-1045,783,784,-1042,-1041,1040,-1040,1038,785,-787,786,787,866,-867,-866,-865,864,-864,-863,862,-876,788,-796,794,-794,792,789,1047]],[[1047,-1048]],[[790]],[[790]],[[791]],[[791]],[[791]],[[791]],[[791]],[[792,-793]],[[792,-793]],[[794,-795]],[[793,-794]],[[794,-795]],[[794,-795]],[[795,-796]],[[796,-797]],[[796,-797]],[[797]],[[797]],[[797]],[[798]],[[799]],[[800]],[[800]],[[800]],[[800]],[[800]]],"id":89},{"properties":{"index":828,"nuts_3_code":"FRJ22","nuts_3_name":"Aveyron"},"type":"Polygon","arcs":[[801,-803,802,803,-805,804,805,806,-808,807,808,809,-811,810,811,812,-814,813,814,815,816,-818,817,818,-820,820,821]],"id":90},{"properties":{"index":829,"nuts_3_code":"FRI14","nuts_3_name":"Lot-et-Garonne"},"type":"Polygon","arcs":[[822,-824,823,824,-826,825,826,827,828,-830,829,830,-832,831,832,-1012,-1011,1010,-1010,-1009,1008,-1008,833,-835,834,835,-837,836,837,-839,839,-841,841,842,-844,843,844]],"id":91},{"properties":{"index":830,"nuts_3_code":"FRF31","nuts_3_name":"Meurthe-et-Moselle "},"type":"MultiPolygon","arcs":[[[845,-847,846,847,-849,848,849,-851,850,851,852,853,-854,854,-856,855,856,-858,857,858,-977,-976,975,-975,-974,973,-973,-972,971,-971,969,-969,-968,967,-967,859],[-861,860],[861]],[[992,-993]],[[993,-994]]],"id":92},{"properties":{"index":831,"nuts_3_code":"FRH02","nuts_3_name":"Finist\u00e8re"},"type":"MultiPolygon","arcs":[[[-863,862,863,-865,864,865,-867,866,867,-869,868,869,870,871,872,885,873,874,875],[876]],[[877]],[[880]],[[878]],[[879]],[[880]],[[880]],[[881]],[[882]],[[883]],[[884]],[[885,-886]],[[886]],[[887]],[[887]],[[887]],[[888]],[[888]],[[889]],[[889]],[[890]],[[891]],[[893]],[[892]],[[893]],[[894]],[[894]],[[894]],[[894]],[[894]],[[895]],[[895]],[[896]],[[897]]],"id":93},{"properties":{"index":832,"nuts_3_code":"FRJ23","nuts_3_name":"Haute-Garonne"},"type":"Polygon","arcs":[[898,899,-901,900,901,902,903,904,-906,905,906,-909,907,908,909,910,911,912,913,-915,914,915,916,917,918,919,920,-922,921,922,-998,997,-997,-996,995,923,924,925,926,927,928,929,-931,930,931,-933,932,933,934,-936,935]],"id":94},{"properties":{"index":833,"nuts_3_code":"FRI15","nuts_3_name":"Pyr\u00e9n\u00e9es-Atlantiques"},"type":"Polygon","arcs":[[-1002,936,937,-953,938,-940,939,940,941,942,-944,943,944,945,-947,946,947,948,-950,949,950,-1003,1001],[951,952],[953]],"id":95},{"properties":{"index":834,"nuts_3_code":"FRI21","nuts_3_name":"Corr\u00e8ze"},"type":"Polygon","arcs":[[954,955,-957,956,957,-959,958,959,960,-962,961,962,963,-965,965,-1017]],"id":96},{"properties":{"index":835,"nuts_3_code":"FRF32","nuts_3_name":"Meuse "},"type":"Polygon","arcs":[[966,-968,967,968,969,970,-972,971,972,-974,973,974,-976,975,976,977,978,979,980,-982,981,982,-984,983,984,985,986,-988,987,988,-990,989,990,991],[-993,992],[-994,993]],"id":97},{"properties":{"index":836,"nuts_3_code":"FRJ24","nuts_3_name":"Gers"},"type":"Polygon","arcs":[[994,-996,995,996,997,998,-1000,999,1000,-1002,1001,1002,1003,-1006,-1005,1004,1006,1007,-1009,1008,1009,-1011,1010,1011]],"id":98},{"properties":{"index":837,"nuts_3_code":"FRI22","nuts_3_name":"Creuse"},"type":"Polygon","arcs":[[1012,1013,1014,1015,1016,1017,1018,-1020,1019,1020,-1022,1021,1022],[1023]],"id":99},{"properties":{"index":838,"nuts_3_code":"FRH03","nuts_3_name":"Ille-et-Vilaine"},"type":"MultiPolygon","arcs":[[[1024,1025,1026,1027,1028,-1030,1029,1030,1031,1033,-1034,-1033,1032,-1035,1034,1035,1036,1037,1038,1039,-1041,1040,1041,1042]],[[1043]],[[1044,1045]],[[1046]],[[1047,-1048]]],"id":100}],"type":"GeometryCollection"}},"bbox":[-63.151187618999984,-21.38890872199994,55.83576576500009,51.08938134751675],"transform":{"scale":[0.11910605944344352,0.07255084091042711],"translate":[-63.151187618999984,-21.38890872199994]},"arcs":[[[565,984],[0,-1],[1,0]],[[556,940],[0,5],[-1,0],[0,2],[-1,0],[0,1],[1,0],[0,1],[-1,1]],[[588,950],[0,-2],[1,0],[0,-1],[-1,0],[1,-1],[-1,0],[0,-1],[-1,0],[0,-1],[-1,0],[0,-1],[0,0],[-1,-1],[-1,0],[0,-3],[-1,0],[0,-1],[-1,0],[0,-2]],[[578,946],[0,-1],[1,0],[0,-2]],[[578,943],[1,0]],[[579,943],[1,0],[0,-1]],[[581,942],[-1,0]],[[580,942],[0,-1],[1,0]],[[581,940],[0,1]],[[581,941],[1,-1],[0,-1],[-1,0],[0,-2],[1,0],[0,-1]],[[582,936],[0,0]],[[582,936],[-1,0],[0,-1]],[[556,980],[0,-2]],[[557,978],[-1,0]],[[556,978],[0,-1],[1,0],[0,-1],[-1,0],[0,-1],[-1,0],[0,-1],[1,0],[0,-1]],[[556,973],[0,-1]],[[555,973],[1,0]],[[555,973],[0,0]],[[574,942],[1,0],[0,-1],[1,0],[0,-1],[-1,0],[0,-1],[1,0],[0,-2],[-1,0],[0,-1],[1,0],[0,-1],[-1,0]],[[561,939],[3,0],[0,2]],[[565,941],[-1,0]],[[564,941],[0,3],[1,0]],[[565,945],[1,0]],[[576,941],[0,0]],[[587,950],[-1,0]],[[586,951],[0,-1]],[[586,950],[-1,0],[0,-1],[-1,1],[-1,0],[0,-2],[-1,0]],[[582,949],[0,-1]],[[582,948],[0,0]],[[582,948],[-1,0],[0,-1],[-2,0],[0,-1],[-1,0]],[[578,946],[-1,0],[0,1]],[[590,949],[-1,0],[0,0],[-1,0],[0,1]],[[588,950],[0,-1],[1,0],[0,1],[-1,0]],[[588,950],[-1,0]],[[587,950],[0,4]],[[594,958],[0,-4],[-1,-1],[0,0],[0,-1],[1,0],[0,-2],[-1,0],[0,-1],[-2,0],[0,0],[-1,0]],[[590,949],[0,0]],[[590,949],[0,2],[-1,0],[0,2],[-1,0],[0,1]],[[565,947],[-1,0],[0,1],[-1,0]],[[563,948],[0,0]],[[563,949],[0,-1]],[[563,948],[-2,0],[0,1],[-1,0],[0,1],[-1,-1]],[[559,950],[0,-1]],[[559,949],[-1,0]],[[558,950],[0,-1]],[[558,949],[-1,0],[0,1],[-1,0]],[[556,951],[0,-1]],[[556,950],[-1,0]],[[521,975],[0,1],[2,0],[0,-1],[4,0],[0,-1],[3,0],[0,1],[1,0],[0,1],[1,0]],[[557,984],[0,-1],[-1,0],[0,-3]],[[556,980],[-1,0]],[[555,979],[0,1]],[[555,980],[-1,0],[0,-1],[-1,0],[0,-1],[-1,0],[0,1],[-2,0],[0,1],[-5,0]],[[545,980],[0,0]],[[542,985],[1,1],[0,1],[1,0],[0,1],[-1,0],[0,1]],[[521,975],[0,-2],[1,0]],[[523,973],[-1,0]],[[522,973],[0,0]],[[522,973],[0,-1],[1,0],[0,-2],[-1,0],[0,-1],[-1,0],[0,-1]],[[521,968],[0,0]],[[520,968],[1,0]],[[521,968],[0,-1],[2,0]],[[518,965],[0,0]],[[518,965],[0,1],[0,0],[0,-1]],[[518,965],[0,1],[-1,0],[0,5],[1,-1],[0,1],[-1,0],[0,2],[-1,0],[0,2],[-1,0],[0,2],[-1,0],[0,1],[1,0],[0,1],[-1,0],[0,1],[2,0],[0,-1],[2,0],[0,1],[2,0],[0,-2]],[[519,978],[0,-1],[1,0],[0,-2],[1,0]],[[520,978],[0,0]],[[519,978],[1,0]],[[517,965],[1,0]],[[517,969],[0,0]],[[515,968],[0,0]],[[594,971],[3,0],[1,-1],[1,0],[0,-1],[-1,-1],[0,-1],[-1,0],[0,-1],[-1,0],[0,-3],[-1,0],[0,-4],[-1,0],[0,-1]],[[594,958],[-1,0],[0,1],[-1,1],[-1,0],[0,1]],[[537,966],[0,-2],[1,0],[0,-3],[-1,0],[0,-2]],[[523,963],[0,1],[1,0],[0,2],[-1,0],[0,1]],[[523,967],[0,0]],[[523,967],[1,0],[0,1],[6,0],[0,1],[1,0]],[[531,970],[0,-1]],[[531,969],[1,0],[0,1],[1,0]],[[533,969],[0,1]],[[533,970],[1,0]],[[527,968],[0,0]],[[546,945],[-1,0],[0,-1],[2,0],[0,-1],[1,0],[0,-3]],[[547,940],[1,0]],[[548,940],[0,-2],[1,0],[0,-1],[-1,0],[0,-1],[1,0],[0,-1]],[[542,945],[0,-1],[-1,0],[0,-1],[-2,0],[0,-3]],[[538,940],[1,0]],[[539,940],[0,-1],[-1,0]],[[545,976],[0,-2]],[[545,974],[-1,0],[0,-1]],[[542,969],[1,0]],[[543,969],[-1,-1],[0,-1],[-3,0],[0,-1],[-2,0]],[[536,966],[1,0]],[[537,966],[0,1],[-1,0],[0,1],[-1,0],[0,1],[-1,0]],[[533,969],[1,0]],[[534,969],[0,1]],[[534,970],[0,1]],[[533,971],[1,0]],[[534,971],[0,1],[-1,0],[1,1],[-1,0],[0,3]],[[533,976],[1,0],[0,1],[1,0],[0,-1],[3,0],[0,-1]],[[545,981],[0,-1]],[[544,980],[1,0]],[[545,980],[0,-1]],[[544,979],[1,0]],[[545,979],[-1,-1],[1,0],[0,-2]],[[545,976],[-3,0]],[[542,977],[0,-1]],[[542,976],[0,0]],[[542,976],[-1,0],[0,-1],[-1,0],[0,-1],[-2,0],[0,1]],[[537,975],[1,0]],[[538,975],[0,0]],[[538,975],[0,1],[-2,0],[0,0],[-1,0],[0,1],[-1,0],[0,-1],[-1,0]],[[533,976],[-1,0]],[[532,976],[-1,1],[0,2],[1,0],[0,1],[1,0],[0,1],[2,0],[0,1],[2,0],[1,1],[2,0],[0,1],[1,0],[0,1],[1,0]],[[542,985],[0,-1],[1,0],[0,-1],[1,0],[1,-1],[0,-1]],[[539,974],[0,0]],[[531,977],[0,0]],[[549,951],[-1,0],[0,-1],[1,0],[0,-1]],[[549,948],[0,1]],[[549,949],[-1,-1],[0,-1]],[[548,946],[0,1]],[[548,947],[-1,-1],[0,1],[-1,-1]],[[546,945],[0,1]],[[546,946],[-4,0],[0,-1]],[[542,945],[-1,0]],[[541,945],[0,2],[-1,0]],[[540,946],[0,1]],[[539,947],[1,0]],[[540,947],[0,1],[-1,0],[0,1]],[[540,949],[-1,0]],[[539,949],[0,2],[-2,0],[0,1],[-2,0]],[[538,958],[1,0]],[[539,957],[0,1]],[[539,958],[1,0],[0,-2],[2,0],[0,1],[1,-1]],[[559,962],[-1,0],[0,-1],[-1,0],[0,1],[-1,-1],[0,-2],[-1,0]],[[552,972],[1,-1],[1,0]],[[554,971],[0,0]],[[554,972],[0,-1]],[[554,971],[2,0],[0,1]],[[556,972],[1,0]],[[557,972],[0,-2],[1,0],[0,-1],[1,0],[0,-1]],[[546,963],[-1,0],[0,1],[-1,0],[1,1],[-1,0],[0,1]],[[543,966],[1,0]],[[544,966],[0,1],[-1,0],[0,1]],[[544,968],[-1,0]],[[543,968],[0,1]],[[543,969],[0,1]],[[542,970],[1,0]],[[543,970],[-1,1],[2,0]],[[565,984],[-1,0],[0,1],[-1,-1],[0,1],[-2,0],[0,-1],[-1,0]],[[560,985],[0,-1]],[[560,984],[-3,0]],[[557,984],[-1,0],[0,1]],[[548,998],[2,0],[1,1],[1,0],[0,-4],[1,0],[0,-1],[2,0],[1,1],[1,0],[0,-1],[1,0],[0,-1],[0,0],[0,-2],[3,0],[0,-3],[1,0],[0,1],[1,0],[0,0],[1,0],[0,-1],[2,0],[0,-1],[-1,0],[0,-2],[0,0],[0,-1]],[[550,999],[0,0]],[[549,998],[0,0]],[[552,966],[-1,-1]],[[552,965],[-1,0]],[[551,965],[0,-3]],[[552,962],[-1,0]],[[551,962],[0,-1]],[[547,960],[0,2]],[[546,962],[1,0]],[[547,962],[0,1],[-1,-1]],[[546,962],[0,1]],[[546,963],[1,1]],[[546,964],[1,0]],[[547,964],[0,1]],[[548,965],[-1,0]],[[547,965],[0,0]],[[547,965],[0,1],[1,0],[0,1],[1,0]],[[550,967],[-1,0]],[[549,967],[0,1],[-1,0],[0,1],[1,0]],[[550,969],[-1,0]],[[549,969],[0,-1],[1,0]],[[550,961],[1,0]],[[551,961],[0,-3],[2,0],[0,1],[1,0]],[[554,958],[0,1]],[[554,959],[1,0]],[[555,959],[0,0]],[[555,959],[0,-1],[1,0],[0,-3],[-1,0],[1,-1],[0,-1],[-2,0],[0,-1],[1,0],[0,-2]],[[555,950],[-1,0]],[[554,949],[0,1]],[[554,950],[-1,0]],[[553,949],[0,1]],[[553,950],[-1,0],[0,1],[-1,0]],[[551,950],[0,1]],[[551,951],[-2,0]],[[549,951],[0,1],[-4,0]],[[545,951],[0,1]],[[545,952],[0,1],[-2,0],[0,2]],[[544,955],[-1,0]],[[543,955],[0,1]],[[543,956],[0,1],[2,0],[0,1],[1,0],[0,1],[1,0],[0,1]],[[547,960],[1,0],[0,1],[2,0]],[[550,968],[0,1]],[[550,969],[0,1]],[[552,970],[0,-2]],[[552,968],[0,-2]],[[552,966],[-1,0]],[[551,967],[0,-1]],[[551,966],[-1,0]],[[550,966],[0,1]],[[550,967],[0,1]],[[550,968],[1,0]],[[551,968],[1,0]],[[556,985],[-1,0],[0,-1],[-1,0],[0,1]],[[553,985],[1,0]],[[554,985],[0,1],[-1,0],[0,-1]],[[553,985],[-1,0],[0,1],[-1,0]],[[551,986],[0,-1],[-1,0],[0,1],[1,0]],[[551,986],[0,1],[-3,0],[0,1],[-1,0]],[[547,988],[0,0]],[[547,988],[0,1],[-1,0]],[[546,989],[0,0]],[[546,989],[-3,0]],[[543,989],[0,2],[1,0],[0,1],[-1,0],[0,2],[1,0],[0,1],[-1,1],[1,0],[0,1],[2,0],[0,1],[2,0]],[[548,998],[0,-2],[1,0],[0,-1],[1,0],[0,-2],[3,0]],[[553,992],[0,1]],[[553,993],[0,0]],[[553,993],[1,0],[0,-2],[2,0],[0,-1]],[[556,990],[0,0]],[[556,990],[-1,-1]],[[555,989],[0,0]],[[555,989],[1,0],[0,-1],[1,0],[0,-1]],[[556,987],[1,0]],[[557,987],[0,-1],[-1,0],[0,-1]],[[556,986],[0,0]],[[543,994],[0,0]],[[552,971],[-1,0],[1,-1]],[[552,970],[-2,0]],[[550,970],[-1,0]],[[549,969],[0,1]],[[549,970],[-2,0],[0,1],[-1,0]],[[546,970],[0,1]],[[546,971],[-2,0]],[[544,971],[0,2]],[[544,973],[1,0]],[[545,974],[0,-1]],[[545,973],[1,0]],[[546,972],[0,1]],[[546,973],[2,0]],[[548,972],[0,1]],[[548,973],[1,0]],[[549,972],[0,1]],[[549,973],[1,0],[0,-1],[2,0]],[[552,972],[0,-1]],[[576,951],[0,-1]],[[576,949],[0,1]],[[576,950],[-1,-1],[1,0]],[[576,949],[0,0]],[[576,949],[0,-2]],[[577,947],[-1,0]],[[576,947],[0,-3],[-1,0],[0,-1],[-1,0],[0,-1]],[[574,942],[-4,0],[0,-1],[-1,0],[0,2],[-2,0],[0,1],[-1,0],[0,1]],[[566,945],[0,1],[-1,0],[0,1]],[[565,947],[0,1]],[[565,948],[0,0]],[[565,948],[-1,0],[0,1],[1,0],[0,2],[1,0],[0,2],[1,0],[0,1],[-1,0],[0,1]],[[565,945],[0,-1]],[[17,520],[0,0],[0,0]],[[17,518],[0,0]],[[14,519],[-1,-1],[0,1]],[[13,519],[0,-4],[-1,0],[0,3],[-1,0],[0,2]],[[12,520],[1,0],[0,-1]],[[13,519],[1,1],[0,2],[1,0],[0,-2],[1,0],[0,-1],[-1,0],[0,-1],[-1,0],[0,1]],[[14,519],[-1,0]],[[16,514],[-1,0],[0,1],[1,0],[0,-1]],[[14,518],[0,0]],[[13,520],[0,0]],[[13,514],[0,0]],[[13,513],[0,0]],[[11,520],[1,0]],[[11,518],[0,0]],[[1,544],[0,1]],[[1,544],[0,0]],[[0,544],[0,0]],[[563,932],[1,0],[0,-1],[1,1]],[[565,931],[0,1]],[[565,932],[1,0],[0,-1]],[[570,921],[0,-1]],[[573,926],[0,-1]],[[574,925],[-1,0]],[[573,925],[0,-1],[-1,0],[0,-1],[-1,0]],[[570,923],[1,0]],[[571,923],[0,-1],[-1,0]],[[570,921],[0,1]],[[570,922],[-1,0],[0,1]],[[570,923],[-1,0]],[[569,923],[-1,0],[0,1],[-1,0],[0,4],[-1,0],[0,3]],[[566,931],[1,0],[0,1]],[[567,932],[0,1],[3,0],[0,-1]],[[587,926],[0,-1],[1,0],[0,-1],[1,0],[0,-2],[1,0],[0,-1],[0,0],[0,-3],[-1,0],[0,-1],[-3,0]],[[583,917],[-1,0],[0,4],[-1,0],[0,1],[-1,0],[0,-1]],[[580,920],[0,1]],[[580,921],[-2,0],[0,2],[-1,0]],[[587,926],[0,-1],[-1,0],[0,1],[-1,0],[0,1]],[[585,928],[0,-1]],[[585,927],[-1,0],[0,-2],[-1,0]],[[583,924],[0,1]],[[583,925],[-1,0]],[[582,926],[0,-1]],[[582,925],[-1,1]],[[581,925],[0,1]],[[581,926],[-1,0],[0,1],[-1,0]],[[581,931],[1,0],[0,1],[1,0],[0,1],[0,0],[0,1],[1,0],[0,1],[3,0],[0,-2],[1,0],[0,-1],[-1,0],[0,-1],[1,0],[0,-1],[1,0],[0,-3],[-1,0],[0,0],[-1,0],[0,-1]],[[19,496],[0,-1],[1,0],[0,-1]],[[19,494],[0,0]],[[19,494],[-2,0],[0,1],[1,0],[0,1],[-1,0],[0,2],[-1,0],[0,2],[1,0],[0,-1],[1,0],[0,-1],[1,0],[0,-1]],[[19,494],[1,0]],[[19,496],[0,0]],[[19,493],[0,0]],[[19,497],[0,0]],[[19,496],[0,1]],[[18,495],[0,0]],[[18,494],[0,0]],[[563,920],[4,0],[0,-1],[1,0],[0,-1]],[[558,915],[0,3],[-1,0],[0,1],[-1,0]],[[589,910],[-1,0],[0,-3],[0,0],[0,-1]],[[77,374],[2,0],[0,-1],[1,-1],[1,0],[1,-1],[2,0],[1,-1],[1,0],[0,-1],[1,0],[0,-1],[1,-1],[0,-1],[1,0],[0,-1],[1,-1],[0,-1],[1,0],[0,-1],[1,0],[0,-1],[1,0],[0,-1],[1,0],[0,-1],[1,0],[0,-2],[1,0],[0,-4],[1,0],[0,-2],[-2,-2],[0,-2],[-1,0],[0,-2],[-1,-1],[0,-2],[-1,-1],[0,-1],[-1,0],[0,-4],[-1,0],[0,-4],[-1,0],[0,-3],[-1,0],[0,-2],[-1,0],[0,-1],[-1,0],[0,-1],[-3,0],[0,2],[-1,0],[0,-1],[-2,0],[0,1],[-1,-1],[0,1],[-1,0],[0,-1],[-1,0],[0,-1],[-1,0],[0,-1],[-1,0],[0,0],[-1,0],[0,1],[-1,0],[0,1],[-1,0],[0,1],[1,0],[0,2],[1,0],[0,3],[1,0],[0,7],[1,0],[0,3],[1,0],[0,3],[-1,0],[0,2],[-1,0],[0,2],[-1,0],[0,6],[-1,0],[0,10],[1,0],[0,2],[1,0],[0,1],[1,1],[0,2],[1,0],[0,3]],[[96,356],[0,0]],[[92,362],[0,0]],[[92,363],[0,0]],[[89,368],[0,0]],[[85,370],[0,0]],[[85,371],[0,0]],[[78,374],[0,0]],[[996,7],[1,0],[0,-1],[1,0],[0,-2],[1,0],[0,-3],[-1,-1],[-2,0],[0,1],[-1,0],[0,1],[-1,0],[0,4],[1,0],[0,1],[1,0]],[[562,928],[0,-1]],[[561,927],[1,0]],[[562,927],[-1,-1],[1,0],[0,-2],[1,0],[0,-2],[1,0],[0,-1],[-1,0],[0,-1]],[[563,920],[-3,0],[0,1],[-2,0],[0,-1],[-1,0]],[[557,921],[0,-1]],[[557,920],[-1,0]],[[556,920],[0,-1]],[[556,919],[-1,0],[0,1],[-1,0]],[[554,921],[0,-1]],[[554,920],[-1,0],[0,1],[-1,0]],[[552,922],[0,-1]],[[552,921],[-1,0]],[[551,921],[1,1]],[[552,922],[-1,0]],[[586,917],[0,-2],[1,0],[0,-2],[2,0],[0,-2],[0,0],[0,-1]],[[589,910],[-2,0],[0,-1],[-1,0],[0,-2],[-1,0],[0,1],[-2,0],[0,-1],[-1,0],[0,1],[-1,0],[0,-1],[-1,0],[0,-2],[-1,0],[0,-1]],[[580,904],[-1,0]],[[579,904],[-1,0]],[[579,911],[0,1],[1,0],[0,1],[4,0],[0,1],[-1,0],[0,1],[-1,0],[0,1],[1,0],[0,1]],[[583,917],[1,-1],[1,0],[0,1],[1,0]],[[589,894],[-1,0]],[[587,899],[-1,0]],[[586,899],[0,1],[2,0],[0,1],[-1,0],[0,2],[-1,0],[0,1],[1,0],[0,2],[1,0]],[[588,906],[1,0],[0,-2],[2,0],[0,-1],[3,0],[0,1],[1,0],[0,-3],[-1,0],[0,-1],[-1,0],[0,-2],[-1,0],[0,-1],[-1,0],[0,0],[-1,0],[0,-2],[-1,0]],[[589,895],[0,0]],[[589,895],[0,-1]],[[910,119],[1,0],[0,-1],[-1,0]],[[910,119],[0,0]],[[910,118],[0,0]],[[910,119],[0,-1]],[[910,118],[0,-2],[-1,0],[0,3],[-1,0],[0,1],[1,0],[0,0],[1,-1]],[[910,117],[0,0]],[[910,116],[0,0]],[[909,117],[0,0]],[[909,120],[0,0]],[[908,120],[0,0]],[[578,890],[-3,0],[0,2],[-3,0],[0,1],[-1,0]],[[571,893],[0,0]],[[571,892],[-2,0],[0,1],[0,0],[0,1],[-3,0]],[[577,890],[0,0]],[[575,890],[0,0]],[[575,891],[0,0]],[[571,892],[0,1]],[[575,935],[0,-1],[1,0],[0,-2],[1,0],[0,1],[1,0]],[[578,934],[0,-1]],[[578,933],[0,-1],[1,1]],[[579,932],[0,1]],[[579,933],[1,0],[0,1],[1,0],[0,1]],[[581,935],[0,-1],[1,0],[0,-1],[0,0],[0,-1],[-2,0],[1,-1]],[[581,931],[-1,0],[0,-1],[-1,0],[0,-2]],[[579,928],[0,-1]],[[579,927],[0,-2],[-1,0],[0,-1],[-1,-1]],[[577,923],[0,1]],[[577,924],[0,1],[-1,0],[0,2],[-1,0],[0,-1],[-2,0]],[[573,926],[-1,0],[0,1],[-1,0],[0,1],[-1,0],[0,3]],[[571,931],[-1,0]],[[570,931],[0,1]],[[570,932],[1,0],[0,4],[3,0],[0,-1],[1,0]],[[586,898],[1,0],[0,-2],[1,0],[0,-2]],[[588,894],[0,-1],[-1,0],[0,-1],[-1,0],[0,-1],[0,0],[0,-1],[-2,0],[0,-1],[-2,0],[0,-1],[0,0],[0,1],[-2,0],[0,-1],[-1,0]],[[579,889],[-1,0],[0,1]],[[578,890],[0,0]],[[578,890],[0,1]],[[579,891],[-1,0]],[[578,891],[0,2]],[[579,893],[-1,0]],[[578,893],[0,4]],[[579,897],[1,0]],[[580,898],[0,-1]],[[580,897],[1,0],[0,1],[1,0],[0,1],[1,0],[0,-1],[1,0],[1,1]],[[585,898],[0,1]],[[585,899],[1,0]],[[586,899],[0,-1]],[[586,890],[0,0]],[[585,888],[0,0]],[[584,888],[0,0]],[[583,888],[0,-1],[-1,0],[0,1],[1,0]],[[582,888],[0,0]],[[579,888],[0,1]],[[579,889],[0,0]],[[563,912],[0,1],[1,0]],[[564,912],[0,1]],[[564,913],[1,0],[0,1],[1,0],[0,1],[1,0],[0,2],[1,0],[0,1]],[[568,918],[1,0],[0,2],[1,0]],[[570,920],[0,-1],[1,0]],[[576,903],[0,-1],[1,0],[0,-1]],[[576,901],[1,0]],[[577,901],[0,-2],[1,0],[0,-1],[1,0]],[[579,898],[0,-1]],[[579,897],[-1,0]],[[578,897],[-3,0],[0,1],[-2,0],[0,1],[-1,0],[0,1],[-2,0]],[[569,905],[0,1]],[[609,872],[0,-4],[-1,0],[0,0],[0,0],[0,-3],[-1,0],[0,1],[-1,0],[0,1],[-2,0],[0,2],[1,0],[0,1],[-2,0],[0,1],[1,0],[0,2],[-1,-1],[0,1],[0,0],[0,1],[1,0],[0,1],[-1,0],[0,1],[-1,0],[0,1],[1,0],[0,1],[0,0],[0,1],[-1,0]],[[609,869],[0,0]],[[609,868],[0,0]],[[609,867],[0,0]],[[608,866],[0,0]],[[608,865],[0,0]],[[603,872],[0,0]],[[602,872],[0,0]],[[579,911],[0,-1],[-1,0],[-1,-1],[1,-1],[-2,0],[0,-2],[1,0],[0,-1],[1,0],[0,-1]],[[577,903],[1,0],[0,1]],[[578,904],[-1,0],[0,-1]],[[577,903],[-1,0]],[[576,903],[-1,0],[0,1],[-1,0],[-1,1]],[[573,905],[0,0]],[[573,905],[1,0],[0,1],[-1,0]],[[573,905],[0,1]],[[573,906],[-1,-1],[-1,0]],[[571,904],[0,1]],[[571,905],[-1,0],[0,1],[-1,0]],[[569,906],[0,1],[1,0],[0,5],[1,0],[0,7]],[[571,919],[1,1],[0,-1],[1,0]],[[573,918],[0,1]],[[573,919],[1,0],[0,-3]],[[573,916],[1,0]],[[574,916],[2,0],[0,-4],[1,0],[0,-1],[2,0]],[[571,905],[0,1],[1,0],[0,0],[1,0]],[[573,906],[0,1],[-2,0],[0,-2]],[[575,916],[0,0]],[[609,872],[0,-1],[-1,0],[0,3],[-1,0],[0,1],[-1,0],[0,2],[-1,0],[0,1],[-2,0],[0,1],[-1,0]],[[602,879],[0,0]],[[602,879],[1,0],[0,2],[1,0],[0,1],[1,0],[0,0],[1,1],[0,1],[2,0],[0,0],[1,0],[0,1],[-1,0],[1,1],[0,0],[0,2],[1,-1],[0,-13],[-1,0],[0,-2]],[[609,888],[0,0]],[[609,887],[0,0]],[[605,883],[0,0]],[[548,915],[0,-4]],[[549,911],[-1,0]],[[548,911],[0,-1],[1,0]],[[540,934],[2,0]],[[594,971],[0,-2],[-1,0],[0,1],[-1,0]],[[592,969],[0,1]],[[592,970],[-2,0],[0,1],[-1,0],[0,-2]],[[588,969],[1,0]],[[589,969],[0,-1],[1,0]],[[590,968],[0,0]],[[590,967],[0,1]],[[590,968],[1,0],[0,-1]],[[592,967],[-1,0]],[[591,967],[0,0]],[[591,967],[0,-1],[1,0],[-1,-1],[0,-1],[-1,0]],[[580,977],[0,-1],[1,0],[0,1],[4,0],[0,-1],[1,0],[0,-1],[0,0],[0,-2],[1,0],[0,-1],[1,0],[0,1],[1,0],[0,-1],[3,0],[0,1],[1,0],[0,-2],[1,0]],[[534,883],[0,1],[-1,0],[0,-1],[-1,0],[0,1],[-1,0],[0,-1],[-1,0],[0,1],[-1,0],[0,1],[-1,0]],[[537,931],[0,-2],[1,0],[0,-1],[-1,0],[0,-2],[-1,0],[0,-1]],[[529,928],[1,1],[0,1],[2,0]],[[590,963],[0,-2]],[[591,961],[-1,0]],[[590,961],[0,-3],[-1,0],[0,-2],[-1,0],[0,-2]],[[588,954],[-1,0]],[[587,954],[0,1],[-1,0],[0,1],[-1,0],[0,-1],[-1,0],[0,1],[-1,0],[0,-1],[-1,1]],[[582,955],[0,1]],[[582,956],[0,1],[-1,0],[0,-1],[-1,0]],[[547,903],[-1,0]],[[546,904],[0,-1]],[[546,903],[-2,0],[0,-1]],[[545,902],[-1,0]],[[544,902],[0,-1],[-1,0],[0,-1]],[[539,907],[1,0],[0,-1]],[[539,906],[1,0]],[[540,906],[0,0]],[[540,906],[0,-1],[1,0],[0,-1],[1,0],[0,1],[1,0]],[[543,904],[0,1]],[[543,905],[0,0]],[[543,905],[1,0],[1,1],[1,0]],[[531,945],[0,-1],[1,0],[0,-1],[1,0],[0,-1],[2,0],[0,1],[1,-1],[0,-1],[1,0],[0,-2]],[[537,939],[1,0]],[[538,939],[0,-2],[1,0],[0,-1],[1,0],[0,-2]],[[540,934],[-1,0],[0,-1],[-1,0],[-1,-1],[0,-1]],[[537,931],[-1,0],[0,-1],[-2,0]],[[534,931],[0,-1]],[[534,930],[-2,0]],[[532,930],[0,1],[-1,0],[0,2]],[[531,933],[0,0]],[[531,933],[1,0],[0,1],[-1,0],[0,-1]],[[531,933],[-1,0],[0,4]],[[531,937],[-1,0]],[[530,937],[0,0]],[[530,937],[0,2]],[[531,939],[-1,0]],[[530,939],[0,4]],[[530,943],[-1,-1],[0,1]],[[530,943],[-1,0]],[[556,940],[0,-1],[1,0]],[[557,938],[0,1]],[[557,939],[1,0],[0,-1],[1,0]],[[559,939],[0,-1]],[[559,938],[1,0],[0,1],[1,0]],[[561,939],[0,-2],[1,0],[0,-1],[1,0],[0,-1],[1,0],[0,-2],[-1,0]],[[563,933],[0,-1]],[[563,932],[-1,0],[0,-4]],[[562,928],[0,0]],[[562,928],[-1,0]],[[561,928],[0,1],[-2,0],[0,1],[-1,0]],[[558,929],[0,1]],[[558,930],[-3,0],[0,2],[-2,0],[0,-1],[-1,0]],[[549,935],[1,0],[0,1],[2,0],[0,2],[1,0],[0,1],[1,0],[1,1],[1,0]],[[524,933],[0,-2],[2,0],[0,-1],[2,0]],[[528,929],[0,1]],[[528,930],[1,0],[0,-2]],[[529,928],[0,-2],[-3,0],[0,-1],[1,0],[0,-2],[1,0],[0,-4],[1,0],[0,-1],[1,0]],[[524,920],[0,2],[-1,0],[0,1],[-1,0],[0,1],[-1,0],[-1,1],[0,1],[1,0],[0,-1],[0,0],[0,2],[0,0],[0,1],[1,0],[0,0],[-1,0],[0,3],[-1,0],[0,1],[1,0],[0,1]],[[526,931],[0,0]],[[521,928],[0,0]],[[521,929],[0,0]],[[521,926],[0,0]],[[520,929],[0,0]],[[520,926],[0,1],[-1,0],[0,2],[-1,0],[0,1],[1,-1],[1,0],[0,-3]],[[520,931],[0,0]],[[518,932],[1,0],[0,-1],[-1,0],[0,1]],[[518,932],[0,0]],[[513,943],[0,1],[-2,0],[0,1],[1,0],[0,1],[1,0],[0,1],[1,0],[0,-1],[0,0],[0,1],[-2,0],[0,-1],[-2,0],[0,0],[-1,0],[0,2],[1,0],[0,1]],[[514,947],[0,0]],[[509,947],[0,0]],[[508,948],[0,0]],[[557,890],[0,-1],[-1,0],[0,-4]],[[547,893],[2,0],[0,1],[1,0],[0,-1],[1,0]],[[551,894],[0,-1]],[[551,893],[1,0]],[[564,976],[0,3],[1,0],[0,1],[1,0],[0,3]],[[566,983],[0,1],[1,-1],[1,0],[0,1],[2,0],[0,2],[1,0],[0,-2],[-1,0],[0,-1],[1,0],[0,-2],[2,0],[0,-1],[2,0],[0,-1]],[[569,905],[0,-1],[1,0],[0,-2],[1,0],[0,-1],[-1,0],[0,-1]],[[570,900],[-1,0],[0,-3],[-1,0],[-1,-1]],[[568,896],[-1,0]],[[567,896],[0,-1],[-1,0],[0,-1]],[[566,894],[-1,0],[0,1]],[[564,907],[0,-1],[1,0],[0,-1],[1,0],[0,1],[1,0],[0,-1],[1,0]],[[568,906],[0,-1]],[[568,905],[1,0]],[[569,957],[-1,0],[0,-1],[-2,0]],[[566,955],[0,1]],[[566,956],[-1,0]],[[565,955],[0,1]],[[565,956],[-1,0]],[[564,955],[0,1]],[[564,956],[-1,0]],[[563,955],[0,1]],[[563,956],[-1,0],[1,1]],[[563,956],[0,1]],[[563,957],[-1,0],[0,2],[-1,0]],[[561,958],[0,1]],[[561,959],[-1,0],[1,1],[-1,0],[0,2],[-1,0]],[[559,961],[0,1]],[[559,962],[0,2],[1,1]],[[559,962],[0,0]],[[532,951],[0,-3],[-1,0],[0,-3]],[[531,945],[-1,0],[0,-1],[-1,0]],[[529,943],[0,1]],[[529,944],[-3,0],[0,-1],[-1,0]],[[524,943],[1,0]],[[525,943],[0,-1],[-1,0],[0,1]],[[524,943],[0,0]],[[524,943],[-1,0]],[[521,943],[0,1],[-1,0],[0,2],[-1,0],[0,1],[1,0],[0,1],[2,0],[0,2],[-1,0],[1,1],[-2,0],[0,2]],[[527,953],[-5,0]],[[522,954],[0,-1]],[[522,953],[-2,0]],[[521,963],[1,0]],[[522,964],[0,-1]],[[522,963],[1,0]],[[523,963],[1,0]],[[524,962],[0,1]],[[524,963],[3,0],[1,1]],[[528,963],[0,1]],[[528,964],[1,0],[0,-1],[1,0],[0,-1]],[[565,895],[-2,0],[0,-1],[-1,0],[0,-1],[-1,0],[-1,-1],[0,-1],[-1,0],[0,0],[-1,0],[-1,-1]],[[557,890],[0,1],[-2,0],[0,1],[-1,0]],[[554,893],[0,-1]],[[554,892],[0,-1],[-1,0],[0,1],[-1,0]],[[552,891],[0,1]],[[552,892],[0,1]],[[552,893],[0,1],[1,0],[0,1],[-1,0],[0,1]],[[552,897],[0,-1]],[[552,896],[1,0]],[[553,897],[0,-1]],[[553,896],[1,0],[0,1],[1,0]],[[558,900],[1,0]],[[559,899],[0,1]],[[559,900],[1,0]],[[560,899],[0,1]],[[560,900],[1,0],[0,1],[1,0],[0,-2],[1,0]],[[563,900],[0,-1]],[[563,899],[0,0]],[[563,899],[1,0],[0,-1],[1,0],[0,-2]],[[564,896],[1,0]],[[565,896],[0,-1]],[[513,951],[0,-1],[-1,0]],[[512,949],[0,1]],[[512,950],[-1,0],[0,-1],[-1,0]],[[510,949],[0,0]],[[510,949],[0,1],[-3,0]],[[507,950],[0,-1],[-1,1]],[[507,951],[1,0],[-1,1],[0,-1]],[[507,951],[-2,0]],[[505,951],[0,1],[0,0],[0,-1]],[[505,951],[0,0]],[[505,951],[1,-1]],[[506,950],[-1,0]],[[505,951],[-1,0],[0,0],[-1,0],[0,1]],[[504,953],[0,0]],[[503,952],[-1,0],[0,1],[1,0],[0,0],[-1,0],[0,-1],[-1,0],[0,1]],[[509,950],[0,0]],[[508,950],[0,0]],[[508,949],[0,0]],[[507,950],[0,1]],[[507,951],[0,0]],[[507,950],[0,0]],[[507,950],[-1,0]],[[506,947],[0,0]],[[506,950],[0,0]],[[506,951],[0,0]],[[505,950],[0,0]],[[505,950],[0,1]],[[505,948],[0,0]],[[503,948],[1,0],[0,-1],[0,0],[0,0],[-1,0],[0,1]],[[504,949],[0,0]],[[504,952],[0,1]],[[504,952],[0,0]],[[503,952],[1,0]],[[502,952],[0,0]],[[501,952],[1,-1],[-1,0],[0,1]],[[537,959],[1,0],[0,-1]],[[538,958],[-1,0]],[[537,958],[0,-4],[-1,0],[0,-1],[-1,0],[0,-1]],[[535,952],[-1,0],[0,-1]],[[533,951],[1,0]],[[534,951],[-1,-1],[0,1]],[[533,951],[-1,0]],[[532,951],[-2,0],[0,1],[-1,0]],[[529,951],[0,1]],[[529,952],[0,0]],[[529,952],[0,1],[-1,0]],[[528,953],[0,0]],[[528,953],[-1,0]],[[527,952],[0,1]],[[527,953],[0,1]],[[526,954],[1,0]],[[527,954],[0,2],[1,0],[0,1]],[[527,957],[1,0]],[[528,957],[0,2],[1,0],[0,3],[1,0]],[[530,962],[1,0],[1,1]],[[531,963],[1,0]],[[532,963],[1,0],[0,-2],[1,0],[0,-1],[2,0],[0,-1],[1,0]],[[563,912],[0,-3],[1,0],[0,-1]],[[564,908],[0,-1]],[[564,907],[-1,0],[0,-2]],[[564,905],[-1,0]],[[563,905],[0,-1]],[[564,904],[-1,0]],[[563,904],[0,-1],[-1,0],[-1,1],[0,-1],[-2,0],[0,1]],[[555,911],[1,0],[0,3],[1,0]],[[557,913],[0,1]],[[557,914],[1,0],[0,1]],[[558,915],[1,0]],[[559,915],[0,-3],[1,0],[0,1],[2,0],[0,-1],[1,0]],[[564,976],[1,0],[0,-1],[1,1],[0,-1],[1,0],[0,-1],[2,0]],[[569,973],[0,1]],[[569,974],[2,0]],[[571,973],[0,1]],[[571,974],[1,0]],[[569,964],[-2,0],[0,1]],[[566,965],[1,0]],[[567,965],[0,1],[-3,0],[0,-1],[-1,0],[0,-1],[-3,0],[0,1]],[[560,965],[0,0]],[[560,965],[-1,0],[0,3]],[[559,968],[1,0]],[[560,968],[0,2],[1,0],[0,1]],[[560,971],[1,0]],[[561,971],[0,1]],[[560,972],[1,0]],[[561,972],[1,0],[0,1],[-1,0],[0,2],[2,0]],[[562,976],[1,0],[0,-1]],[[563,975],[1,0],[0,1]],[[556,885],[0,-4],[1,0],[-1,-1],[-2,0],[0,-1],[-1,0],[0,-1],[-1,0],[0,0],[-1,0],[0,1],[-1,0],[0,1],[-1,0],[0,-1],[-1,1],[0,-1],[-1,0],[0,1],[-2,0],[0,2]],[[548,883],[2,0],[0,2],[3,0],[0,1],[2,0],[1,-1]],[[547,880],[0,0]],[[542,915],[0,-3],[-1,0],[0,-1],[-1,0],[0,-1],[-1,-1]],[[530,916],[0,2]],[[530,918],[2,0],[0,3],[1,0],[0,1],[1,0],[0,1]],[[534,923],[0,0]],[[535,923],[-1,0]],[[534,923],[0,1],[1,0],[0,1]],[[535,925],[1,0]],[[536,925],[1,-1]],[[537,923],[0,1]],[[537,924],[1,0],[0,-1],[1,0]],[[539,924],[0,-1]],[[539,922],[0,1]],[[539,923],[1,0],[0,-2],[1,0]],[[521,943],[2,0]],[[523,943],[0,0]],[[523,943],[0,-1]],[[523,942],[0,-1],[1,0],[0,-2],[1,0],[0,-1]],[[524,938],[1,0]],[[525,938],[0,-4]],[[525,934],[0,0]],[[526,934],[-1,0]],[[525,934],[0,-1],[-1,0]],[[524,933],[-1,0]],[[523,933],[1,1],[-1,0],[0,-1]],[[523,933],[0,0]],[[523,933],[-1,0],[0,1],[-1,0],[0,-1]],[[521,933],[-2,0],[0,1],[-2,0],[0,1],[-2,0],[0,2],[-1,0],[0,2],[-1,0],[0,1],[-1,0],[0,1],[1,1],[0,1]],[[513,943],[1,0],[0,-1],[2,0],[0,-1],[1,0]],[[518,941],[-1,0]],[[517,941],[0,2],[1,0],[0,-1],[1,0],[0,2],[1,0],[0,-1],[1,0]],[[523,942],[0,0]],[[522,943],[0,0]],[[519,943],[0,0]],[[512,943],[-1,0],[0,-1],[1,0],[0,0],[-1,0],[0,1],[1,0]],[[511,939],[0,-1],[-1,0],[0,1],[1,0]],[[545,891],[0,-1],[1,0],[0,-1],[1,0],[0,-2]],[[546,887],[1,0]],[[547,887],[0,-1],[-1,-1],[0,-1],[2,0],[0,-1]],[[548,883],[-1,0],[0,-1],[-2,0]],[[545,882],[-2,0],[0,0],[-1,0],[0,2],[-2,0],[0,0],[-1,0],[0,1],[-2,0]],[[575,962],[1,0]],[[576,962],[0,-1],[1,0],[0,-1],[1,0],[0,-2]],[[578,958],[-1,0],[1,-1]],[[578,958],[0,-1]],[[578,957],[1,0],[0,-1],[1,0]],[[580,956],[0,-1]],[[580,955],[-1,0],[0,-1],[-1,0],[0,-2],[-2,0],[0,-1]],[[576,951],[-1,0]],[[575,951],[-1,0],[0,1],[-2,0],[0,1]],[[571,953],[1,0]],[[572,953],[0,2],[-1,0],[0,1],[-1,0],[0,1]],[[570,957],[0,0]],[[570,957],[-1,0]],[[569,957],[0,1],[2,0],[0,3],[-1,0],[0,1],[-1,0],[0,2]],[[569,964],[1,0]],[[571,964],[-1,0]],[[570,964],[0,1]],[[571,965],[-1,0]],[[570,965],[0,1],[2,0]],[[524,920],[1,0],[0,-1],[2,0],[0,-2],[1,0],[0,-1],[1,0],[0,1],[1,0],[0,-1]],[[530,916],[0,1],[1,0],[0,-2],[-1,0],[0,-2],[2,0]],[[533,913],[-1,0]],[[532,913],[0,-1]],[[520,908],[0,2],[2,0],[0,1],[-1,0],[0,1],[-1,0],[0,9],[1,0],[0,1],[1,0],[0,-1],[1,0],[0,-1],[1,-1],[0,-1]],[[524,917],[0,-1],[1,0],[0,2],[-1,0]],[[524,918],[0,2]],[[524,917],[0,1]],[[524,917],[0,0]],[[524,918],[0,0]],[[522,910],[0,0]],[[521,923],[0,0]],[[520,911],[0,0]],[[520,909],[0,0]],[[517,895],[1,0],[0,4],[1,0],[0,7],[1,0],[0,2]],[[520,908],[1,0]],[[521,909],[0,-1]],[[521,908],[1,0],[0,-1],[2,0]],[[525,907],[-1,0]],[[524,907],[1,1],[0,-1]],[[525,907],[0,-1],[2,0],[0,-2],[1,0],[0,1],[1,0]],[[513,964],[1,0]],[[514,964],[0,-1],[0,0],[0,1]],[[511,958],[-1,0],[0,1],[-1,0],[0,-2],[-1,0],[0,1],[-2,0],[0,1],[-3,0]],[[503,958],[0,1]],[[503,959],[-1,0],[0,-1],[-1,0],[0,1]],[[500,966],[1,0],[0,1],[0,0],[0,1],[0,0],[0,-1],[1,0],[0,1]],[[504,968],[1,0],[0,-1],[1,0],[0,-1],[0,0],[1,-1],[0,0],[0,-1],[1,-1],[0,1],[1,0],[0,1],[1,0],[0,1],[1,0],[0,-1],[1,0]],[[505,967],[0,0]],[[505,968],[0,0]],[[504,968],[0,0]],[[504,968],[-1,0]],[[503,968],[0,0]],[[503,968],[-1,0]],[[502,968],[0,0]],[[501,969],[0,0]],[[501,968],[0,0]],[[500,968],[0,0]],[[500,967],[0,0]],[[555,910],[1,0],[0,-2],[1,0],[0,-1],[-1,0],[0,-1],[1,0],[0,-1]],[[556,905],[1,0]],[[557,905],[0,-1],[1,0]],[[559,904],[-1,0]],[[558,904],[0,-2],[1,0],[0,-1],[-1,0],[0,-1]],[[558,900],[-1,0],[0,-1]],[[558,899],[-1,0]],[[557,899],[-1,0],[0,-2],[-1,0]],[[555,897],[0,1],[-3,0],[0,2],[-1,0],[0,2],[-1,0],[0,1],[-1,0],[0,1],[-2,0]],[[547,903],[0,1]],[[547,904],[-1,0]],[[546,904],[0,1]],[[547,905],[-1,0]],[[546,905],[0,1]],[[546,906],[0,2],[1,0],[0,1],[2,0],[0,1]],[[549,910],[1,0]],[[550,911],[0,-1]],[[550,910],[1,0],[0,1],[1,0],[0,2],[1,0]],[[553,913],[0,1],[1,0],[-1,-1]],[[553,913],[1,0],[0,-1],[1,0],[0,-1]],[[555,911],[0,-1]],[[533,912],[0,-2],[1,0],[0,1],[1,0]],[[535,910],[0,1]],[[535,911],[2,0],[0,-1],[2,0],[0,-1]],[[538,909],[1,0]],[[539,909],[0,-2]],[[539,907],[0,-1]],[[539,906],[-1,0]],[[538,907],[0,-1]],[[538,906],[0,-2]],[[537,904],[1,0]],[[538,904],[0,-1],[-2,0],[0,-1]],[[531,901],[0,2],[-2,0],[0,1]],[[529,904],[0,1]],[[529,905],[1,0],[0,1]],[[529,906],[1,0]],[[530,906],[0,3],[1,0],[0,1]],[[531,910],[0,0]],[[531,910],[1,0],[0,1]],[[532,911],[0,0]],[[532,911],[-1,-1]],[[531,910],[0,1],[1,0]],[[532,911],[0,1]],[[532,912],[1,0]],[[580,977],[0,-3],[1,0]],[[581,975],[0,-1]],[[581,974],[0,-1]],[[580,973],[1,0]],[[581,973],[0,-1],[-1,0],[0,-1],[1,0],[0,-1],[1,0],[0,-1],[1,0],[0,-1]],[[584,968],[-1,0]],[[583,968],[1,-1],[2,0],[0,-1],[1,0],[0,-1],[2,0],[0,-1],[1,0]],[[590,964],[0,0]],[[590,964],[0,-1]],[[590,963],[-1,0],[-1,-1],[-2,0],[0,1],[-1,0],[0,-1],[-3,0],[0,-1],[-1,0]],[[581,962],[0,-1]],[[581,961],[-1,0],[0,1]],[[579,962],[1,0]],[[580,962],[0,1],[-1,0]],[[576,977],[1,0],[0,1],[2,0],[0,-1],[1,0]],[[581,962],[0,0]],[[581,970],[0,0]],[[501,961],[-1,0]],[[500,961],[0,-1]],[[501,960],[-1,0]],[[500,960],[0,-1]],[[501,959],[-1,0]],[[500,959],[-1,0],[0,-2],[1,0],[0,-1],[2,0],[0,-1],[-1,0],[0,-1]],[[500,954],[1,0]],[[501,954],[0,-1]],[[501,953],[-2,0],[0,1],[1,0]],[[500,954],[-3,0],[0,0],[-1,0],[0,1],[0,0],[0,0],[0,0],[-1,-1],[0,0],[-1,0],[0,1],[-1,0],[0,1],[-1,0],[0,1],[0,0],[0,0],[0,0],[0,1],[2,0],[0,1],[-1,0]],[[493,959],[0,0]],[[493,960],[-1,0],[0,0],[0,0],[0,0],[1,0]],[[493,960],[1,0],[0,0],[2,0],[0,0],[-1,0],[0,1],[-2,0],[0,1],[1,0],[0,0],[-2,0],[0,-1],[-2,0],[0,2],[0,0],[0,1],[2,0],[0,0],[1,0],[-1,1],[1,0],[0,1],[1,0],[0,-1],[1,0],[0,1],[2,0],[0,0],[0,0],[0,-1],[1,0],[0,1],[2,0]],[[500,966],[-1,0],[0,-1],[1,0],[0,-4]],[[502,955],[0,0]],[[497,966],[0,0]],[[497,967],[0,0]],[[497,952],[0,0]],[[497,953],[0,0]],[[496,953],[0,0]],[[496,966],[0,0]],[[494,961],[0,0]],[[494,958],[0,0]],[[493,959],[0,1]],[[492,961],[0,0]],[[492,965],[0,0]],[[491,965],[0,0]],[[490,964],[0,0]],[[490,963],[0,0]],[[490,961],[0,0]],[[489,961],[0,0]],[[489,957],[0,0]],[[489,962],[0,0]],[[488,962],[0,0]],[[488,963],[-1,-1],[0,1],[1,0]],[[487,963],[0,0]],[[547,894],[0,-1]],[[547,893],[-1,0]],[[546,894],[0,-1]],[[546,893],[0,0]],[[546,893],[-1,0],[0,-2]],[[545,891],[-1,0]],[[544,891],[-1,0]],[[543,892],[0,-1]],[[543,891],[0,-1],[-1,0]],[[542,891],[0,1],[-1,0],[0,-1],[1,0]],[[542,891],[0,-1]],[[542,890],[-1,0]],[[541,890],[0,0]],[[541,890],[0,-1],[-1,0]],[[540,889],[0,0]],[[540,889],[-1,0]],[[539,890],[0,-1]],[[539,889],[0,-1]],[[539,888],[-1,1],[0,-1],[1,0]],[[539,888],[0,0]],[[539,888],[0,-1],[-1,0],[0,-1],[-1,1],[0,-2]],[[537,885],[-1,0],[0,-2],[-2,0]],[[534,883],[0,3],[1,0],[0,1]],[[536,887],[-1,0]],[[535,887],[0,2],[-1,0],[0,1],[1,0],[0,2]],[[539,898],[0,1]],[[539,899],[0,0]],[[539,899],[1,-1]],[[540,898],[0,0]],[[540,898],[1,0],[0,1],[1,0],[0,1],[1,0]],[[543,900],[0,0]],[[543,900],[0,-1],[1,0],[0,-1],[1,-1]],[[544,897],[1,0]],[[545,897],[-1,-1],[1,0]],[[545,895],[0,1]],[[545,896],[1,0],[0,-2]],[[546,894],[1,0]],[[547,895],[0,-1]],[[529,895],[1,0],[0,-2]],[[530,893],[0,0]],[[530,892],[0,-2],[-1,0],[0,-2],[-1,0],[0,-2]],[[527,886],[1,0]],[[528,886],[0,-1]],[[528,885],[-2,0],[0,-1],[-1,0],[0,2],[-1,0],[0,1],[-3,0],[0,1],[-2,0],[0,1],[0,0],[0,-1],[-1,0],[0,2],[1,0],[0,1],[-1,0],[0,1],[-1,0],[0,0],[-2,0],[0,1],[2,0],[0,2]],[[517,895],[1,0],[0,-1],[1,0],[1,1]],[[521,895],[-1,0]],[[520,895],[0,-1],[1,0],[0,1]],[[521,895],[1,0]],[[522,894],[0,1]],[[522,895],[4,0]],[[526,895],[0,1],[1,0],[0,-1]],[[526,895],[1,0]],[[527,895],[1,0],[0,1]],[[530,893],[-1,0],[0,-1],[1,0]],[[530,892],[0,1]],[[530,891],[-1,0],[0,0],[1,0]],[[551,925],[0,-3]],[[551,922],[0,-1]],[[551,920],[0,1]],[[551,921],[-1,0],[0,-2],[-1,0],[0,-2],[-1,-1]],[[549,916],[-1,0]],[[548,916],[0,-1]],[[548,915],[-1,0]],[[547,914],[0,1]],[[547,915],[-1,0],[0,-1],[-1,0],[0,1],[-1,0],[0,1],[-1,0],[0,-1],[-1,0]],[[542,915],[0,2],[-1,0],[0,4]],[[541,921],[0,0]],[[541,921],[0,1],[1,0],[0,1],[2,0],[0,1],[2,0],[0,1]],[[576,977],[0,-1]],[[576,975],[0,1]],[[576,976],[2,0],[0,-2]],[[578,974],[1,1],[0,-1],[-1,0]],[[578,974],[0,-1],[1,0],[-1,-1],[1,0],[0,-3]],[[578,969],[1,0]],[[579,969],[0,-2],[-1,0],[0,-1]],[[579,966],[-1,0]],[[578,966],[0,-1]],[[579,965],[-1,0]],[[578,965],[0,-1],[1,0],[0,-1]],[[579,963],[-2,0],[0,-1],[-1,0]],[[576,962],[0,0]],[[576,962],[0,1],[-1,0],[0,1],[-1,-1],[0,1],[-1,0],[0,1],[-1,0],[0,1]],[[572,966],[0,1],[-1,0],[0,1],[1,0],[0,1]],[[571,969],[1,0]],[[572,969],[0,1]],[[573,970],[-1,0]],[[572,970],[0,0]],[[572,970],[0,3]],[[572,973],[0,1]],[[573,974],[-1,0]],[[572,974],[1,1]],[[572,975],[1,0]],[[573,975],[0,3],[2,0],[0,1]],[[575,979],[1,0],[0,-2]],[[576,976],[0,0]],[[576,977],[0,0]],[[536,902],[1,0],[0,-2],[1,0],[0,-2]],[[538,898],[1,0]],[[539,898],[0,-2],[1,0],[0,-1],[-1,0],[0,-2],[-3,0],[0,-1]],[[536,892],[-1,0]],[[535,892],[-2,0],[0,1],[-2,0],[0,1]],[[532,894],[-1,0]],[[531,894],[0,1],[-1,0],[0,1],[-1,0]],[[529,895],[0,1]],[[529,896],[-1,0]],[[528,896],[0,1],[1,1],[-1,0],[0,1],[1,0],[0,1]],[[528,900],[1,0]],[[529,900],[0,0]],[[529,900],[0,1],[1,0],[0,-1],[1,0],[0,1]],[[531,901],[1,0]],[[532,902],[0,-1]],[[532,901],[1,0]],[[533,902],[0,-1]],[[533,901],[1,1],[2,0]],[[548,935],[1,0]],[[549,935],[0,-1],[1,0],[0,-1],[1,0],[0,-2],[1,0]],[[552,931],[0,-1]],[[552,930],[0,-3],[-2,0],[0,-1],[1,0],[0,-1]],[[551,925],[-1,0],[0,-1],[-1,0],[0,1],[-1,0],[-1,1],[0,-1],[-1,0]],[[546,925],[0,1],[-1,0],[0,1],[-1,0],[0,1],[-1,0],[0,3],[-1,0],[0,3]],[[542,934],[1,0]],[[543,935],[0,-1]],[[543,934],[1,0]],[[544,935],[0,-1]],[[544,934],[1,0],[0,1],[3,0]],[[544,927],[0,0]],[[517,965],[0,-1],[1,-1],[1,0],[1,1],[1,0]],[[521,964],[0,-1]],[[521,963],[0,-6],[1,0],[0,-1],[-2,0],[0,-2]],[[520,954],[0,-1]],[[520,953],[-1,0],[0,1],[-2,0],[0,-1],[-1,0],[0,-1],[-3,0]],[[513,951],[0,1]],[[513,952],[0,0]],[[513,952],[-1,0],[0,1],[1,0],[0,1]],[[512,954],[1,0]],[[513,954],[0,1]],[[512,955],[1,0]],[[513,955],[0,1],[-2,0],[0,1]],[[511,957],[1,0],[0,1],[-1,-1]],[[511,957],[0,1]],[[511,958],[0,0]],[[511,958],[0,1],[1,0],[0,1],[1,0],[0,1],[1,0]],[[514,960],[0,1]],[[514,961],[0,3]],[[514,964],[0,1],[-1,0],[0,1],[2,0],[0,-1],[2,0]],[[514,966],[0,0]],[[513,964],[-1,0],[0,1]],[[512,965],[1,0],[0,-1]],[[513,966],[0,0]],[[512,965],[0,0]]]}