{"type":"Topology","objects":{"data":{"geometries":[{"properties":{"index":1677,"nuts_1_code":"FRC","nuts_1_name":"Bourgogne-Franche-Comt\u00e9"},"type":"Polygon","arcs":[[-34,33,-33,-32,31,-31,-30,29,-29,-28,27,-27,-26,25,-25,-24,23,-23,22,-22,21,-21,-20,19,-19,-18,17,-17,0,-14,-13,12,-12,-11,10,-10,-9,8,-8,-7,6,-6,-5,4,-4,-3,2,-2,-276,274,-197]],"id":0},{"properties":{"index":1678,"nuts_1_code":"FRK","nuts_1_name":"Auvergne-Rh\u00f4ne-Alpes"},"type":"Polygon","arcs":[[1,-3,2,3,-5,4,5,-7,6,7,-9,8,9,-11,10,11,-13,12,13,14,-144,-143,142,-142,-141,139,-139,-138,137,-137,-136,135,-135,-211,-210,209,-209,-208,207,-207,-206,205,-205,203,-203,-202,201,-201,-200,199,-199,-111,-110,109,-109,-108,107,-107,-277],[-157,-158]],"id":1},{"properties":{"index":1679,"nuts_1_code":"FRF","nuts_1_name":"Grand Est"},"type":"MultiPolygon","arcs":[[[15,16,-18,17,18,-20,19,20,-22,21,22,-23,-24,23,24,-26,25,26,-28,27,28,-30,29,30,-32,31,32,-34,33,-196,-296,295,-295,-294,293,-293,-292,291,-291,-290,289,-289,34]],[[197,-198]]],"id":2},{"properties":{"index":1680,"nuts_1_code":"FRH","nuts_1_name":"Bretagne"},"type":"MultiPolygon","arcs":[[[-253,-252,-178,-177,176,-176,35,36,37,-61,57,38,58,39,41,40,42,43,66,-67,44,74,-75,72,45,-73,46,47,93,48,49,-78,76,-76,70,50]],[[51]],[[52]],[[53]],[[53]],[[54]],[[55]],[[55]],[[55]],[[56]],[[58,-59]],[[58,-59]],[[58,-59]],[[58,-59]],[[58,-59]],[[58,-59]],[[58,-59]],[[58,-59]],[[58,-59]],[[57,-58]],[[58,-59]],[[59,-60]],[[59,-60]],[[60,-61]],[[62,-63]],[[62]],[[62,-63]],[[62,-63]],[[63]],[[61]],[[62]],[[63]],[[62]],[[63]],[[67]],[[65]],[[67]],[[64,-65]],[[65]],[[68]],[[66,-67]],[[68]],[[68]],[[67]],[[68]],[[68]],[[69]],[[70,-71]],[[70,-71]],[[71]],[[71]],[[73,-74]],[[72,-73]],[[73,-74]],[[74,-75]],[[76,-77]],[[75,-76]],[[76,-77]],[[76,-77]],[[77,-78]],[[79,-80]],[[78]],[[78]],[[78]],[[79,-80]],[[80]],[[81]],[[81]],[[81]],[[82]],[[83]],[[84]],[[84]],[[84]],[[84]],[[84]],[[85]],[[88]],[[86]],[[87]],[[88]],[[88]],[[89]],[[90]],[[91]],[[92]],[[93,-94]],[[94]],[[95]],[[95]],[[95]],[[96]],[[96]],[[97]],[[97]],[[98]],[[99]],[[101]],[[100]],[[101]],[[102]],[[102]],[[102]],[[102]],[[102]],[[103]],[[103]],[[104]],[[105]]],"id":3},{"properties":{"index":1681,"nuts_1_code":"FRI","nuts_1_name":"Nouvelle-Aquitaine"},"type":"MultiPolygon","arcs":[[[-282,-281,280,-280,-279,278,-278,106,-108,107,108,-110,109,110,-235,-234,233,-233,-232,231,-231,-230,229,-229,-228,227,-227,-226,225,-225,-224,223,-223,221,-221,220,-220,218,236,-218,-217,216,-216,111,-115,112,113,-174,172,171,-171,-170,169,168,-168,-167,166,-166,164,-164,-163,162,-162,-161,160,-160],[-238,-237],[238]],[[115]],[[115]],[[114,-115]],[[115,-116]],[[116,-117]],[[178]],[[117]],[[118]],[[119]],[[119]],[[120]],[[121]],[[122]],[[123]],[[124]],[[125]],[[126]],[[125]],[[126]],[[126]],[[127]],[[128]]],"id":4},{"properties":{"index":1682,"nuts_1_code":"FRL","nuts_1_name":"Provence-Alpes-C\u00f4te d\u2019Azur"},"type":"MultiPolygon","arcs":[[[129,144,145,130,151,131,132,-159,133,-214,-213,212,-212,134,-136,135,136,-138,137,138,139,140,141,-143,142,143]],[[144,-145]],[[145,-146]],[[146]],[[147]],[[148]],[[148]],[[149]],[[150]],[[151,-152]],[[151,-152]],[[152,-153]],[[153]],[[154]],[[154]],[[154]],[[154]],[[154]],[[155]],[[156,157]],[[158,-159]]],"id":5},{"properties":{"index":1683,"nuts_1_code":"FRG","nuts_1_name":"Pays de la Loire"},"type":"MultiPolygon","arcs":[[[-244,243,-243,-286,-285,284,-284,-283,159,-161,160,161,-163,162,163,164,165,-167,166,167,168,-170,169,170,171,172,173,174,175,-177,176,177,251,-252,-251,-250,249,-249,-248,247,-247,-246,245,-245],[178]],[[179]],[[180]],[[181]],[[182]],[[183]]],"id":6},{"properties":{"index":1684,"nuts_1_code":"FRM","nuts_1_name":"Corse"},"type":"MultiPolygon","arcs":[[[184]],[[185]],[[186]],[[187]],[[187]],[[188]],[[189]],[[190]],[[191]],[[191]],[[191]],[[192]],[[193]],[[194]]],"id":7},{"properties":{"index":1685,"nuts_1_code":"FR1","nuts_1_name":"Ile-de-France"},"type":"Polygon","arcs":[[300,-300,-299,-298,297,-297,-296,295,195,196,-274,-273,272,-272,-271,-270,-269,-268,-267,266,-266,-265,264,-264,-242,-241,240,-240,-310,-309,308,-308,-307,306,-306,-305,304,-304,-303,302,-302,-301],[-198,197]],"id":8},{"properties":{"index":1686,"nuts_1_code":"FRJ","nuts_1_name":"Occitanie"},"type":"MultiPolygon","arcs":[[[198,-200,199,200,-202,201,202,203,204,-206,205,206,-208,207,208,-210,209,210,211,-213,212,213,214,215,-217,216,217,-237,218,219,221,-221,220,222,-224,223,224,-226,225,226,-228,227,228,-230,229,230,-232,231,232,-234,233,234],[235]],[[236,237]],[[238]]],"id":9},{"properties":{"index":1687,"nuts_1_code":"FRD","nuts_1_name":"Normandie"},"type":"MultiPolygon","arcs":[[[-315,314,-314,-313,312,-312,-311,-310,309,239,-241,240,241,-288,287,-287,242,-244,243,244,-246,245,246,-248,247,248,-250,249,250,251,-252,252,260,253,254,255,-260,256,-316]],[[257]],[[258,-259]],[[259,-260]],[[260,-261]],[[261]],[[262]]],"id":10},{"properties":{"index":1688,"nuts_1_code":"FRB","nuts_1_name":"Centre \u2014 Val de Loire"},"type":"Polygon","arcs":[[263,-265,264,265,-267,266,267,-269,-270,-271,270,271,-273,272,273,-275,275,276,277,-279,278,279,-281,280,281,282,-284,-285,284,285,286,-288,287]],"id":11},{"properties":{"index":1689,"nuts_1_code":"FRE","nuts_1_name":"Hauts-de-France"},"type":"MultiPolygon","arcs":[[[288,-290,289,290,-292,291,292,-294,293,294,295,296,-298,297,298,299,-301,300,301,-303,302,303,-305,304,305,-307,306,307,-309,308,309,310,311,-313,312,313,-315,314,315,316]],[[317]],[[318]],[[319]]],"id":12},{"properties":{"index":1713,"nuts_1_code":"FRY","nuts_1_name":"RUP FR \u2014 R\u00e9gions Ultrap\u00e9riph\u00e9riques Fran\u00e7aises"},"type":"MultiPolygon","arcs":[[[320]],[[-325,321]],[[322,-323]],[[322,-323]],[[322,-323]],[[323,-324]],[[324,325]],[[326]],[[327]],[[328]],[[329]],[[329]],[[329]],[[330]],[[331]],[[332]],[[333]],[[333]],[[334]],[[335]],[[335]],[[336]],[[337]],[[338]],[[-347,339,-343,340,341]],[[342,-343]],[[343,-344]],[[343,-344]],[[343,-344]],[[343,-344]],[[344]],[[345,-346]],[[346,-347]],[[347]],[[348]],[[349]],[[350]],[[-356,351,352,361,353]],[[354,355]],[[356]],[[357]],[[360]],[[358]],[[360]],[[359]],[[360]],[[361,-362]],[[362]],[[363,-364]],[[363,364,-364]],[[364,-365]],[[365]],[[365]],[[365]]],"id":13}],"type":"GeometryCollection"}},"bbox":[-63.151187618999984,-21.38890872199994,55.83576576500009,51.08938134751675],"transform":{"scale":[0.11910605944344352,0.07255084091042711],"translate":[-63.151187618999984,-21.38890872199994]},"arcs":[[[590,949],[-1,0],[0,0],[-1,0],[0,-1],[1,0],[0,-1],[-1,0],[1,-1],[-1,0],[0,-1],[-1,0],[0,-1],[-1,0],[0,-1],[0,0],[-1,-1],[-1,0],[0,-3],[-1,0],[0,-1],[-1,0],[0,-2],[-1,0],[0,-1]],[[556,940],[0,-1],[1,0]],[[557,938],[0,1]],[[557,939],[1,0],[0,-1],[1,0]],[[559,939],[0,-1]],[[559,938],[1,0],[0,1],[1,0],[0,-2],[1,0],[0,-1],[1,0],[0,-1],[1,0],[0,-2],[-1,0],[0,-1],[1,0],[0,-1],[1,1]],[[565,931],[0,1]],[[565,932],[1,0],[0,-1],[1,0],[0,2],[3,0],[0,-1]],[[570,931],[0,1]],[[570,932],[1,0],[0,4],[3,0],[0,-1],[1,0],[0,-1],[1,0],[0,-2],[1,0],[0,1],[1,0]],[[578,934],[0,-1]],[[578,933],[0,-1],[1,1]],[[579,932],[0,1]],[[579,933],[1,0],[0,1],[1,0],[0,1]],[[581,935],[0,-1],[1,0],[0,-1],[0,0],[0,-1],[-2,0],[1,-1],[1,0],[0,1],[1,0],[0,1],[0,0],[0,1],[1,0],[0,1],[3,0],[0,-2],[1,0],[0,-1],[-1,0],[0,-1],[1,0],[0,-1],[1,0],[0,-3],[-1,0],[0,0],[-1,0],[0,-2],[1,0],[0,-1],[1,0],[0,-2],[1,0],[0,-1],[0,0],[0,-3],[-1,0],[0,-1],[-3,0]],[[590,949],[0,0]],[[590,949],[0,2],[-1,0],[0,2],[-1,0],[0,1],[-1,0],[0,1],[-1,0],[0,1],[-1,0],[0,-1],[-1,0],[0,1],[-1,0],[0,-1],[-1,1]],[[582,955],[0,1]],[[582,956],[0,1],[-1,0],[0,-1],[-1,0],[0,-1],[-1,0],[0,-1],[-1,0],[0,-2],[-2,0],[0,-1],[-2,0],[0,1],[-2,0],[0,1]],[[571,953],[1,0]],[[572,953],[0,2],[-1,0],[0,1],[-1,0],[0,1],[-2,0],[0,-1],[-2,0]],[[566,955],[0,1]],[[566,956],[-1,0]],[[565,955],[0,1]],[[565,956],[-1,0]],[[564,955],[0,1]],[[564,956],[-1,0]],[[563,955],[0,1]],[[563,956],[-1,0],[1,1]],[[563,956],[0,1]],[[563,957],[-1,0],[0,2],[-1,0]],[[561,958],[0,1]],[[561,959],[-1,0],[1,1],[-1,0],[0,2],[-1,0]],[[559,961],[0,1]],[[566,983],[0,1],[1,-1],[1,0],[0,1],[2,0],[0,2],[1,0],[0,-2],[-1,0],[0,-1],[1,0],[0,-2],[2,0],[0,-1],[2,0],[0,-1],[1,0],[0,-2],[1,0],[0,1],[2,0],[0,-1],[1,0],[0,-1],[1,0],[0,1],[4,0],[0,-1],[1,0],[0,-1],[0,0],[0,-2],[1,0],[0,-1],[1,0],[0,1],[1,0],[0,-1],[3,0],[0,1],[1,0],[0,-2],[4,0],[1,-1],[1,0],[0,-1],[-1,-1],[0,-1],[-1,0],[0,-1],[-1,0],[0,-3],[-1,0],[0,-4],[-1,0],[0,-5],[-1,-1],[0,0],[0,-1],[1,0],[0,-2],[-1,0],[0,-1],[-2,0],[0,0],[-1,0]],[[510,949],[0,0]],[[510,949],[0,1],[-3,0]],[[507,950],[0,-1],[-1,1]],[[507,951],[1,0],[-1,1],[0,-1]],[[507,951],[-2,0]],[[505,951],[0,1],[0,0],[0,-1]],[[505,951],[0,0]],[[505,951],[1,-1]],[[506,950],[-1,0]],[[505,951],[-1,0],[0,0],[-1,0],[0,1]],[[504,953],[0,0]],[[503,952],[-1,0],[0,1],[1,0],[0,0],[-1,0],[0,-1],[-1,0],[0,2],[0,0],[0,-1],[-2,0],[0,1],[-2,0],[0,0],[-1,0],[0,1],[0,0],[0,0],[0,0],[-1,-1],[0,0],[-1,0],[0,1],[-1,0],[0,1],[-1,0],[0,1],[0,0],[0,0],[0,0],[0,1],[2,0],[0,1],[-1,0]],[[493,959],[0,0]],[[493,960],[-1,0],[0,0],[0,0],[0,0],[1,0]],[[493,960],[1,0],[0,0],[2,0],[0,0],[-1,0],[0,1],[-2,0],[0,1],[1,0],[0,0],[-2,0],[0,-1],[-2,0],[0,2],[0,0],[0,1],[2,0],[0,0],[1,0],[-1,1],[1,0],[0,1],[1,0],[0,-1],[1,0],[0,1],[2,0],[0,0],[0,0],[0,-1],[1,0],[0,1],[3,0],[0,1],[0,0],[0,1],[0,0],[0,-1],[1,0],[0,1]],[[504,968],[1,0],[0,-1],[1,0],[0,-1],[0,0],[1,-1],[0,0],[0,-1],[1,-1],[0,1],[1,0],[0,1],[1,0],[0,1],[1,0],[0,-1],[1,0],[0,0],[1,0],[0,-1],[1,0],[0,-1],[0,0],[0,2],[-1,0],[0,1],[2,0],[0,-1],[2,0]],[[514,966],[0,0]],[[513,966],[0,0]],[[512,965],[0,0]],[[509,950],[0,0]],[[508,950],[0,0]],[[508,949],[0,0]],[[507,950],[0,1]],[[507,951],[0,0]],[[507,950],[0,0]],[[507,950],[-1,0]],[[506,947],[0,0]],[[506,950],[0,0]],[[506,951],[0,0]],[[505,950],[0,0]],[[505,967],[0,0]],[[505,950],[0,1]],[[505,948],[0,0]],[[505,968],[0,0]],[[503,948],[1,0],[0,-1],[0,0],[0,0],[-1,0],[0,1]],[[504,968],[0,0]],[[504,949],[0,0]],[[504,952],[0,1]],[[504,952],[0,0]],[[503,952],[1,0]],[[504,968],[-1,0]],[[503,968],[0,0]],[[503,968],[-1,0]],[[502,952],[0,0]],[[502,968],[0,0]],[[501,952],[1,-1],[-1,0],[0,1]],[[501,969],[0,0]],[[501,968],[0,0]],[[500,968],[0,0]],[[500,967],[0,0]],[[497,966],[0,0]],[[497,967],[0,0]],[[497,952],[0,0]],[[497,953],[0,0]],[[496,953],[0,0]],[[496,966],[0,0]],[[494,961],[0,0]],[[494,958],[0,0]],[[493,959],[0,1]],[[492,961],[0,0]],[[492,965],[0,0]],[[491,965],[0,0]],[[490,964],[0,0]],[[490,963],[0,0]],[[490,961],[0,0]],[[489,961],[0,0]],[[489,957],[0,0]],[[489,962],[0,0]],[[488,962],[0,0]],[[488,963],[-1,-1],[0,1],[1,0]],[[487,963],[0,0]],[[549,935],[0,-1],[1,0],[0,-1],[1,0],[0,-2],[1,0],[0,-4],[-2,0],[0,-1],[1,0],[0,-5]],[[551,920],[0,1]],[[551,921],[-1,0],[0,-2],[-1,0],[0,-2],[-1,-1]],[[549,916],[-1,0]],[[548,916],[0,-1]],[[528,885],[-2,0],[0,-1],[-1,0],[0,2],[-1,0],[0,1],[-3,0],[0,1],[-2,0],[0,1],[0,0],[0,-1],[-1,0],[0,2],[1,0],[0,1],[-1,0],[0,1],[-1,0],[0,0],[-2,0],[0,1],[2,0],[0,2],[1,0],[0,4],[1,0],[0,7],[1,0],[0,4],[2,0],[0,1],[-1,0],[0,1],[-1,0],[0,9],[1,0],[0,1],[1,0],[0,-1],[1,0],[0,-1],[1,-1],[0,-1]],[[524,917],[0,-1],[1,0],[0,2],[-1,0]],[[524,918],[0,4],[-1,0],[0,1],[-1,0],[0,1],[-1,0],[-1,1],[0,1],[1,0],[0,-1],[0,0],[0,2],[0,0],[0,1],[1,0],[0,0],[-1,0],[0,3],[-1,0],[0,1],[1,0],[0,1]],[[524,917],[0,1]],[[524,917],[0,0]],[[524,918],[0,0]],[[522,910],[0,0]],[[521,928],[0,0]],[[521,929],[0,0]],[[521,926],[0,0]],[[521,923],[0,0]],[[520,929],[0,0]],[[520,911],[0,0]],[[520,926],[0,1],[-1,0],[0,2],[-1,0],[0,1],[1,-1],[1,0],[0,-3]],[[520,931],[0,0]],[[520,909],[0,0]],[[518,932],[1,0],[0,-1],[-1,0],[0,1]],[[518,932],[0,0]],[[586,917],[0,-2],[1,0],[0,-2],[2,0],[0,-2],[0,0],[0,-1],[-1,0],[0,-3],[0,0],[0,-1],[1,0],[0,-2],[2,0],[0,-1],[3,0],[0,1],[1,0],[0,-3],[-1,0],[0,-1],[-1,0],[0,-2],[-1,0],[0,-1],[-1,0],[0,0],[-1,0],[0,-2],[-1,0]],[[589,894],[-1,0],[0,-1],[-1,0],[0,-1],[-1,0],[0,-1],[0,0],[0,-1],[-2,0],[0,-1],[-2,0],[0,-1],[0,0],[0,1],[-2,0],[0,-1],[-1,0]],[[579,889],[-1,0],[0,1],[-3,0],[0,2],[-3,0],[0,1],[-1,0]],[[571,893],[0,0]],[[571,892],[-2,0],[0,1],[0,0],[0,1],[-3,0]],[[569,905],[0,1],[1,0],[0,-1],[1,0]],[[571,904],[0,1]],[[571,905],[1,0],[1,1]],[[573,905],[0,1]],[[573,906],[1,0],[0,-1],[-1,0]],[[573,905],[0,0]],[[573,905],[1,-1],[1,0],[0,-1],[2,0]],[[577,903],[0,1],[1,0]],[[577,903],[1,0],[0,1]],[[578,904],[0,1],[-1,0],[0,1],[-1,0],[0,2],[2,0],[-1,1],[1,1],[1,0],[0,2],[1,0],[0,1],[4,0],[0,1],[-1,0],[0,1],[-1,0],[0,1],[1,0],[0,1],[1,-1],[1,0],[0,1],[1,0]],[[589,895],[0,0]],[[589,895],[0,-1]],[[586,890],[0,0]],[[585,888],[0,0]],[[584,888],[0,0]],[[583,888],[0,-1],[-1,0],[0,1],[1,0]],[[582,888],[0,0]],[[579,888],[0,1]],[[579,889],[0,0]],[[577,890],[0,0]],[[575,890],[0,0]],[[575,891],[0,0]],[[573,906],[-1,0],[0,0],[-1,0],[0,-1]],[[571,905],[0,2],[2,0],[0,-1]],[[571,892],[0,1]],[[531,945],[-1,0],[0,-1],[-1,0]],[[529,943],[0,1]],[[529,944],[-3,0],[0,-1],[-1,0]],[[524,943],[1,0]],[[525,943],[0,-1],[-1,0],[0,1]],[[524,943],[0,0]],[[524,943],[-1,0],[0,-2],[1,0],[0,-2],[1,0],[0,-1]],[[524,938],[1,0]],[[525,938],[0,-4]],[[525,934],[0,0]],[[526,934],[-1,0]],[[525,934],[0,-1],[-2,0]],[[523,933],[1,1],[-1,0],[0,-1]],[[523,933],[0,0]],[[523,933],[-1,0],[0,1],[-1,0],[0,-1]],[[521,933],[-2,0],[0,1],[-2,0],[0,1],[-2,0],[0,2],[-1,0],[0,2],[-1,0],[0,1],[-1,0],[0,1],[1,1],[0,1],[0,0],[0,1],[-2,0],[0,1],[1,0],[0,1],[1,0],[0,1],[1,0],[0,-1],[0,0],[0,1],[-2,0],[0,-1],[-2,0],[0,0],[-1,0],[0,2],[1,0],[0,1]],[[510,949],[1,0],[0,1],[1,0]],[[512,949],[0,1]],[[512,950],[1,0],[0,2],[3,0],[0,1],[1,0],[0,1],[2,0],[0,-1],[1,0],[0,3],[2,0],[0,1],[-1,0],[0,6]],[[523,942],[0,0]],[[514,947],[0,0]],[[512,943],[-1,0],[0,-1],[1,0],[0,0],[-1,0],[0,1],[1,0]],[[511,939],[0,-1],[-1,0],[0,1],[1,0]],[[509,947],[0,0]],[[508,948],[0,0]],[[609,872],[0,-4],[-1,0],[0,0],[0,0],[0,-3],[-1,0],[0,1],[-1,0],[0,1],[-2,0],[0,2],[1,0],[0,1],[-2,0],[0,1],[1,0],[0,2],[-1,-1],[0,1],[0,0],[0,1],[1,0],[0,1],[-1,0],[0,1],[-1,0],[0,1],[1,0],[0,1],[0,0],[0,1],[-1,0],[0,0],[1,0],[0,2],[1,0],[0,1],[1,0],[0,0],[1,1],[0,1],[2,0],[0,0],[1,0],[0,1],[-1,0],[1,1],[0,0],[0,2],[1,-1],[0,-13],[-1,0],[0,-2]],[[609,888],[0,0]],[[609,869],[0,0]],[[609,868],[0,0]],[[609,867],[0,0]],[[609,887],[0,0]],[[608,866],[0,0]],[[608,865],[0,0]],[[605,883],[0,0]],[[603,872],[0,0]],[[602,872],[0,0]],[[559,968],[0,-3],[1,0],[-1,-1],[0,-2]],[[559,962],[-1,0],[0,-1],[-1,0],[0,1],[-1,-1],[0,-2],[-1,0]],[[559,962],[0,0]],[[548,915],[0,-4]],[[549,911],[-1,0]],[[548,911],[0,-1],[2,0]],[[550,911],[0,-1]],[[550,910],[1,0],[0,1],[1,0],[0,2],[1,0]],[[553,913],[0,1],[1,0],[-1,-1]],[[553,913],[1,0],[0,-1],[1,0],[0,-1]],[[555,910],[0,1]],[[555,911],[1,0],[0,3],[1,0]],[[557,913],[0,1]],[[557,914],[1,0],[0,1],[1,0],[0,-3],[1,0],[0,1],[2,0],[0,-1],[1,0],[0,-3],[1,0],[0,-3],[1,0],[0,-1],[1,0],[0,1],[1,0],[0,-1],[1,0]],[[568,906],[0,-1]],[[568,905],[1,0]],[[569,905],[0,-1],[1,0],[0,-2],[1,0],[0,-1],[-1,0],[0,-1],[-1,0],[0,-3],[-1,0],[-1,-1]],[[568,896],[-1,0]],[[567,896],[0,-1],[-1,0],[0,-1]],[[566,894],[-1,0],[0,1],[-2,0],[0,-1],[-1,0],[0,-1],[-1,0],[-1,-1],[0,-1],[-1,0],[0,0],[-1,0],[-1,-1],[0,-1],[-1,0],[0,-8],[1,0],[-1,-1],[-2,0],[0,-1],[-1,0],[0,-1],[-1,0],[0,0],[-1,0],[0,1],[-1,0],[0,1],[-1,0],[0,-1],[-1,1],[0,-1],[-1,0],[0,1],[-2,0],[0,2],[-2,0],[0,0],[-1,0],[0,2],[-2,0],[0,0],[-1,0],[0,1],[-3,0],[0,-2],[-2,0],[0,1],[-1,0],[0,-1],[-1,0],[0,1],[-1,0],[0,-1],[-1,0],[0,1],[-1,0],[0,1],[-1,0]],[[528,885],[0,1]],[[527,886],[1,0]],[[528,886],[0,2],[1,0],[0,2],[1,0],[0,2]],[[530,893],[0,0]],[[530,893],[0,2],[-1,0],[0,1],[-1,0],[0,1],[1,1],[-1,0],[0,1],[1,0],[0,1]],[[528,900],[1,0]],[[529,900],[0,0]],[[529,900],[0,1],[1,0],[0,-1],[1,0],[0,1],[1,0]],[[532,902],[0,-1]],[[532,901],[1,0]],[[533,902],[0,-1]],[[533,901],[1,1],[2,0],[0,1],[2,0],[0,1]],[[537,904],[1,0]],[[538,904],[0,2]],[[538,907],[0,-1]],[[538,906],[1,0],[0,3]],[[538,909],[1,0]],[[539,909],[1,1],[0,1],[1,0],[0,1],[1,0],[0,3],[1,0],[0,1],[1,0],[0,-1],[1,0],[0,-1],[1,0],[0,1],[1,0]],[[547,914],[0,1]],[[547,915],[1,0]],[[547,880],[0,0]],[[530,893],[0,-1]],[[530,892],[-1,0],[0,1],[1,0]],[[530,891],[-1,0],[0,0],[1,0]],[[544,973],[0,-2],[-2,0],[1,-1]],[[542,970],[1,0]],[[543,970],[0,-1]],[[537,959],[-1,0],[0,1],[-2,0],[0,1],[-1,0],[0,2],[-1,0]],[[531,963],[1,0]],[[532,963],[-1,-1],[-1,0],[0,1],[-1,0],[0,1],[-1,0]],[[528,963],[0,1]],[[528,964],[-1,-1],[-3,0]],[[524,962],[0,1]],[[524,963],[-2,0]],[[522,964],[0,-1]],[[522,963],[-1,0]],[[521,963],[0,1]],[[521,964],[-1,0],[-1,-1],[-1,0],[-1,1],[0,1]],[[518,965],[0,0]],[[518,965],[0,1],[0,0],[0,-1]],[[518,965],[0,1],[-1,0],[0,5],[1,-1],[0,1],[-1,0],[0,2],[-1,0],[0,2],[-1,0],[0,2],[-1,0],[0,1],[1,0],[0,1],[-1,0],[0,1],[2,0],[0,-1],[2,0],[0,1],[2,0],[0,-2]],[[519,978],[0,-1],[1,0],[0,-2],[1,0],[0,1],[2,0],[0,-1],[4,0],[0,-1],[3,0],[0,1],[1,0],[0,1],[3,0],[0,1],[1,0],[0,-1],[1,0],[0,0],[-1,0],[0,1],[-1,0],[0,-1],[-2,0],[-1,1],[0,2],[1,0],[0,1],[1,0],[0,1],[2,0],[0,1],[2,0],[1,1],[2,0],[0,1],[1,0],[0,1],[1,0]],[[531,977],[0,0]],[[520,978],[0,0]],[[519,978],[1,0]],[[517,965],[1,0]],[[517,969],[0,0]],[[515,968],[0,0]],[[543,969],[0,-1]],[[544,968],[-1,0]],[[543,968],[0,-1],[1,0],[0,-1]],[[543,966],[1,0]],[[544,966],[0,-1],[1,0],[-1,-1],[1,0],[0,-1],[1,0],[0,-1]],[[546,962],[0,0]],[[546,962],[1,1],[0,-1]],[[546,962],[1,0]],[[547,962],[0,-2],[1,0],[0,1],[3,0],[0,-3],[2,0],[0,1],[1,0]],[[554,958],[0,1]],[[554,959],[1,0]],[[555,959],[0,0]],[[555,959],[0,-1],[1,0],[0,-3],[-1,0],[1,-1],[0,-1],[-2,0],[0,-1],[1,0],[0,-2],[-1,0],[1,-1],[0,-1],[-1,0],[0,-1],[1,0],[0,-2],[1,0],[0,-5]],[[556,940],[-1,0],[-1,-1],[-1,0],[0,-1],[-1,0],[0,-2],[-2,0],[0,-1],[-1,0]],[[549,935],[-4,0],[0,-1],[-1,0]],[[544,935],[0,-1]],[[544,934],[-1,0]],[[543,935],[0,-1]],[[543,934],[-3,0],[0,2],[-1,0],[0,1],[-1,0],[0,2],[-1,0],[0,2],[-1,0],[0,1],[-1,1],[0,-1],[-2,0],[0,1],[-1,0],[0,1],[-1,0],[0,1]],[[531,945],[0,3],[1,0],[0,3],[1,0]],[[533,951],[0,-1],[1,1]],[[533,951],[1,0]],[[534,951],[0,1],[1,0],[0,1],[1,0],[0,1],[1,0],[0,4],[1,0],[0,1],[-1,0]],[[537,959],[0,2],[1,0],[0,3],[-1,0],[0,2],[2,0],[0,1],[3,0],[0,1],[1,1]],[[542,969],[1,0]],[[566,983],[0,-3],[-1,0],[0,-1],[-1,0],[0,-4],[-1,0]],[[562,976],[1,0],[0,-1]],[[563,975],[-2,0],[0,-2],[1,0],[0,-1],[-1,0]],[[560,972],[1,0]],[[561,972],[0,-1]],[[560,971],[1,0]],[[561,971],[0,-1],[-1,0],[0,-2]],[[560,968],[-1,0]],[[559,968],[0,1],[-1,0],[0,1],[-1,0],[0,2],[-1,0],[0,-1],[-2,0]],[[554,972],[0,-1]],[[554,971],[0,0]],[[554,971],[-1,0],[-1,1]],[[552,971],[0,1]],[[552,972],[-2,0],[0,1],[-1,0]],[[549,972],[0,1]],[[549,973],[-1,0]],[[548,972],[0,1]],[[548,973],[-2,0]],[[546,972],[0,1]],[[546,973],[-1,0]],[[545,974],[0,-1]],[[545,973],[-1,0]],[[544,973],[0,1],[1,0]],[[545,974],[0,4],[-1,0],[1,1]],[[544,979],[1,0]],[[545,979],[0,1]],[[544,980],[1,0]],[[545,980],[0,2],[-1,1],[-1,0],[0,1],[-1,0],[0,1]],[[542,985],[1,1],[0,1],[1,0],[0,1],[-1,0],[0,1],[0,0],[0,2],[1,0],[0,1],[-1,0],[0,2],[1,0],[0,1],[-1,1],[1,0],[0,1],[2,0],[0,1],[4,0],[1,1],[1,0],[0,-4],[1,0],[0,-1],[2,0],[1,1],[1,0],[0,-1],[1,0],[0,-1],[0,0],[0,-2],[3,0],[0,-3],[1,0],[0,1],[1,0],[0,0],[1,0],[0,-1],[2,0],[0,-1],[-1,0],[0,-2],[0,0],[0,-2],[1,0]],[[550,999],[0,0]],[[549,998],[0,0]],[[543,994],[0,0]],[[996,7],[1,0],[0,-1],[1,0],[0,-2],[1,0],[0,-3],[-1,-1],[-2,0],[0,1],[-1,0],[0,1],[-1,0],[0,4],[1,0],[0,1],[1,0]],[[910,119],[1,0],[0,-1],[-1,0]],[[910,119],[0,0]],[[910,118],[0,0]],[[910,119],[0,-1]],[[910,118],[0,-2],[-1,0],[0,3],[-1,0],[0,1],[1,0],[0,0],[1,-1]],[[910,117],[0,0]],[[910,116],[0,0]],[[909,117],[0,0]],[[909,120],[0,0]],[[908,120],[0,0]],[[77,374],[2,0],[0,-1],[1,-1],[1,0],[1,-1],[2,0],[1,-1],[1,0],[0,-1],[1,0],[0,-1],[1,-1],[0,-1],[1,0],[0,-1],[1,-1],[0,-1],[1,0],[0,-1],[1,0],[0,-1],[1,0],[0,-1],[1,0],[0,-1],[1,0],[0,-2],[1,0],[0,-4],[1,0],[0,-2],[-2,-2],[0,-2],[-1,0],[0,-2],[-1,-1],[0,-2],[-1,-1],[0,-1],[-1,0],[0,-4],[-1,0],[0,-4],[-1,0],[0,-3],[-1,0],[0,-2],[-1,0],[0,-1],[-1,0],[0,-1],[-3,0],[0,2],[-1,0],[0,-1],[-2,0],[0,1],[-1,-1],[0,1],[-1,0],[0,-1],[-1,0],[0,-1],[-1,0],[0,-1],[-1,0],[0,0],[-1,0],[0,1],[-1,0],[0,1],[-1,0],[0,1],[1,0],[0,2],[1,0],[0,3],[1,0],[0,7],[1,0],[0,3],[1,0],[0,3],[-1,0],[0,2],[-1,0],[0,2],[-1,0],[0,6],[-1,0],[0,10],[1,0],[0,2],[1,0],[0,1],[1,1],[0,2],[1,0],[0,3]],[[96,356],[0,0]],[[92,362],[0,0]],[[92,363],[0,0]],[[89,368],[0,0]],[[85,370],[0,0]],[[85,371],[0,0]],[[78,374],[0,0]],[[19,496],[0,-1],[1,0],[0,-1]],[[19,494],[0,0]],[[19,494],[-2,0],[0,1],[1,0],[0,1],[-1,0],[0,2],[-1,0],[0,2],[1,0],[0,-1],[1,0],[0,-1],[1,0],[0,-1]],[[19,494],[1,0]],[[19,496],[0,0]],[[19,493],[0,0]],[[19,497],[0,0]],[[19,496],[0,1]],[[17,520],[0,0],[0,0]],[[18,495],[0,0]],[[18,494],[0,0]],[[17,518],[0,0]],[[14,519],[-1,-1],[0,1]],[[13,519],[0,-4],[-1,0],[0,3],[-1,0],[0,2]],[[12,520],[1,0],[0,-1]],[[13,519],[1,1],[0,2],[1,0],[0,-2],[1,0],[0,-1],[-1,0],[0,-1],[-1,0],[0,1]],[[14,519],[-1,0]],[[16,514],[-1,0],[0,1],[1,0],[0,-1]],[[14,518],[0,0]],[[13,520],[0,0]],[[13,514],[0,0]],[[13,513],[0,0]],[[11,520],[1,0]],[[11,518],[0,0]],[[1,544],[0,1]],[[1,544],[0,0]],[[0,544],[0,0]]]}