{"type":"Topology","objects":{"data":{"geometries":[{"properties":{"index":1643,"nuts_1_code":"DEF","nuts_1_name":"Schleswig-Holstein"},"type":"MultiPolygon","arcs":[[[0]],[[1]],[[-8,2,-86,-85,-84,-167,-44,42,-50,-49,48,-48,-47,46,-46,3]],[[4]],[[5]],[[6]],[[7,8]],[[9]],[[-194,10]],[[11]],[[12]],[[13]],[[14]],[[15]],[[16]],[[17]],[[18]],[[19]],[[20]],[[21]],[[22]],[[23]],[[24]],[[25]],[[26]],[[27]],[[28]]],"id":0},{"properties":{"index":1644,"nuts_1_code":"DE2","nuts_1_name":"Bayern"},"type":"MultiPolygon","arcs":[[[-151,-150,149,-149,-148,147,-147,-146,145,-145,-144,143,-161,-160,159,-159,-59,57,-57,-38,-37,36,-36,-35,-34,-33,32,-32,-135,-134,133,-133,29],[30]],[[161]]],"id":1},{"properties":{"index":1645,"nuts_1_code":"DE3","nuts_1_name":"Berlin"},"type":"MultiPolygon","arcs":[[[39]],[[40]]],"id":2},{"properties":{"index":1646,"nuts_1_code":"DEG","nuts_1_name":"Th\u00fcringen"},"type":"Polygon","arcs":[[-227,226,-226,-225,-224,223,-223,-222,221,-221,-220,219,-219,-141,-140,139,-139,-138,-137,136,-136,31,-33,32,33,34,35,-37,36,37,-56,-176,-175,174,-174,-173,172,-172,-228],[232]],"id":3},{"properties":{"index":1648,"nuts_1_code":"DE4","nuts_1_name":"Brandenburg"},"type":"MultiPolygon","arcs":[[[38,-131,-130,-129,127,-127,-126,125,-125,-124,123,-123,141,-122,-215,-214,213,-213,-212,211,-211,-210,209,-209,-208,207,-207,-206,205,-230,-171,-83,-82,81,-81],[39],[40],[-143,-142]],[[230]],[[231]]],"id":4},{"properties":{"index":1649,"nuts_1_code":"DE5","nuts_1_name":"Bremen"},"type":"MultiPolygon","arcs":[[[189]],[[41,-188,-187,-186,185,-185,-184]]],"id":5},{"properties":{"index":1650,"nuts_1_code":"DE6","nuts_1_name":"Hamburg"},"type":"MultiPolygon","arcs":[[[42,43,-166,44,45,-47,46,47,-49,48,49]],[[50]],[[190]],[[51]],[[52]]],"id":6},{"properties":{"index":1653,"nuts_1_code":"DEA","nuts_1_name":"Nordrhein-Westfalen"},"type":"Polygon","arcs":[[-179,178,-178,-62,-61,60,-60,-74,-73,-72,-71,70,-70,68,-68,-67,66,-66,53,-182,-181,-180],[54]],"id":7},{"properties":{"index":1654,"nuts_1_code":"DE7","nuts_1_name":"Hessen"},"type":"MultiPolygon","arcs":[[[55,56,-58,58,-158,-157,156,-156,-155,-154,-63,59,-61,60,61,-177]],[[162]],[[163]]],"id":8},{"properties":{"index":1655,"nuts_1_code":"DEB","nuts_1_name":"Rheinland-Pfalz"},"type":"Polygon","arcs":[[62,-153,63,-78,-77,76,-76,64,65,-67,66,67,68,69,-71,70,71,72,73]],"id":9},{"properties":{"index":1658,"nuts_1_code":"DEC","nuts_1_name":"Saarland"},"type":"Polygon","arcs":[[74,75,-77,76,77]],"id":10},{"properties":{"index":1659,"nuts_1_code":"DE8","nuts_1_name":"Mecklenburg-Vorpommern"},"type":"MultiPolygon","arcs":[[[-100,78,-90,79,80,-82,81,82,-170,-169,168,-168,83,84,85,86,-113,87]],[[88]],[[89,90]],[[91]],[[92]],[[93]],[[94]],[[95]],[[96]],[[97]],[[98]],[[99,100]],[[101]],[[102]],[[103]],[[104]],[[105]],[[106]],[[107]],[[108]],[[109]],[[110]],[[111]],[[112,113]],[[114]],[[115]],[[116]],[[117]],[[118]],[[119]],[[120]]],"id":11},{"properties":{"index":1660,"nuts_1_code":"DED","nuts_1_name":"Sachsen"},"type":"MultiPolygon","arcs":[[[121,-142,122,-124,123,124,-126,125,126,127,128,129,130,131,132,-134,133,134,135,-137,136,137,138,-140,139,140,-218,-217,216,-216]],[[141,142]]],"id":12},{"properties":{"index":1661,"nuts_1_code":"DE1","nuts_1_name":"Baden-W\u00fcrttemberg"},"type":"MultiPolygon","arcs":[[[-144,143,144,-146,145,146,-148,147,148,-150,149,150,151,152,153,154,155,-157,156,157,158,-160,159,160],[161],[162],[163]],[[164]]],"id":13},{"properties":{"index":1662,"nuts_1_code":"DE9","nuts_1_name":"Niedersachsen"},"type":"MultiPolygon","arcs":[[[165,166,167,-169,168,169,170,-229,171,-173,172,173,-175,174,175,176,177,-179,178,179,180,181,182,183,184,-186,185,186,187,188],[189]],[[190]],[[191]],[[192]],[[193,-194]],[[194]],[[195]],[[196]],[[197]],[[198]],[[199]],[[200]],[[201]],[[202]],[[203]],[[204]]],"id":14},{"properties":{"index":1663,"nuts_1_code":"DEE","nuts_1_name":"Sachsen-Anhalt"},"type":"MultiPolygon","arcs":[[[-206,205,206,-208,207,208,-210,209,210,-212,211,212,-214,213,214,215,-217,216,217,218,-220,219,220,-222,221,222,-224,223,224,-226,-227,226,227,228,229],[230],[231]],[[232]]],"id":15}],"type":"GeometryCollection"}},"bbox":[5.867377523004748,47.27013771911675,15.040835113705157,55.057160469255976],"transform":{"scale":[0.00918264023093134,0.007794817567706936],"translate":[5.867377523004748,47.27013771911675]},"arcs":[[[588,923],[2,-3],[1,-1],[2,-4],[-2,0],[-4,1],[-6,0],[0,1],[-3,0],[0,-2],[-6,0],[-2,1],[-1,1],[1,1],[0,1],[-1,2],[-5,0],[-2,-1],[-2,0],[-1,1],[1,1],[0,3],[1,2],[2,3],[3,2],[10,-2],[2,0],[2,-1],[1,0],[3,-1],[2,-2],[0,-1],[2,-2]],[[580,916],[0,0]],[[454,948],[0,-1],[-1,-2],[1,-2],[-1,-1],[0,-8],[-3,-3],[0,-1],[-8,-4],[-5,-2],[-4,0],[0,-2],[2,-1],[6,0],[0,1],[2,1],[7,0],[0,1],[3,0],[11,2],[3,-2],[4,-2],[1,0],[-1,-1],[-1,0],[-2,-2],[3,-3],[0,-2],[-2,-1],[-1,0],[0,-1],[-2,-2],[0,-1],[1,-2],[-1,-2],[2,1],[1,2],[0,1],[1,1],[1,0],[0,2],[2,1],[0,1],[1,1],[0,1],[1,1],[7,0],[-1,1],[2,1],[6,0],[4,-1],[1,-1],[4,-2],[5,-2],[3,0],[2,-1],[1,0],[6,-2],[4,-2],[2,-2],[1,0],[1,-1],[1,0],[0,-1],[1,-1],[9,0],[3,1],[5,3],[2,2],[1,0],[6,3],[2,0],[1,1],[3,-1],[3,0],[-1,-1],[2,0],[6,1],[1,1],[1,0],[2,1],[0,-1],[1,1],[1,-1],[0,-1],[-1,-1],[-3,-2],[-4,0],[0,-1],[2,0],[0,-6],[1,-1],[0,-7],[1,-2],[0,-3],[-1,-1],[-2,0],[-2,-2],[-8,-4],[-2,0],[-1,-1],[0,-1],[-2,-1],[-3,-3],[-4,-2],[-1,1],[-4,0],[0,1],[-1,0],[-1,-1],[0,-1],[-2,-2],[-1,0],[-2,-2],[0,-2],[2,-3],[2,-2],[4,0],[2,-1],[1,1],[2,-1],[1,-1],[0,-3],[2,0]],[[421,808],[-7,0],[0,1],[-3,2],[-2,0],[-1,1],[-6,2],[-1,3],[-1,1],[0,1],[1,0],[0,-1],[1,-1],[-1,2],[0,3],[-3,4],[0,1],[-2,0],[-3,1],[-4,2],[0,1],[-1,1],[-2,4],[0,1],[-1,0],[0,2],[-1,1],[1,1],[-2,0],[-2,1],[-2,2],[-2,1],[-1,1],[-4,1],[-1,1],[-5,1],[-16,0],[-2,1],[-4,0],[-1,-1],[-5,1],[-6,4],[-1,0],[-2,3],[0,1],[-2,3],[-2,2],[-1,2],[-2,2],[6,2],[5,0],[1,-1],[3,0],[2,1],[0,2],[-1,0],[0,2],[-2,2],[-2,4],[-1,1],[-2,1],[-2,-1],[-1,0],[-2,-1],[-1,1],[-2,0],[-1,2],[-1,3],[-1,0],[0,1],[1,4],[2,1],[1,2],[-1,0],[0,3],[1,0],[0,1],[-1,3],[-1,1],[-3,-1],[-1,-1],[-1,0],[-1,1],[-2,1],[-1,0],[-2,-1],[-2,1],[0,-1],[-2,-1],[-1,0],[-3,1],[-2,2],[-2,1],[-1,1],[0,3],[5,0],[0,1],[2,0],[2,1],[1,0],[0,2],[-4,0],[-1,1],[0,1],[1,1],[2,1],[1,-1],[1,0],[5,1],[4,0],[2,1],[4,0],[2,-1],[2,0],[4,2],[2,2],[1,0],[3,3],[3,0],[2,2],[2,0],[-2,1],[0,3],[-2,1],[0,1],[-1,1],[-4,-2],[0,-1],[-1,-1],[0,-1],[-1,0],[0,-1],[-1,-1],[-3,-2],[-3,0],[-4,1],[-2,1],[1,1],[0,1],[-1,1],[1,1],[1,0],[2,1],[2,2],[1,0],[1,2],[0,1],[-1,0],[0,2],[2,4],[-1,2],[-2,0],[-2,2],[-1,2],[0,1],[-2,1],[-1,0],[-3,1],[-3,2],[0,2],[-1,2],[-2,1],[-3,0],[-1,1],[1,0],[1,1],[1,0],[-1,1],[0,1],[-1,1],[0,1],[1,1],[-2,2],[-3,0],[0,1],[-2,2],[-1,2],[-3,1],[1,2],[0,3],[-1,1],[2,1],[1,0],[1,1],[0,1],[5,0],[4,-2],[6,0],[2,1],[2,0],[1,1],[1,0],[2,-2],[1,0],[0,1],[9,0],[9,-3],[1,0],[1,-1],[11,0],[3,-1],[2,0],[2,-1],[3,-1],[1,0],[-1,-1],[0,-1],[1,-2],[0,-1],[4,0],[1,-1],[0,1],[4,0],[2,-1],[0,1],[3,2],[0,1],[1,1],[4,0],[0,-2],[2,-2],[-1,-1],[1,-1],[0,1],[3,3],[4,0],[0,1],[1,1],[6,2],[3,3],[1,-1],[0,-1],[-1,-2],[0,-1],[1,-1],[3,0],[1,-1],[3,0],[6,-2],[4,-1],[3,0],[5,-5],[2,-1],[2,0],[2,2],[1,0],[1,-1],[0,1],[-1,1],[0,2],[1,1],[5,-3],[3,-3],[0,-4],[1,-1],[1,0],[1,-1],[2,-1],[0,-1],[1,0],[0,-2],[-1,1],[0,1],[-1,0],[-2,-1],[-1,0],[0,2],[-1,0],[-1,-1],[1,-1],[-1,0],[-3,-1],[-1,-3],[0,-3],[-2,0],[-1,1],[0,-1],[-1,0],[-2,-1],[-1,-1],[0,-1],[-2,0],[-2,-1],[-1,-1],[-1,0],[-2,-2],[-3,0],[0,1],[-1,-1],[1,-1],[-4,-4],[-2,0],[0,-2],[-1,0],[-1,1],[-3,0],[-3,-1],[-1,-1],[-1,1],[1,1],[-3,0],[0,-1],[-2,-1],[-4,0],[0,-1],[3,0],[6,1],[1,0],[6,-3],[1,0],[1,2],[-2,2],[2,0],[1,1],[0,-1],[1,1],[1,0],[0,1],[1,1],[0,1],[2,0],[0,1],[2,0],[2,1],[0,1],[2,1],[1,0],[1,1],[2,1],[2,0],[1,1],[4,2],[1,0],[0,1],[1,1],[-1,2],[1,0],[-1,1],[2,2],[3,0],[1,-1],[1,0],[0,1],[1,-1],[0,-1],[2,0]],[[569,919],[-1,1],[1,0],[0,-1]],[[564,919],[0,-1],[-1,0],[1,1]],[[563,919],[0,0]],[[454,948],[-1,0]],[[453,948],[0,1],[1,0],[0,-1]],[[401,820],[-1,0],[0,1],[1,-1]],[[398,821],[0,1],[-1,0],[0,2],[-2,2],[1,0],[2,-2],[0,-1],[1,-1],[0,-1],[-1,-1]],[[386,833],[-1,0],[-1,2],[2,0],[0,-2]],[[337,872],[0,-1],[-1,1],[1,0]],[[323,941],[-2,-1],[-1,1],[3,0]],[[322,933],[-1,0],[-1,1],[-2,0],[2,1],[2,-2]],[[312,944],[-3,0],[1,1],[3,1],[0,-1],[-1,-1]],[[312,923],[0,0]],[[308,949],[-2,1],[2,0],[0,1],[1,-1],[-1,-1]],[[305,927],[-3,-1],[-2,0],[-3,2],[-1,2],[0,1],[1,1],[3,0],[2,1],[3,1],[1,0],[3,1],[0,-2],[-1,-3],[0,-1],[-3,-2]],[[307,870],[1,-1],[-1,0],[-1,1],[1,2],[1,0],[0,-1],[-1,-1]],[[303,945],[-7,0],[-4,-2],[-2,1],[1,1],[7,1],[4,1],[1,1],[1,-1],[0,-1],[-1,-1]],[[293,960],[3,-1],[0,-3],[1,0],[-1,-1],[0,-1],[-1,-1],[0,-1],[-2,-2],[-3,1],[-7,0],[-4,2],[-3,0],[-1,1],[0,1],[1,2],[1,0],[1,2],[2,0],[4,1],[9,0]],[[289,937],[2,0],[2,1],[2,-2],[0,-1],[-4,0],[0,1],[-2,0],[-1,1],[0,1],[1,-1]],[[278,999],[3,-1],[0,-1],[-2,1],[-3,-1],[0,-1],[3,0],[1,-1],[0,-1],[-4,-2],[-1,0],[-4,-4],[1,-3],[0,-5],[2,-2],[3,-1],[2,-1],[6,0],[3,1],[5,0],[-6,-1],[-2,-1],[-3,-2],[-5,-1],[-1,0],[-3,2],[-1,2],[-3,0],[0,-1],[-1,-1],[-2,0],[-1,-1],[-1,-3],[0,-1],[1,-1],[0,-1],[-1,-1],[0,-2],[1,-1],[-1,-4],[-1,1],[0,5],[1,10],[0,4],[1,1],[1,3],[1,2],[3,4],[3,6],[3,3],[2,1]],[[293,923],[-1,-1],[-1,1],[1,1],[1,-1]],[[289,931],[-1,0],[0,1],[1,-1]],[[275,942],[-2,-1],[-3,3],[-1,0],[-4,3],[0,1],[-1,1],[2,2],[3,2],[1,0],[0,-3],[2,-3],[1,-1],[1,0],[0,-2],[1,0],[0,-1],[1,0],[-1,-1]],[[224,887],[-2,0],[1,1],[1,-1]],[[221,886],[-1,0],[-1,1],[1,0],[1,-1]],[[679,391],[2,-1],[0,-2],[1,-2],[1,0],[-1,-1],[-1,0],[-2,-1],[0,-1],[-1,-1],[1,0],[1,-1],[3,-1],[1,0],[1,-1],[0,-1],[1,-1],[1,0],[1,-1],[1,0],[0,-1],[1,-1],[0,-2],[1,0],[0,-1],[-1,-1],[0,-1],[-1,-1],[0,-1],[1,-3],[1,-1],[2,0],[0,-1],[1,1],[1,0],[0,-1],[3,-2],[-2,-1],[0,-1],[2,0],[0,-1],[1,0],[1,1],[2,-1],[0,-1],[1,-2],[1,1],[1,0],[2,-2],[2,0],[0,-1],[2,0],[0,-1],[1,0],[2,-1],[1,0],[0,-1],[-1,0],[1,-1],[2,1],[2,0],[1,-1],[1,0],[1,-1],[0,-1],[-1,-1],[-1,0],[-1,-1],[0,-1],[1,-1],[1,0],[2,-1],[3,0],[1,-1],[1,-2],[-1,-2],[-2,-1],[-1,-2],[-1,-1],[-1,0],[0,-3],[-1,1],[-1,-1],[-1,-2],[0,-4],[-7,-3],[0,-3],[4,-4],[0,-1],[3,-1],[1,0],[1,-1],[4,0],[0,-4],[-1,-1],[1,-1],[0,-2],[0,0],[1,-1],[1,1],[2,-1],[0,-3],[1,0],[1,-1],[-1,-1],[0,-2],[3,-3],[-1,0],[1,-1],[3,-1],[0,1],[1,0],[1,-1],[0,-5],[-1,-1],[2,-1],[0,-4],[3,-1],[2,-1],[1,0],[1,-1],[2,0],[2,-2],[1,-2],[0,-2],[1,0],[1,-1],[0,-2],[7,0],[1,-1],[4,0],[-1,1],[0,1],[2,0],[1,-1],[4,0],[1,-1],[2,0],[0,-1],[1,-1],[3,-2],[2,0],[0,-5],[3,0],[0,-2],[3,0],[0,-3],[1,0],[2,-1],[0,-2],[1,0],[2,-2],[1,0],[1,-2],[1,0],[1,-1],[0,-2],[-1,-1],[4,-2],[3,-1],[5,0],[3,-1],[1,-1],[3,-2],[4,-4],[2,0],[0,-2],[1,-2],[-1,-1],[1,-2],[0,-2],[2,-2],[2,0],[1,-1],[1,0],[0,-1],[2,0],[0,-1],[1,0],[1,-1],[1,0],[0,4],[3,1],[2,-1],[3,0],[1,-1],[0,-1],[2,-2],[0,1],[2,0],[0,-1],[1,-2],[1,-1],[1,-3],[1,0],[1,-1],[4,0],[1,-1],[0,1],[2,0],[0,-1],[2,-2],[1,-3],[2,-1],[1,0],[0,-1],[3,-3],[-1,-1],[0,-1],[0,0],[0,-1],[3,0],[0,-1],[-2,-2],[0,-2],[-3,-3],[2,0],[0,-1],[1,-1],[2,0],[0,-1],[-1,1],[-1,0],[-1,-1],[0,-1],[1,-1],[0,-2],[-1,-1],[2,-2],[0,-2],[-1,0],[0,-1],[-2,-2],[1,-1],[-1,-2],[-1,0],[-2,-2],[-1,0],[0,1],[-1,0],[-1,-1],[1,-1],[-1,0],[0,-2],[-1,-1],[-1,-2],[-1,1],[-1,0],[-4,2],[-1,0],[-1,2],[-1,1],[-2,0],[-3,2],[-1,0],[-1,-2],[-2,1],[-1,1],[-3,2],[-2,0],[-1,-1],[1,0],[0,-1],[-2,-1],[-1,0],[0,-1],[-2,0],[-1,1],[-2,-2],[2,-1],[-1,-1],[0,-1],[2,-2],[-2,-2],[0,-2],[-1,-1],[-1,-2],[1,-1],[1,-2],[-1,-1],[0,-1],[-1,0],[0,-2],[-1,-1],[0,-1],[-1,-2],[-1,0],[-3,-2],[-3,-3],[-3,-2],[-7,-3],[-5,0],[-1,1],[-2,-1],[-4,-1],[-2,-1],[-4,0],[-2,-1],[-5,-1],[-1,-1],[0,-1],[-1,-1],[-5,-4],[-9,0],[-1,-1],[0,-1],[-1,-1],[-1,-2],[-1,0],[-1,-2],[-3,-1],[-1,-1],[-1,-2],[-1,1],[-1,0],[-1,-1],[0,-5],[1,-1],[4,-3],[2,-2],[2,-1],[2,-2],[1,-2],[1,-3],[0,-1],[4,-1],[1,-1],[0,-1],[2,0],[0,-1],[1,-1],[1,-2],[1,-1],[2,-4],[2,-2],[0,-2],[-3,-3],[-1,-2],[-2,-2],[-1,0],[0,-1],[-1,-1],[1,0],[1,-1],[-1,0],[0,-2],[-2,0],[-1,-1],[-1,-2],[3,-2],[1,1],[1,0],[1,-1],[3,0],[2,1],[1,1],[1,0],[3,-1],[0,-1],[2,-1],[1,-1],[0,-4],[2,-2],[0,-2],[-2,-3],[-1,-1],[0,-1],[0,0],[-1,-1],[-1,0],[-1,-1],[2,-2],[-3,-3],[1,-1],[1,0],[0,-1],[-1,0],[1,-1],[0,-3],[-2,0],[-1,-1],[0,-1],[-2,-1],[-1,1],[0,1],[-2,0],[0,-1],[-1,0],[-6,3],[-3,2],[0,1],[-1,1],[-2,0],[-1,2],[-3,0],[-2,1],[-1,1],[0,1],[-1,0],[0,2],[1,1],[0,1],[1,1],[2,1],[-2,2],[-1,0],[0,1],[-1,0],[-2,2],[2,2],[0,1],[-1,-1],[-2,0],[-1,1],[-3,0],[-2,1],[-4,0],[-1,-2],[-2,1],[-3,0],[-4,-6],[-3,1],[-2,-1],[-3,0],[0,1],[-1,0],[-5,5],[0,2],[-3,0],[-4,-1],[-1,0],[-2,1],[-2,0],[1,1],[-2,0],[-4,-1],[-2,-2],[-1,0],[-2,2],[0,1],[1,1],[1,2],[1,1],[-1,2],[-2,-2],[-1,-2],[-5,-2],[-2,0],[0,-3],[2,-1],[0,-1],[1,-2],[1,-1],[0,-3],[-3,-2],[0,1],[1,1],[-1,0],[-3,-1],[-2,0],[-2,1],[-3,0],[-3,1],[0,-1],[-2,1],[-2,-1],[-1,1],[-3,0],[-1,-1],[-6,0],[-2,-1],[-5,0],[0,-2],[-1,-1],[-8,1],[-8,0],[-2,-1],[-3,1],[-2,0],[0,-1],[-3,0],[0,-1],[-2,-2],[0,-4],[-2,-2],[-6,0],[-1,-1],[-2,1],[-4,-1],[-1,2],[-3,-3],[-3,-2],[0,-1],[1,-1],[1,0],[2,-3],[-5,1],[-1,0],[0,-1],[-1,1],[-2,0],[-1,-1],[-2,-1],[-1,0],[-1,-1],[0,-1],[-1,-2],[-1,-1],[-6,0],[2,3],[1,1],[0,1],[-5,0],[-1,-1],[-2,0],[-1,-1],[-2,0],[-2,-1],[-1,-1],[0,-1],[-14,0],[-2,1],[0,2],[1,0],[0,2],[-3,2],[0,1],[-2,1],[-1,1],[1,1],[-3,1],[-1,-1],[-3,0],[0,2],[2,1],[3,1],[0,1],[-2,0],[-1,2],[-4,0],[-1,-1],[-3,0],[0,-1],[-3,0],[-1,-1],[-2,1],[0,2],[-4,0],[-3,1],[-1,1],[0,1],[-7,0],[-1,1],[-2,0],[0,-1],[-2,0],[0,-3],[-6,0],[-3,1],[-2,0],[0,1],[-2,1],[-2,-4],[0,-2],[-1,-1],[1,-1],[0,-1],[2,-1],[1,0],[0,-4],[1,-2],[-1,0],[-4,-4],[0,-2],[1,-1],[-2,1],[-1,-1],[-2,0],[-1,-1],[0,-2],[-2,-1],[-1,-1],[-1,-3],[-2,-2],[-1,1],[-1,0],[-1,-1],[-1,0],[-1,-1],[0,-1],[-3,0],[0,-1],[-2,0],[0,-1],[-1,0],[-1,1],[-3,0],[-2,-1],[0,1],[1,2],[1,0],[2,2],[0,1],[-1,1],[0,2],[1,0],[1,1],[0,1],[2,2],[-1,1],[1,0],[-1,1],[-1,0],[-1,-1],[-2,1],[-1,1],[0,-1],[-1,0],[-1,-1],[0,-1],[-3,-1],[-1,1],[-1,0],[-2,-2],[0,1],[-1,1],[0,1],[-1,1],[0,2],[-1,0],[0,2],[3,0],[0,2],[-1,1],[0,2],[-2,0],[-1,1],[-1,0],[0,1],[-1,2],[-2,0],[-2,-1],[-1,0],[-1,2],[0,1],[-2,1],[-1,1],[1,3],[-1,0],[0,-1],[-3,0],[-2,-1],[0,1],[-1,0],[-1,1],[-2,0],[-1,-2],[-2,2],[-3,0],[-1,1],[1,1],[0,4],[-2,0],[0,1],[-3,0],[0,-1],[-2,0],[0,-1],[-1,-1],[0,-2],[-1,0],[0,-1],[-1,-1],[0,-1],[-1,0],[-2,-1],[-3,-1],[-2,1],[-3,0],[-2,1],[-1,0],[-4,1],[-1,0]],[[500,37],[1,1],[0,2],[2,0],[-1,1],[-2,-1],[-2,0],[-1,-1],[0,-1],[2,0],[0,-2],[1,1]],[[659,405],[-2,-1],[-1,0],[-1,-1],[-1,0],[-1,-1],[-2,0],[-2,-2],[-1,1],[1,1],[-1,0],[-2,2],[-2,0],[-1,-1],[-1,0],[-1,1],[0,-1],[-1,0],[-1,-1],[-2,-1],[-1,1],[-1,-1],[-7,-1],[-1,0],[-2,1],[-1,1],[-3,-1],[0,-1],[-1,-1],[-3,0],[-1,-1],[-1,3],[-3,0],[-1,1],[1,2],[-1,1],[0,1],[-2,0],[0,-1],[-2,-1],[1,1],[0,1],[-1,0],[-1,1],[-1,0],[0,2],[-1,1],[1,1],[0,2],[1,0],[1,1],[-2,2],[-3,1],[-1,-1],[-1,1],[-3,0]],[[596,417],[1,0]],[[597,417],[0,-1],[-2,0],[-1,-1],[0,-2],[-2,0],[-1,-1],[-4,0],[-1,-1],[0,-1],[1,-1],[-1,-1],[1,0],[1,-1],[0,-4],[-1,-1],[1,-1],[0,-1],[1,-1],[1,-3],[-2,0],[0,-1],[1,-2],[-2,0],[0,-1],[1,-2],[-2,-2],[1,0],[0,-3],[-1,0],[-2,1],[-3,2],[-1,-2],[0,-1],[-2,0],[0,1]],[[578,386],[1,0]],[[579,386],[-2,0],[0,1],[-2,0],[-1,1],[0,1],[-1,0],[0,1],[1,1],[1,0],[1,1],[0,1],[-2,2],[0,1],[-1,0],[-1,-1],[0,2],[-3,0],[-1,-2],[-1,1],[-3,-1],[-1,0],[0,1],[-5,1],[0,-1],[1,-1],[-2,0],[-3,3],[1,0],[-3,3],[-3,-1],[-1,-1],[-1,0],[0,2],[-2,0],[-1,-1],[-3,0],[-1,1],[0,-1],[-1,0],[-2,-1],[-1,0],[0,1],[-2,-2],[-1,0],[0,-1],[-1,-1],[-1,0],[-1,1],[-2,0],[0,-2],[1,0],[0,-2],[-1,0],[0,-2],[3,0],[2,-3],[4,0],[1,-1],[0,-1],[2,0],[1,-1],[1,0]],[[542,386],[0,-1]],[[542,385],[1,-1],[0,-2],[-1,0],[0,-1],[-4,0],[-1,1],[-2,0],[-1,-1],[-2,0],[-1,1],[-2,0],[0,-2],[1,-3],[-2,0],[-2,1],[-1,0],[0,1],[-3,0],[0,1],[-2,-1],[-4,0],[0,3],[1,0],[-2,2],[1,1],[-2,0],[1,1],[0,1],[1,1],[-1,1],[0,4],[-2,0],[-2,1],[-1,1],[0,1],[-1,1],[-1,0],[-2,-2],[0,1],[-2,0],[-1,1],[1,0],[-1,1],[-1,0],[-2,1],[0,2],[-1,1],[-1,0],[0,-1],[-5,0],[-1,1],[1,1],[1,2],[-2,0],[-1,1],[0,1],[-1,0],[-2,3],[-1,0],[0,3],[-1,0],[0,1],[-1,-1],[-2,1],[-1,0],[-1,1],[-2,0],[-1,1],[-3,0],[0,2],[-3,3],[-3,0],[0,-1],[-1,1],[-2,0],[0,-1],[-1,0],[-1,1],[-1,0],[1,1],[-1,1],[-1,0],[-1,-1],[0,-1],[-1,0],[0,-1],[-2,-1],[-3,-3]],[[931,777],[-1,-1],[0,-1],[1,-1],[0,-3],[1,0],[1,-1],[1,0],[1,-1],[-2,-2],[0,-1],[-1,0],[-2,-2],[0,-2],[-1,0],[-2,-1],[-1,-3],[0,-3],[1,0],[1,-2],[-1,0],[0,-3],[-1,-1],[0,-3],[-1,-2],[-2,-3],[-1,0],[-2,-1],[-2,-2],[-1,0],[-5,-4],[-3,0],[-1,-1],[-3,-1],[-4,-2],[0,-3],[1,-2],[0,-3],[1,0],[0,-3],[-4,-4],[0,-1],[1,-1],[1,0],[5,-1],[3,0],[2,-2],[1,0],[1,-2],[1,0],[2,-2],[2,-1],[6,-2],[2,-2],[5,-4],[2,-2],[0,-1],[2,0],[2,-3],[3,-1],[7,-3],[4,-2],[1,-1],[0,-2],[1,0],[1,-1],[1,0],[0,-1],[-3,-3],[0,-5],[1,0],[2,-2],[-1,-1],[-1,0],[0,-1],[-1,-1],[0,-1],[-3,-3],[-2,0],[-2,-1],[0,-2],[-1,-3],[2,-2],[0,-3],[1,-1],[0,-2],[1,-1],[1,-2],[0,-1],[-1,0],[0,-1],[1,-1],[1,0],[0,-1],[3,0],[2,-1],[1,0],[3,-1],[2,0],[3,-3],[-2,-4],[-1,-1],[-1,0],[2,-2],[0,-2],[-1,-2],[-1,-1],[0,-4],[2,-2],[1,0],[3,-1],[2,-2],[0,-2],[-1,0],[0,-3],[-2,-2],[0,-1],[-1,0],[0,-3],[-1,-1],[-1,0],[1,-2],[1,-1],[0,-2],[-1,0],[-1,-1],[0,-2],[-1,-1],[0,-1],[-2,-1],[-1,0],[-1,-1],[0,-1],[-3,-2],[-1,0],[-1,-1],[0,-1],[-1,0],[0,-1],[-1,0],[0,-2],[2,-2],[1,0],[2,-1],[1,0],[1,-2],[0,-3],[1,0],[-1,-1],[0,-1],[1,-2],[3,-3],[4,-2],[1,0],[0,-1],[2,-2],[0,-6],[1,0],[0,-1],[-4,-4]],[[820,690],[-3,-3],[-7,0],[0,4],[-2,0],[-1,-2],[-2,0],[0,-2],[-4,0],[-2,-2],[0,-1],[1,-1],[0,-1],[-1,0],[-4,2],[-4,-2],[0,-1],[2,0],[0,-3],[-2,0],[-1,-1],[0,-4],[2,0],[3,-1],[-2,-1],[-4,-4],[0,-2],[1,-2],[-2,-2],[-2,-1],[1,-1],[2,1],[0,-1],[1,-1],[2,0],[3,-1],[0,1],[-1,0],[1,1],[6,2],[2,0],[1,-2],[3,0],[1,1],[1,0],[2,-2],[3,2],[0,-1],[3,-2],[2,0],[0,-2],[4,0],[0,3],[-1,1],[5,2],[2,-2],[0,-1],[6,0],[0,-1],[6,0],[2,-2],[2,1],[1,-1],[1,0],[0,-2],[-1,0],[0,-2],[1,-1],[1,0],[0,2],[2,2],[2,0],[1,1],[-1,1],[3,2],[1,0],[1,1],[0,1],[-1,0],[1,1],[0,1],[1,1],[2,0],[-1,1],[-2,0],[-1,1],[-1,0],[0,1],[-2,1],[0,-2],[-1,1],[-3,2],[-4,0],[0,-1],[-2,0],[2,2],[0,2],[3,3],[0,1],[-3,0],[0,1],[-2,1],[-2,0],[-1,1],[0,2],[-1,0],[-2,2],[-1,0],[-2,1],[-2,0],[-1,2],[0,1],[3,3],[-4,2],[0,2],[-2,0],[-1,-1],[0,1],[-1,-1],[1,-1],[1,0],[-1,-1],[-2,0],[-2,-2],[-3,2]],[[791,657],[0,0]],[[292,801],[1,0],[2,3],[-1,2],[-6,6],[1,1]],[[484,792],[0,1],[2,0],[-2,-1]],[[484,792],[1,-1],[-1,0]],[[425,805],[4,-2],[1,0],[1,1],[-1,1],[1,1],[-6,1],[-4,1]],[[421,808],[0,1],[1,0],[-1,1],[1,1],[0,1],[1,0],[0,1],[1,0],[0,1]],[[423,814],[1,0]],[[424,814],[0,2],[1,0],[0,-2],[1,0],[2,-1],[-1,-1],[2,-1],[1,-1],[2,0],[0,1],[1,0],[1,1],[1,0],[0,1],[1,0],[0,1],[3,3],[1,0],[0,2],[4,0],[5,-1],[0,4],[1,0],[4,1],[1,-1],[2,0],[0,1],[1,2]],[[459,825],[-1,0]],[[458,825],[0,1],[1,1],[5,0],[0,1],[2,0],[2,2],[3,-1],[0,-1],[-1,-2],[-3,0],[0,-3],[-1,-1],[1,-1],[2,0],[0,-1],[1,0],[2,-2],[-1,0],[0,-1],[1,0],[2,-1],[-1,-1],[-2,-1],[0,-3],[1,-1],[-4,0],[-2,-2],[0,-1],[1,0],[0,-3],[1,0],[0,-2],[3,-1],[1,0],[1,1],[1,-2],[0,-1],[2,0],[0,-2],[1,0],[2,-1],[1,-1],[2,-1],[0,-2],[2,0]],[[427,806],[-1,-1],[0,1],[1,0]],[[288,853],[-1,-1],[-2,0],[0,2],[1,1],[3,-2],[-1,0]],[[279,856],[-2,0],[3,3],[2,-1],[-3,-2]],[[59,392],[0,1],[-1,1],[0,1],[-1,0],[-2,1],[-1,2],[-2,1],[1,1],[2,3],[-1,1],[1,0],[1,2],[-1,2],[0,1],[-3,0],[0,1],[-1,1],[1,1],[0,1],[-1,0],[-2,1],[-4,0],[-1,1],[-1,-1],[-2,1],[-2,-1],[-2,3],[-2,0],[0,1],[1,1],[-2,1],[0,2],[1,1],[1,0],[3,3],[2,0],[1,1],[0,1],[2,2],[-1,1],[-8,0],[-1,-1],[0,2],[-1,1],[1,0],[2,1],[0,1],[0,0],[-2,-1],[-4,4],[0,1],[-2,2],[0,1],[-1,1],[-6,0],[-2,1],[0,-1],[-1,1],[1,1],[0,1],[-2,1],[0,3],[-4,2],[-1,0],[0,1],[1,1],[2,-1],[2,1],[0,2],[-1,1],[0,1],[4,2],[1,-1],[1,0],[1,2],[1,1],[0,1],[-1,2],[0,1],[1,1],[0,1],[-1,0],[-1,1],[-2,0],[-1,1],[-3,0],[0,3],[0,0],[0,1],[1,2],[-6,0],[-1,1],[-3,0],[0,-1],[-1,0],[-3,-1],[0,1],[1,1],[0,2],[-1,0],[0,1],[-2,1],[0,3],[-1,0],[0,1],[2,0],[2,1],[1,1],[1,0],[0,-2],[2,-2],[2,0],[1,2],[0,1],[1,1],[0,1],[3,2],[2,1],[1,0],[2,1],[2,2],[1,0],[2,2],[2,0],[1,1],[2,0],[1,1],[1,0],[1,1],[-2,2],[2,1],[1,1],[-2,0],[-4,-1],[-2,-1],[-1,-1],[-2,1],[-1,1],[0,5],[2,0],[-1,1],[-1,2],[2,0],[0,1],[1,0],[2,2],[1,0],[0,1],[2,2],[1,2],[1,1],[0,1],[1,1],[2,1],[4,3],[-1,3],[1,1],[0,1],[-2,0],[1,3],[0,3],[1,3],[-1,2],[0,3],[-4,4],[-2,3],[-1,1],[-2,1],[-1,1],[0,1],[-2,0],[-1,1],[0,3],[1,1],[1,3],[-2,0],[-3,1],[-4,1],[-1,4],[1,1],[1,0],[-1,1],[-4,2],[-4,0],[-1,1],[4,3],[0,2],[-1,1],[0,1],[-2,1],[-1,1],[0,1],[1,2],[3,-1],[1,0],[2,1],[1,1],[1,0],[2,1],[1,1],[0,1],[4,-2],[5,-1],[3,-1],[-1,3],[-1,1],[-1,0],[0,1],[-1,1],[-3,1],[1,1],[1,0],[3,1],[4,-2],[0,-1],[-1,0],[4,-2],[6,0],[0,1],[3,-1],[1,-2],[4,0],[2,-1],[0,-1],[1,-1],[4,0],[-1,1],[1,0],[-1,1],[1,0],[0,1],[-1,1],[-1,0],[0,1],[2,0],[2,-1],[4,0],[0,-1],[1,0],[3,1],[0,1],[2,0],[0,1],[2,0],[1,1],[1,0],[3,1],[1,0],[8,2],[0,1],[3,0],[2,-1],[1,-1],[2,1],[1,0],[1,1],[1,0],[3,3],[0,2],[1,0],[1,1],[2,0],[0,1],[-1,3],[-1,0],[0,1],[-7,4],[-4,1],[-3,0],[0,2],[1,2],[4,0],[2,1],[0,2],[1,0],[0,3],[11,0],[1,1],[0,1],[1,3],[1,0],[2,2],[1,0],[4,1],[3,3],[0,2],[1,1],[6,0],[2,1],[1,1]],[[43,433],[0,0]],[[442,527],[0,-3],[1,-1],[0,-1],[1,0],[0,-5],[1,0],[1,1],[1,-1],[0,-2],[3,0],[3,-1],[4,0],[-2,-2],[0,-1],[2,0],[1,-1],[1,0],[-1,-1],[0,-2],[4,0],[0,-1],[2,0],[1,1],[1,-1],[0,-1],[2,1],[1,0],[2,-1],[0,-1],[1,-1],[1,0],[1,-1],[1,1],[1,-1],[-2,-2],[-1,0],[0,-2],[-1,0],[1,-1],[-1,-1],[0,-1],[1,0],[0,-1],[-1,-1],[-1,0],[0,1],[-1,1],[0,1],[-2,2],[-2,-1],[-2,0],[-1,-1],[1,0],[3,-2],[2,0],[0,-2],[-1,0],[0,-1],[-1,0],[-1,-1],[1,-2],[-2,-2],[2,0],[0,-1],[3,0],[0,-1],[2,0],[0,-2],[1,0],[0,-1],[-2,0],[0,-1],[1,0],[-2,-2],[-1,0],[-1,1],[-2,-1],[-1,0],[-2,2],[-1,0],[-1,-1],[-4,1],[-3,0],[-2,-2],[0,-2],[2,-1],[0,-2],[1,0],[0,-1],[2,0],[-2,-1],[-2,0],[-2,-1],[0,1],[-6,0],[0,-2],[1,0],[0,1],[3,0],[-2,-2],[0,-1],[1,-1],[2,2],[2,0],[3,-2],[0,-2],[1,0],[0,-1],[-4,-2],[0,-2],[1,0],[1,1],[0,-1],[-1,-1],[0,-1],[-1,0],[-1,1],[-2,-2],[-1,1],[-1,0],[-2,-1],[0,-2],[-1,-1],[0,-1],[1,-1],[0,-2],[-1,0],[0,1],[-2,0],[0,-1],[-1,-1],[2,-1],[1,-2],[-1,-2],[-1,-1],[-1,0],[-1,-1],[1,-1],[0,-1],[-1,0],[0,-1],[-1,0],[-2,-2],[0,-4],[3,0],[2,-1],[4,0],[0,1],[1,1],[-1,0],[-1,1],[0,1],[1,1],[2,0],[1,1],[6,0],[1,-1],[0,-1],[1,0],[1,-3],[1,-1],[0,-1],[-4,0],[-1,-1],[0,-1],[1,0],[0,-4],[1,-2],[1,0],[-2,-2],[0,-2],[-1,0],[1,-2]],[[455,416],[-1,-1],[0,-1],[-1,-2],[-1,-1],[0,-1],[-2,0],[0,-1],[-1,-1],[0,-1],[-1,0],[-2,-1],[0,-1],[-2,0],[-1,-1],[-3,-2],[-3,-1],[0,1],[-1,1],[-1,-1],[0,-1],[-2,1],[-2,0],[-2,1],[0,1],[-2,1],[-1,-1],[-1,0],[-1,1],[-1,-1],[0,-1],[1,-1],[-2,-4],[0,-1],[-1,-1],[0,-1],[1,0],[0,-3],[1,0],[-1,-1],[0,-1],[-2,-2],[-1,0],[-1,-1],[0,-1],[-3,0],[-1,-1],[-2,0],[-1,-2],[0,-1],[1,0],[2,-1],[-1,-1],[-4,0],[0,-1],[-5,0],[0,1],[-1,0],[-2,-1],[-1,0],[0,1],[-3,0],[0,1],[-1,0],[-1,-2],[1,-1],[0,-1],[1,0],[0,-2],[-1,0],[-1,-2],[1,-1],[3,0],[0,-1],[-2,-2],[-1,0],[2,-4],[0,-1],[-1,-2],[-1,1],[-3,-1],[-3,0],[-1,-1],[-4,0],[-3,6],[-4,0],[-1,1],[-2,0],[0,-1],[-1,1],[-1,0],[-2,1],[-1,-1],[-1,0],[-2,1],[-3,0],[-3,-1],[1,-1],[-2,-2],[-1,-2],[-2,-1],[0,1],[1,1],[0,1],[-2,0],[-2,1],[-3,0],[0,-1],[-2,0],[0,1],[-1,-1],[-4,0],[-3,-3],[0,-3],[-1,0],[0,-1],[-1,-1],[0,-1],[5,0],[1,-1],[-1,-1],[1,-1],[0,-2],[1,-1],[0,-1],[-2,0],[0,1],[-1,-1],[0,-2],[1,-3],[-1,0],[0,-1],[1,0],[1,-2],[-1,-2],[1,-2],[0,-3],[2,-1],[-2,0],[0,-1],[1,-1],[-1,0],[1,-1],[1,0],[0,-1],[2,0],[1,1]],[[350,330],[0,1],[1,-1],[-1,0]],[[350,330],[0,-4],[1,-1],[0,-2],[1,1],[3,0],[1,-2],[-1,0],[-1,-1],[-1,-2],[3,0],[2,-2],[-2,-2],[0,-1],[-1,0],[0,-2],[-1,-1],[-3,0],[0,-3],[1,-1],[0,-3],[-1,0],[0,-1],[-1,0],[-2,-2],[1,-1],[-1,-1],[2,0],[2,-3]],[[246,438],[0,1],[2,0],[2,5],[0,2],[-1,1],[0,1],[-1,0],[-1,1],[0,1],[-1,1],[1,1],[3,1],[1,2],[3,2],[1,0],[0,1],[1,0],[0,1],[1,0],[3,3],[1,0],[0,1],[3,0],[0,-1],[2,-1],[6,0],[3,3],[0,1],[3,2],[1,1],[3,0],[0,1],[-1,1],[0,1],[1,1],[0,2],[1,0],[0,1],[1,0],[0,1],[1,0],[1,1],[0,1],[1,0],[1,1],[0,1],[2,0],[0,2],[-1,1],[0,1],[-1,0],[0,-1],[-1,1],[1,1],[1,0],[1,1],[0,1],[-1,0],[-1,1],[-1,0],[0,1],[3,2],[1,0],[1,1],[6,0],[4,-1],[3,0],[1,1],[2,0],[1,1]],[[311,493],[-2,0]],[[309,493],[0,1],[-1,2],[2,2],[3,1],[2,2],[-1,1],[0,2],[1,0],[0,1],[1,0],[-1,1],[-1,0],[-1,1],[-1,3],[0,2],[-1,1],[0,1],[-4,0],[-1,-1],[-1,0],[-4,-1],[-2,-2],[-2,0],[-1,1],[-1,2],[-1,0],[-1,1],[1,2],[1,0],[3,2],[0,2],[1,0],[1,1],[0,1],[2,1],[1,-1],[1,1],[0,1],[3,1],[-1,1],[3,1],[2,-1],[1,0],[3,1],[1,1],[4,1],[2,-1],[2,0],[0,-1],[1,0],[4,2],[4,0],[1,-1],[1,1],[0,2],[1,1],[-1,0],[0,1],[-1,1],[-2,0],[1,1],[0,1],[-1,0],[0,1],[-3,3],[3,2],[6,2],[5,1],[2,-2],[5,0],[1,-1],[-1,-2],[0,-2],[1,-1],[0,-1],[5,0],[1,-1],[1,0],[1,1],[1,2],[5,0],[0,2],[1,1],[1,0],[0,1],[3,0],[0,1],[2,1],[3,0],[0,3],[1,2],[1,1],[1,0],[1,2],[2,2],[-1,2],[-2,1],[2,1],[1,0],[1,1],[3,0],[3,1],[1,1],[0,1]],[[246,438],[-2,-2],[0,-1],[1,-1],[0,-1],[1,0],[0,-1],[1,0],[0,-1],[1,0],[-1,-2],[-1,0],[0,-1],[3,-1],[-1,-2],[0,-1],[-1,-2],[0,-1],[-1,0],[-2,-1],[1,-1],[-5,0],[0,1],[-3,2],[0,-1],[-2,0],[0,-1],[-2,-2],[-1,0],[0,-1],[-1,-1],[-1,0],[1,-1],[0,-1],[-1,0],[0,-2],[1,0],[0,-1],[2,-2],[0,-1],[-1,-1],[-1,0],[-1,-1],[1,0],[0,-1],[-1,-1],[-1,0],[0,-1],[-1,0],[1,-1],[2,0],[0,-1],[2,0],[1,1],[1,0],[0,-1],[-1,-1],[2,-1],[1,1],[0,-1],[1,0],[0,-1],[1,0],[1,-2],[1,-1],[0,-1],[-1,-1],[2,0],[2,-2],[0,-2],[1,-1],[1,-2],[-2,-1],[0,-1],[-3,0],[-1,1],[-4,0],[0,-1],[-1,-1],[1,0],[0,-1],[1,0],[1,-1],[0,-1],[-1,0],[0,-1],[-1,0],[0,-1],[-2,0],[-1,1],[0,1],[-1,0],[-1,1],[0,-2],[-4,0],[0,-1],[-1,-1],[-2,0],[-2,-1],[0,-1],[-2,-1],[0,-2],[1,-1],[1,0],[1,-1],[0,-1],[2,0],[-1,-1],[0,-4],[1,0],[-1,-1],[-1,2],[-1,1],[-2,-1],[-4,2],[-1,-1],[0,-1],[-1,-1],[1,-1],[-1,0],[0,-1],[1,-1],[-4,0],[-2,-2],[-1,0],[-1,-1],[1,0],[0,-1],[1,-1],[1,0],[1,-1],[1,0],[3,-3],[1,0],[1,-1],[0,-3],[1,0],[0,-1],[11,0],[1,1],[1,0],[5,2],[2,1],[3,0],[6,2],[1,1],[3,0],[0,1],[2,0],[6,-1],[3,-2],[6,-6],[1,-2],[1,-1],[0,-2],[1,-1],[0,-2],[-1,0],[0,-4],[1,-1],[2,0],[0,-1],[1,-1],[0,-1],[-1,-1],[0,-1],[3,-3],[1,-3],[2,-2],[3,0],[2,1],[0,-2],[-5,-5],[-5,-1],[-2,-2],[-1,0],[0,-2],[1,-2],[2,-5],[3,-3],[0,-1],[1,-1]],[[258,218],[-1,0],[-1,1],[-2,-1],[-1,1],[-3,0],[-3,1],[-3,0],[-4,2],[-1,1],[-2,1],[-3,0],[-2,2],[-2,-1],[-4,4],[-2,0],[0,-2],[-1,0],[0,1],[-4,0],[-1,-2],[-2,0],[0,1],[-2,1],[-1,1],[-1,0],[-1,1],[-2,0],[0,-1],[-2,0],[0,-1],[-4,0],[0,1],[-4,0],[0,-1],[-2,0],[-3,1],[-2,0],[0,2],[-3,1],[-1,1],[-2,-1],[-2,0],[0,1],[-1,0],[-1,1],[-1,0],[0,1],[-1,1],[0,1],[-2,1],[0,1],[-1,0],[0,1],[1,1],[0,1],[-1,0],[0,1],[-1,1],[-2,-1],[-1,0],[-1,1],[0,-1],[-1,0],[0,2],[1,1],[-4,-1],[-3,-1],[-2,0],[0,-1]],[[56,293],[-1,1],[0,1],[-2,0],[1,1],[2,0],[-1,1],[0,1],[1,1],[2,0],[2,3],[2,4],[0,1],[-1,0],[4,4],[2,0],[2,2],[1,0],[-1,1],[0,1],[2,0],[-2,1],[0,2],[2,2],[0,1],[-1,0],[0,1],[1,0],[-1,1],[0,1],[1,0],[1,1],[0,1],[-1,0],[-1,-1],[-1,1],[-2,0],[-1,1],[-1,0],[-1,-1],[-3,0],[0,1],[-3,0],[-4,4],[-2,0],[-2,-2],[-1,1],[0,2],[-1,1],[-1,0],[-2,2],[-2,0],[-2,2],[-1,0],[-1,2],[1,0],[-1,1],[-1,0],[1,1],[0,1],[-1,1],[1,1],[-3,0],[0,1],[-1,1],[-1,0],[0,-1],[1,0],[-1,-1],[0,1],[-1,0],[0,3],[-1,1],[-1,0],[-1,1],[0,1],[-2,2],[1,0],[0,-1],[1,1],[-1,1],[0,2],[-1,1],[0,1],[-1,0],[0,1],[1,1],[-1,0],[1,1],[0,1],[1,0],[-1,1],[1,0],[0,2],[-1,0],[1,2],[1,0],[0,1],[1,0],[0,1],[-1,0],[-1,1],[1,1],[0,2],[1,0],[1,-1],[0,1],[3,0],[0,4],[-1,1],[-1,0],[0,2],[1,1],[2,0],[1,2],[2,0],[2,1],[4,0],[1,2],[0,2],[1,1],[0,1],[1,0],[0,1],[1,0],[1,1],[2,-2],[2,0],[0,1],[1,-1],[0,1],[1,0],[3,1]],[[59,392],[2,0],[0,1],[-2,0],[-1,1],[0,3]],[[57,397],[1,0]],[[58,397],[-1,1],[0,2],[2,0],[1,-1],[0,-1],[1,-1],[1,1],[1,0],[0,-1],[1,0],[0,-3],[-1,0],[1,-1],[1,1],[2,0],[1,1],[1,0],[0,1],[1,0],[1,1],[1,0],[0,1],[1,0],[1,-1],[2,1],[1,0],[1,1],[1,0],[1,1],[0,-2],[1,1],[2,-2],[-1,-1],[2,-1],[2,0],[0,2],[1,1],[3,-3],[0,-1],[1,-1],[0,1],[3,1],[2,1],[3,0],[0,1],[1,0],[1,-1],[1,1],[0,1],[-2,0],[-1,2],[-1,1],[1,1],[0,1],[1,1],[-1,0],[-1,1],[0,1],[-2,0],[0,1],[1,1],[1,0],[0,1],[-1,1],[0,1]],[[97,411],[-1,-1],[-1,0],[1,1],[1,0]],[[97,411],[1,1],[1,0],[1,1],[2,0],[1,-2],[1,-1],[2,0],[2,-2],[2,2],[3,0],[-1,2],[1,0],[0,1],[-1,1],[1,0],[0,1],[-2,0],[1,1],[0,1],[-1,0],[0,1],[3,0],[2,1],[-1,1],[0,2],[3,1],[1,-1],[2,0],[1,1],[1,0],[2,2],[3,2],[2,1],[0,-1],[1,0],[0,-1],[2,-1],[2,1],[1,2],[0,1],[2,-2],[1,0],[1,1],[0,1],[2,0],[0,1],[2,0],[1,3],[1,1],[0,-4],[1,1],[4,0],[1,-1],[3,1],[2,1],[3,0],[2,2],[0,1],[2,2],[0,1],[-1,0],[0,2],[-1,0],[2,2],[4,0],[1,-1],[2,0],[1,1],[4,0],[2,2],[2,0]],[[180,445],[0,-1]],[[180,444],[1,1],[1,0],[1,1],[1,0],[3,-1],[1,0],[0,2],[2,2],[5,0],[0,2],[1,0],[1,-1],[0,2],[1,0],[-1,1],[0,1],[-1,1]],[[196,455],[-1,0]],[[195,455],[2,0],[3,1],[0,1],[1,0],[0,1],[2,1],[3,0],[0,2],[-1,1],[1,1],[-1,1],[1,1],[0,1],[-1,0],[0,1],[-2,1],[3,0],[2,1],[1,2],[3,0],[1,-2],[2,0],[1,1],[0,-1],[-2,-2],[0,-2],[-1,0],[1,-2],[4,0],[4,-4],[6,0],[1,-1],[0,-1],[1,0],[0,-1],[-1,-1],[0,-4],[-1,0],[1,-2],[1,-1],[1,0],[4,-4],[2,-1],[0,-3],[2,-1],[2,2],[2,-1],[1,0],[1,-1],[0,-1],[1,0]],[[163,243],[0,-2],[-2,-1],[-3,0],[-3,-3],[-1,0],[0,1],[-4,0],[0,1],[-4,-1],[-1,-1],[0,1],[-1,1],[-3,-1],[0,-1],[-2,1],[-2,2],[-2,0],[0,1],[1,0],[-2,1],[-2,-1],[0,-1],[1,0],[0,-1],[-2,-1],[0,-1],[-1,-1],[-2,1],[0,4],[-1,1],[0,1],[-1,1],[1,1],[0,1],[-2,0],[-1,1],[-1,0],[-2,2],[-2,-1],[-1,0],[0,1],[-1,0],[0,1],[-2,1],[-1,-1],[-2,-1],[-1,0],[-2,1],[-1,0],[-2,-1],[1,-1],[0,-2],[1,0],[0,-2],[-2,0],[1,-1],[0,-1],[-1,0],[0,-1],[-1,0],[-3,2],[-7,0],[-3,3],[1,1],[0,1],[1,0],[-1,1],[0,1],[-4,0],[1,2],[-1,1],[1,1],[-1,0],[-1,1],[-2,0],[1,1],[0,2],[-1,0],[-2,2],[-1,0],[-1,1],[-1,0],[-2,2],[0,1],[-1,1],[-1,0],[0,1],[-1,1],[0,1],[2,0],[0,-1],[1,0],[1,2],[-2,0],[0,2],[-1,1],[-2,0],[-1,1],[-1,0],[0,2],[2,1],[-2,2],[-2,0],[-2,2],[-2,0],[-2,1],[-1,0],[-2,1],[-1,1],[-1,0],[-2,-1],[-4,0],[0,4],[-1,4],[3,3]],[[56,293],[3,-1],[3,0],[2,-1],[1,1],[1,-1],[1,0],[1,-1],[1,0],[2,1],[0,-1],[2,1],[3,0],[3,-3],[1,0],[1,1],[0,1],[1,0],[0,1],[3,0],[0,1],[1,1],[0,-1],[3,0],[0,-1],[2,0],[0,1],[1,1],[1,0],[1,1],[1,0],[1,-1],[2,2],[1,0],[3,2],[1,1],[1,-1],[2,0],[0,1],[1,0],[0,1],[1,0],[1,1],[1,-1],[0,1],[1,0],[1,1],[4,0],[0,2],[2,0],[0,-1],[2,1],[2,0],[0,-1],[1,1],[3,0],[0,1],[4,-1],[2,-3],[1,-1],[2,0],[3,-1],[1,1],[3,0],[0,-2],[2,-1],[3,0],[-1,-1],[2,-1],[2,1],[2,2],[1,0],[-1,-1],[0,-1],[1,-1]],[[152,294],[1,0]],[[153,294],[0,-2],[1,-1],[2,0],[0,-1],[1,-1],[-2,0],[0,-1],[-1,-1],[0,-1],[1,0],[-1,-1],[0,-1],[2,0],[1,-1],[-2,-2],[-2,-1],[-3,-1],[1,0],[0,-2],[1,-1],[1,0],[2,-1],[0,-1],[1,-1],[-1,-1],[1,0],[1,-1],[5,0],[0,-1],[1,0],[0,-1],[3,1],[1,-1],[-1,0],[1,-1],[-1,-1],[1,-1],[0,-1],[-2,-2],[1,0],[-1,-2],[0,-1],[-1,-2],[-4,0],[0,-1],[1,0],[-2,-2],[0,-1],[-1,0],[-1,1],[-1,-1],[0,-1],[-1,0],[0,-1],[1,-1],[0,-3],[2,-2],[2,0],[0,-1],[3,-3],[0,1]],[[821,885],[0,-1],[-3,-1],[1,-1],[2,1],[0,-1],[2,-1],[2,-2],[0,-1],[2,-3],[3,-1],[1,0],[0,2],[-1,0],[-1,2],[0,1],[3,1],[8,0],[2,1],[3,0],[1,1],[1,0],[0,1],[6,2],[1,0],[1,-1],[-2,0],[0,-2],[2,0],[1,-1],[3,0],[0,-1],[1,0],[2,-2],[0,-1],[2,0],[0,-1],[-1,-1],[0,-3],[-2,-1],[1,-1],[-1,-1]],[[860,868],[-2,-1],[1,0],[1,-1],[0,-1],[4,-2],[1,0],[1,-1],[1,0],[3,-3],[0,-2],[2,0],[1,-1],[1,0],[2,-2],[0,-1],[-1,-1],[-1,0],[-4,-2],[-1,-2],[-2,0],[-1,-1],[0,-1],[-1,-1],[0,-1],[1,0],[0,-1],[3,0],[2,-1],[1,-2],[1,0],[2,-2],[1,0],[1,-1],[1,0],[1,-1],[1,0],[3,-2],[1,0],[5,-2],[3,0],[2,-1],[3,-1],[7,0],[1,-1],[4,3],[1,0],[1,1],[2,-1],[1,0],[1,-2],[-3,-3],[-1,0],[0,-1],[-2,0],[0,-1],[2,0],[1,-1],[3,1],[0,-2],[1,0],[0,-2],[-1,0],[1,-1],[1,0],[0,-3],[1,-1],[0,-1],[1,0],[1,-1],[0,-6],[-1,-1],[0,-2],[1,-1],[0,-2],[1,-2],[1,-1],[2,0],[0,-4],[2,-2],[0,-5],[1,-1],[0,-1],[1,-1],[1,-2],[0,-1],[-1,-1],[0,-1],[2,0],[1,-3]],[[931,777],[-4,0],[0,-1],[-2,0],[-2,-1],[-3,0],[0,-1],[-3,-3],[-2,0],[-1,-1],[1,-2],[-7,0],[-1,1],[-5,0],[-3,-1],[-3,1],[1,2],[3,2],[1,1],[4,2],[6,6],[0,1],[1,2],[0,4],[-2,2],[-2,-2],[-3,0],[-1,1],[-3,2],[-2,0],[-1,-1],[-1,-2],[-1,0],[-1,-1],[-4,0],[0,2],[-4,0],[-1,1],[-1,0],[-2,-1],[-5,0],[-1,-1],[-2,2],[1,0],[0,1],[1,0],[0,2],[-3,1],[-2,1],[1,0],[0,1],[-1,1],[0,2]],[[873,800],[-1,0]],[[872,800],[-1,0],[-1,1],[-2,0],[-2,1],[-2,3],[0,2],[-1,0],[-2,-4],[1,0],[0,-2],[1,0],[0,-1],[1,-1],[2,0],[-1,-2],[-1,-1],[-5,0],[-1,1],[-4,0],[-5,-3],[-1,-1],[0,-1],[-2,0],[0,-1],[-1,-1],[1,0],[0,-1],[-1,-1],[-3,0],[-1,-1],[-3,0],[-1,-1],[-1,0],[1,-1],[0,-2],[-1,0],[0,-1],[-2,0],[-1,-2],[1,0],[-1,-2],[1,-2],[-2,0],[-1,-1],[0,-1],[-1,-1],[-3,-1],[0,1],[-2,0],[-1,-1],[1,0],[-3,-3],[-1,0],[0,-2],[-2,0],[-1,1],[-2,3],[-1,-1],[-2,0],[-2,1],[-2,0],[-1,-1],[-1,0],[0,-1],[-3,0],[0,-3],[-1,0],[0,-1],[-1,-2],[-3,0],[-2,4],[-4,0],[-1,-1],[-3,0],[-1,-1],[0,-2],[-2,0],[0,-1],[-1,-1],[-3,0],[-2,-2],[-1,0],[0,-1],[-1,-1],[-2,0],[-1,-1],[-1,0],[-2,2],[1,1],[1,0],[0,1],[-1,1],[-2,-1],[-1,0],[0,-1],[-1,0],[0,1],[-2,0],[-2,-1],[-1,-1],[-2,1],[-2,2],[-1,0],[0,-1],[-4,0],[-3,-1],[-1,1],[-1,0],[-2,1],[1,0],[1,1],[0,2],[-7,0],[-3,1],[0,1],[1,0],[0,1],[-2,1],[-3,0],[0,-1],[-1,0],[-1,-1],[-6,3],[-5,0],[-1,-1],[-4,0],[-2,-1],[-1,1],[0,2],[-2,1],[-2,0],[0,3],[-3,0],[-4,2],[-1,0],[-1,1],[-6,0],[-3,3],[0,1],[-1,0],[-1,-1],[-3,0],[0,-1],[-2,0],[-2,2],[-1,0],[-1,-1],[-2,0],[0,-1],[-2,0],[-1,1],[0,1],[-2,2],[-2,0],[0,-1],[1,-1],[0,-1],[-2,-1],[-3,-1],[1,0],[0,-4],[-2,0],[-1,-1],[-1,1],[-4,-4],[-4,0],[-1,1],[-1,0],[0,-1],[-2,-1],[0,-1],[-1,-1],[-2,0],[-4,1],[0,-1],[2,-2],[-1,-1],[-5,0],[-3,-1],[-2,0],[0,2],[-1,0],[-2,1],[-8,0],[-2,-2],[-2,-1],[-1,-1],[-3,0],[1,-1],[0,-2],[1,-1],[-1,0],[0,-1],[1,-1],[-1,0],[-1,-2],[0,-2],[-2,-1],[-4,0],[-2,1],[-1,0],[-1,1],[-7,0],[0,-4],[-2,0],[-1,1],[-8,0],[-1,1],[-2,0]],[[515,782],[0,1],[2,1],[1,3],[-1,1],[1,4],[1,2],[5,0],[2,-1],[0,3],[3,0],[0,1],[3,0],[3,2],[0,1],[1,0],[2,1],[2,0],[0,1],[-1,0],[0,2],[2,1],[-1,1],[0,3],[2,0],[0,-1],[1,0],[6,1],[2,1],[-1,1],[0,1],[1,1],[0,3],[2,1],[0,1],[1,0],[0,1],[-1,1],[0,2],[-3,3],[-3,1],[-2,-1],[-2,0],[0,1],[-3,0],[-2,2],[0,2],[-2,0],[0,1],[-3,0],[0,3],[1,1],[0,3],[-1,1],[0,2],[-1,1],[0,3],[2,2],[1,0],[2,1],[1,0],[0,1],[1,1],[3,0],[1,1],[2,1],[0,1],[1,0],[1,1],[0,-1],[2,-1],[-1,-1],[1,-1],[3,1],[1,0],[1,1]],[[554,852],[1,0]],[[555,852],[-2,0],[-1,1],[-1,0],[-3,1],[0,2],[1,1],[-1,1]],[[548,858],[4,1],[1,1],[3,1],[8,3],[5,1],[11,0],[0,-1],[2,-2],[2,-1],[1,0],[1,1],[1,-1],[0,-1],[-1,0],[-1,-3],[1,-1],[2,-1],[2,0],[3,1],[2,2],[1,0],[1,-1],[0,-1],[2,-1],[1,0],[1,1],[2,-1],[0,-2],[1,0],[2,-1],[0,-1],[2,0],[0,1],[2,2],[1,0],[0,5],[-1,0],[2,1],[1,0],[0,2],[1,3],[1,0],[1,1],[1,0],[0,1],[-2,0],[1,1],[1,-1],[3,0],[3,2],[0,2],[1,1],[2,0],[1,1],[0,2],[-2,2],[0,-1],[-1,0],[-2,-2],[-3,-2],[-1,-2],[-1,0],[0,3],[2,2],[6,2],[6,5],[2,1],[8,0],[3,-1],[8,0],[6,2],[2,0],[6,2],[8,0],[3,1],[1,-1],[0,-3],[-1,-1],[1,-2],[-1,-1],[1,-1],[1,-2],[1,0],[4,-1],[0,1],[-3,0],[-2,2],[0,5],[1,0],[0,1],[1,-1],[1,1],[1,2],[-2,0],[-2,-1],[0,1],[1,0],[4,4],[2,1],[1,2],[2,1],[1,1],[2,1],[7,3],[3,1],[1,1],[1,0],[3,3],[0,1],[1,1],[2,3],[1,0],[1,2],[0,1],[3,1],[4,4],[0,2],[2,4],[3,2],[0,1],[1,-1],[0,-1],[2,-2],[3,0],[3,-1],[5,0],[2,-1],[28,0],[0,-1],[1,-1],[-2,-1],[-6,0],[-3,1],[-2,-1],[-1,-1],[-1,0],[0,1],[-2,0],[-1,-1],[-2,1],[-7,0],[0,1],[1,0],[-2,-1],[0,-1],[-1,0]],[[739,916],[-1,1],[0,0],[-3,0],[-1,-1],[-2,0],[-1,-1],[0,-1],[1,-1],[-4,0],[-2,-1],[-1,0],[0,-1],[-1,0],[-1,1],[-8,0],[-2,-1],[0,-2],[1,-1],[0,-1],[-4,0],[1,-1],[0,-1],[-1,-1],[0,-1],[-2,0],[-1,-1],[1,-1],[1,-2],[0,-1],[-1,0],[1,-1],[2,-1],[1,-1],[6,0],[0,1],[-3,0],[-2,1],[0,1],[-1,1],[2,2],[1,0],[4,1],[1,0],[0,2],[-1,1],[0,1],[7,0],[0,2],[1,0],[0,1],[1,0],[-1,1],[-1,0],[2,1],[3,0],[0,-2],[2,0],[0,1],[1,1],[1,0],[3,1],[3,2],[-1,1],[3,1],[2,0],[0,-1],[-2,0],[0,-2],[-1,-1],[0,-1],[0,0],[1,1],[1,2],[1,1],[1,-1],[0,-3],[2,0],[1,1],[1,-1],[2,0],[0,3],[1,0],[0,-2],[1,0],[1,-1],[1,-2],[0,-1],[4,0],[1,1],[3,1],[0,3],[2,1],[0,1],[3,1],[1,1],[2,0],[0,1],[4,0],[1,1],[0,1],[2,0],[0,-1],[1,0],[0,-1],[-1,-1],[0,-1],[1,-2],[2,-2],[4,0],[1,-2],[-2,-2],[1,-3],[2,-1],[1,-1],[0,-1],[-1,-1],[0,-1],[3,-2],[2,0],[2,1],[1,-1],[-2,0],[0,-1],[-1,0],[-1,-1],[2,1],[4,0],[2,-2],[0,-1],[8,0],[1,-2],[1,-1],[0,-1],[2,-2],[0,-1],[2,0],[-1,-1],[0,-1],[3,0],[2,1],[2,-1]],[[915,826],[-2,-1],[0,1],[2,0]],[[860,868],[1,1]],[[861,869],[1,-1],[0,1],[1,1],[0,1],[1,1],[1,2],[0,3],[-4,2],[0,1],[-2,1],[0,4],[3,1],[3,0],[1,-2],[1,-3],[3,-3],[5,-3],[6,-3],[2,0],[2,-1],[1,0],[2,-2],[6,-4],[4,-2],[1,-1],[7,-5],[4,-3],[-2,-1],[-2,0],[0,-1],[2,0],[0,-1],[1,0],[0,-5],[-3,1],[-18,0],[-3,-3],[-5,0],[-1,-1],[-1,1],[-1,0],[-1,-1],[-6,0],[-1,1],[-2,0],[-1,1],[1,0],[1,2],[3,0],[1,1],[2,0],[1,1],[2,0],[2,3],[-1,3],[-1,2],[-2,2],[0,3],[4,1],[3,-1],[0,-2],[-1,-2],[0,-2],[1,1],[0,1],[2,0],[1,1],[1,-1],[1,0],[0,-1],[2,-1],[0,0],[1,0],[0,2],[1,3],[0,2],[-1,2],[-1,0],[0,1],[-2,-1],[-1,0],[-1,3],[0,1],[-2,1],[0,1],[-6,0],[-1,1],[0,-3],[1,0],[0,-1],[-2,-3],[-3,-1],[-2,0],[0,1],[1,1],[0,2],[1,0],[0,1],[-1,0],[-1,1],[-3,-1],[-3,-3],[-4,0],[0,2]],[[889,857],[0,0]],[[888,858],[0,0]],[[878,866],[-1,-1],[0,1],[-1,0],[2,1],[0,-1]],[[877,895],[-1,0],[1,1],[0,-1]],[[861,890],[0,-1],[-1,0],[1,1]],[[819,947],[-1,-1],[0,-3],[1,-1],[1,-2],[3,-2],[4,-1],[7,0],[2,1],[11,0],[2,-1],[2,-2],[-1,0],[1,-1],[0,-2],[-1,-2],[-3,-1],[-1,0],[-3,-2],[-1,-1],[0,-1],[-1,0],[0,1],[-2,-1],[0,-3],[1,-2],[0,-1],[4,-4],[6,0],[6,-6],[3,-2],[-1,-1],[-1,0],[-1,-1],[0,-1],[-1,-1],[0,-4],[-1,-1],[-3,2],[1,0],[1,-1],[1,1],[-1,1],[-2,0],[-2,-1],[-2,1],[1,1],[3,1],[2,1],[0,1],[-2,0],[-1,1],[-3,-1],[-1,0],[-2,-1],[0,0],[2,1],[1,0],[3,2],[1,1],[-5,0],[0,-1],[-2,-1],[-1,1],[-1,0],[0,1],[-1,0],[-2,1],[0,-1],[-1,0],[-1,-1],[-5,0],[-4,-1],[-1,-1],[0,-1],[-2,-1],[-3,-1],[0,-1],[-3,-3],[0,1],[-1,0],[-1,-1],[-2,0],[0,-2],[1,0],[0,1],[1,0],[1,-1],[1,1],[2,0],[1,-1],[1,-2],[-3,-2],[-2,1],[-1,0],[-5,1],[-1,1],[1,0],[0,3],[1,1],[-2,-1],[0,-1],[-3,0],[-2,-1],[-4,2],[-3,0],[-1,1],[0,1],[1,1],[-1,0],[-2,-1],[-4,0],[0,1],[1,1],[3,0],[-1,1],[-3,1],[-1,0],[0,1],[-1,1],[-1,0],[0,1],[1,1],[0,3],[5,0],[3,1],[2,-1],[2,0],[1,1],[2,0],[0,1],[-2,0],[-1,1],[0,1],[1,0],[-2,2],[-2,1],[-6,0],[1,1],[0,1],[1,1],[-2,0],[-2,-1],[-1,1],[3,4],[2,1],[1,1],[5,-2],[0,-1],[-1,-1],[-3,0],[0,-1],[2,-1],[0,1],[1,0],[1,1],[1,0],[1,1],[1,0],[2,1],[-1,0],[-1,1],[-2,-1],[0,3],[-1,1],[-1,-1],[-4,0],[-1,1],[0,-1],[-1,0],[0,5],[-1,0],[7,1],[2,0],[1,1],[1,-1],[3,-1],[1,0],[1,-1],[-1,0],[0,-2],[2,-1],[0,1],[1,0],[-1,1],[0,2],[-1,1],[1,0],[1,1],[3,2],[1,1],[2,0],[0,-1],[-1,-2],[-1,0],[0,-1],[1,0],[0,1],[2,0],[0,-1],[2,-1],[0,-1],[2,-2],[-1,-1],[0,-1],[1,-1],[2,-1],[1,0],[1,-2],[1,1],[4,0],[-2,-1],[-1,-2],[0,-1],[4,0],[-1,-1],[2,0],[-1,-1],[-3,0],[0,-1],[1,-1],[2,1],[0,-1],[4,0],[0,1],[-1,0],[-1,1],[2,0],[1,1],[0,1],[-3,0],[1,1],[1,0],[0,2],[-2,1],[-2,0],[-1,2],[2,2],[-1,3],[-1,2],[-6,0],[-2,2],[-2,1],[-1,0],[-1,1],[0,2],[-2,2],[-2,0],[0,-2],[-2,0],[0,-2],[-2,0],[-1,-1],[-2,0],[-1,-1],[-2,0],[-1,-1],[-1,0],[3,6],[2,2],[0,3],[-3,0],[0,-1],[-3,-1],[0,-4],[-2,-2],[-2,-1],[-2,-2],[-2,0],[0,1],[1,0],[0,1],[3,1],[2,2],[1,2],[0,3],[1,1],[4,3],[2,1],[6,0],[2,1],[7,0],[1,-1],[-1,-2],[-1,-1],[-3,0]],[[836,905],[-2,-1],[1,1],[0,1],[1,-1]],[[834,904],[0,-1],[-1,0],[0,1],[1,0]],[[821,885],[-1,0]],[[820,885],[0,2],[2,-1],[1,-1],[-2,0]],[[817,887],[0,0]],[[810,896],[-1,-1],[0,1],[1,0]],[[801,915],[-1,-1],[-1,1],[2,0]],[[799,923],[0,-1],[-1,0],[1,1]],[[794,937],[-1,0],[1,1],[0,-1]],[[793,941],[0,-3],[-1,0],[0,2],[-2,-1],[0,-1],[-1,0],[0,-4],[1,0],[0,-1],[-1,-1],[-2,-1],[-2,-4],[0,-3],[-1,-1],[-1,2],[1,1],[2,5],[1,3],[0,1],[1,2],[0,2],[2,2],[3,0]],[[791,903],[-1,-1],[-1,1],[1,1],[1,-1]],[[790,918],[-1,0],[1,1],[0,-1]],[[777,919],[-2,0],[2,2],[3,0],[2,1],[1,0],[-2,-2],[-2,0],[-2,-1]],[[772,920],[1,0],[-1,-1],[0,1],[-2,0],[-1,-1],[0,1],[3,0]],[[748,916],[-1,-1],[-1,1],[2,0]],[[739,916],[1,0]],[[740,916],[0,-1],[-1,0],[0,1]],[[732,912],[-1,-1],[0,1],[1,0]],[[726,908],[-1,0],[1,1],[0,-1]],[[725,910],[0,0]],[[679,885],[1,-1],[-1,0],[0,1]],[[615,870],[0,-1],[-1,1],[1,0],[0,0]],[[612,863],[-1,-2],[-3,-3],[-1,1],[0,4],[-1,-1],[0,-2],[-1,-1],[-3,0],[0,1],[-1,0],[-1,1],[0,1],[3,2],[2,1],[3,1],[2,0],[2,1],[1,-1],[0,-2],[-1,0],[0,-1]],[[606,856],[-1,-1],[0,1],[1,0]],[[782,562],[4,-5],[1,0]],[[788,557],[1,0],[1,1],[1,-1],[1,-2],[1,0],[1,1],[0,-2],[-2,-2],[1,-1],[1,0],[0,-1],[3,0],[0,-2],[1,0],[1,-2],[0,-4]],[[798,542],[1,0]],[[799,542],[-1,-1],[-1,1],[0,-3],[2,-2],[0,-1],[-1,-1],[-1,0],[-1,-1],[0,-1],[1,0],[0,1],[2,0],[0,-2],[1,-2],[0,-1],[5,0]],[[806,528],[-1,1]],[[805,529],[0,1],[3,0],[0,1],[4,2],[0,2],[1,0],[0,-1],[4,0],[1,-1],[0,1],[1,1],[0,1],[1,1],[1,-1],[0,-1],[2,-1],[0,-1],[1,0],[1,1],[1,-1],[1,0],[1,-1],[-1,0],[0,-1],[3,0],[1,-1],[2,0],[1,-2],[0,-1],[1,0],[1,-1],[1,1],[2,1],[2,0],[0,-1],[1,-1],[7,0],[1,1],[0,-1],[2,0],[2,-1],[3,0],[2,1],[1,0],[0,-1],[1,0],[1,1],[4,0],[1,1],[1,0],[0,1],[3,-1],[5,0],[0,1],[2,0],[1,1],[4,0],[0,-2],[3,-1],[0,1],[-1,1],[1,0],[0,1],[1,1]],[[887,530],[2,-1],[-1,1],[-1,0]],[[887,530],[2,1],[1,1],[1,0],[-1,1],[0,2],[1,0],[1,1],[-1,2],[-1,1],[0,1],[2,0],[1,-1],[2,1],[-1,1],[0,1],[2,0],[1,2],[0,1],[2,1],[2,0]],[[901,546],[-1,0]],[[900,546],[0,2],[9,0],[4,-2],[1,1],[2,0],[5,-2],[0,-1],[1,-1],[1,1],[0,1],[1,0],[3,2],[1,0],[0,1],[1,0],[1,-1],[3,1],[1,0],[0,1],[1,1],[7,0],[3,1],[0,1],[2,0],[1,1],[1,0],[0,-1],[2,0],[0,-1],[1,-2],[2,0],[2,1],[3,-1],[2,1],[0,2],[1,1],[0,2],[1,0],[2,-2]],[[965,553],[-2,-2],[2,-2],[0,-2],[4,-2],[3,0],[1,-1],[1,0],[2,-1],[1,0],[1,-2],[4,0],[2,-1],[2,1],[0,-1],[1,-1],[2,0],[3,-4],[-1,-1],[-1,0],[1,-1],[0,-1],[-1,-1],[1,0],[0,-2],[-1,0],[1,-2],[1,0],[1,-1],[-1,-1],[-1,0],[1,-1],[0,-2],[3,-3],[1,-2],[1,0],[1,-1],[0,-2],[1,0],[0,-1],[-1,-1],[0,-1],[-1,0],[1,-1],[0,-1],[-1,-1],[-1,0],[0,-3],[-1,0],[1,-1],[-1,-1],[0,-3],[-1,-1],[0,-1],[1,0],[-1,-1],[0,-3],[-1,0],[0,-1],[-1,-1],[1,-1],[0,-1],[-1,0],[0,-2],[-1,0],[0,-2],[-1,0],[1,-1],[-1,0],[-1,-1],[0,-2],[-1,-1],[0,-1],[-1,-2],[-1,0],[0,-3],[-2,0],[-1,-3],[0,-1],[-1,-1],[-1,0],[0,-1],[-2,-2],[-1,0],[-3,-3],[0,-4],[-1,0],[0,-1],[-1,-1],[0,-2],[-1,-1],[0,1],[-2,0],[0,-1],[-1,0],[0,1],[-3,1],[-1,-1],[-1,0],[0,1],[-1,1],[-3,0],[-1,1],[-3,0],[-3,1],[0,1],[2,3],[0,1],[1,1],[1,0],[0,3],[-1,1],[-6,-2],[-3,0],[0,1],[1,1],[0,1],[1,0],[2,3],[-1,0],[0,1],[1,1],[0,1],[-1,0],[-1,1],[0,1],[-2,1],[-1,-1],[-2,0],[0,2],[-4,0],[1,2],[0,1],[-2,0],[0,-2],[-2,0],[-1,1],[-1,0],[-1,-1],[-2,-1],[-3,0],[-1,1],[-1,0],[0,1],[-2,1],[-3,0],[-2,2],[-1,-1],[-2,-1],[-1,-1],[1,-1],[-1,0],[0,-1],[-1,-1],[-1,0],[0,-1],[1,0],[-1,-1],[0,-1],[3,-1],[2,0],[2,1],[1,-1],[-1,0],[0,-1],[-1,0],[-1,-1],[2,-2],[3,0],[2,-1],[2,0],[1,-1],[0,-2],[-1,0],[0,-2],[-2,-1],[-2,1],[0,-1],[-1,0],[-2,-1],[-4,0],[-1,1],[-2,0],[-2,-1],[-1,0],[0,-1],[-1,-3],[-2,0],[-1,-1],[-4,0],[-1,-1],[-1,0],[0,-1],[-1,0],[-3,-1],[-2,0],[-1,-1],[0,-1],[-5,0],[0,-1],[-1,1],[-2,0],[0,1],[-1,0],[-3,-1],[-1,0],[0,-1],[-4,-2],[-1,1],[-1,0],[-1,-1],[1,0],[-2,-2],[2,-2],[0,-1],[-2,-1],[-3,0],[0,-1],[-3,-1],[-2,1],[-3,1],[-1,-1],[-1,0],[-1,1],[0,-1],[-4,0],[-1,-1],[0,-1],[-2,1],[-1,0],[-2,1],[-1,0],[-3,-1],[0,-1],[-3,-1],[-1,1],[-4,0],[-1,-1],[-2,-1],[1,-1],[1,0],[0,-3],[-2,0],[-1,-2],[0,-1],[1,0],[0,-1],[-3,0],[-4,-5],[-2,2],[-3,0],[0,1],[-1,1],[0,1],[-2,1],[-1,0],[0,1],[-1,-1],[1,-1],[0,-1],[-2,-1],[-1,-1],[-1,0],[-1,-1],[-1,0],[0,-3],[-3,-1],[-2,2],[-3,1],[-2,-3],[0,-1],[-1,0],[0,-1],[1,-1],[-2,-3],[-1,-1],[-1,0],[0,-2],[-6,0],[0,1],[-1,1],[-1,-1],[-4,-2],[-3,0],[0,1],[-1,0],[0,1],[-2,-1],[0,-1],[-1,-1],[0,-6],[-2,-1],[-1,-1],[-1,0],[0,-1],[-3,-1],[-2,0],[1,-1],[-1,0],[0,1],[-3,1],[-1,1],[-1,0],[-8,4],[-1,-2],[0,-1],[-2,2],[-4,-2],[-2,0],[-1,-1],[0,-1],[-2,-1],[0,-2],[-2,1],[-2,2],[0,-1],[-4,0],[-2,1],[-2,-2],[-2,0],[-2,-1],[-5,0],[-3,-3],[0,-3],[-1,0],[-1,1],[-1,-1],[-2,-1],[-1,-1],[0,-1],[-2,0],[-2,-1],[0,-1],[1,-1],[-1,-1],[0,-1],[-3,0],[-1,-1],[-1,-3],[0,-1],[1,0],[-1,-1],[-2,0],[0,-3],[-1,-1],[1,-1],[0,-1],[1,0],[-2,-2],[1,-1],[-4,1],[-2,2],[0,1],[1,0],[0,3],[-1,1],[-1,0],[-1,1],[-2,1],[1,1],[2,0],[-2,2],[-5,0],[0,2],[-1,1],[0,1],[1,1],[-2,0],[0,2],[-1,0],[-3,-1],[-5,0]],[[679,391],[-2,2],[0,-1],[-1,0],[-1,1],[-1,0],[0,-1],[-1,1]],[[673,392],[0,1]],[[673,393],[-2,0],[0,1],[-1,0],[-1,1],[-1,0],[-1,1],[0,-1],[-2,0],[1,1],[0,4],[-1,1],[-3,0],[0,1],[1,0],[-1,1],[0,1],[-1,0],[-2,1]],[[659,405],[1,0],[0,1],[-3,0],[-1,1],[0,1],[3,1],[1,1],[1,-1],[1,0],[0,1],[-1,1],[1,1],[2,0],[0,1],[-2,2],[-1,0],[0,1],[-1,1],[0,1],[-1,-1],[-3,0],[-2,2],[0,1],[1,1],[3,0],[0,1],[2,0],[1,1],[-1,2],[2,1],[1,1],[0,1],[1,-1],[2,1],[0,2],[2,1],[0,1],[1,0],[1,-1],[-2,-2],[2,-2],[1,0],[1,-1],[-1,-1],[1,0],[-2,-2],[1,-1],[0,-1],[3,0],[2,1],[0,1],[1,1],[2,0],[2,-1],[1,1],[3,0],[0,1],[-3,0],[-2,1],[1,1],[1,0],[2,1],[0,3],[2,0],[1,-1],[0,-1],[2,0],[-1,1],[1,1],[1,0],[0,1],[1,0],[1,-1],[5,0],[0,2],[2,0],[2,2],[1,0],[0,1],[1,1],[0,1],[-5,0],[-2,2],[1,0],[-1,1],[0,2],[2,1],[-1,1],[-2,0],[-1,-1],[-1,1],[0,2],[1,2],[2,-1],[1,0],[2,2],[0,1],[-3,0],[-1,1],[0,1],[-1,1],[1,0],[0,1],[1,-1],[1,1],[1,0],[0,-1],[1,0],[0,2],[1,-1]],[[701,455],[-1,0]],[[700,455],[0,2],[1,-2]],[[701,455],[3,1],[2,0],[0,2],[2,1],[1,0]],[[709,460],[0,-1]],[[709,459],[3,0],[0,1],[1,0],[0,-1],[1,-1],[2,0],[0,1],[1,1],[-1,0],[0,1],[1,1],[1,0],[0,1],[2,1],[1,1],[3,0],[-1,1],[1,1],[1,-1],[10,0],[0,1],[2,-1],[1,0],[0,1],[1,1],[0,1],[-1,0],[0,1],[-1,0],[-1,1],[-1,4],[0,1],[-1,1],[0,1],[-3,-1],[-1,0],[0,1],[-5,0],[0,1],[2,0],[-1,1],[0,2],[-2,0],[0,-1],[-1,0],[0,4],[-1,2],[-4,0],[0,2],[-1,0],[0,-1],[-3,1],[-1,-1],[-2,1],[-2,0],[0,-1],[-1,1],[-1,0],[0,2],[-1,0],[-2,1],[0,-1],[-3,0],[-1,-1],[-1,0]],[[788,557],[-1,0]],[[787,557],[0,1],[1,-1]],[[462,255],[1,0]],[[463,255],[1,0],[0,-1],[-1,0],[0,-1],[1,0],[0,-2],[1,-2],[-1,0],[0,-2],[1,1],[0,-1],[2,0],[0,-1],[1,-1],[2,0],[-1,-1],[2,0],[0,-1],[1,-1],[1,1],[1,0],[2,-2],[1,0],[1,-1],[-1,-1],[1,-1],[-1,0],[-2,-1],[0,-1],[-2,0],[0,-1],[-1,0],[1,-1],[4,0],[0,-2],[-1,0],[1,-1],[1,0],[1,-1],[-1,0],[0,-3],[1,1],[1,-1],[3,0],[0,-1],[2,0],[0,-1],[1,0],[0,1],[1,0],[0,-1],[1,0],[0,-1],[1,0],[0,-1],[2,-1],[1,0],[0,-1]],[[492,220],[0,1]],[[492,221],[1,0],[2,-2],[-1,0],[0,-1],[2,0],[0,-1],[1,-1],[0,-1],[1,0],[1,-1],[-1,-1],[1,-1],[1,0],[-2,-2],[-2,0],[0,-1],[2,0],[1,-1],[0,-5],[-1,0],[-2,-2],[1,0],[2,-1],[0,-2],[-2,-2],[-1,0],[1,-1],[0,-3],[-1,1],[-1,0],[1,-2],[1,0],[-1,-1],[0,-1],[2,-1],[1,-1],[0,1],[2,0],[-1,-1],[1,-1],[0,-1],[1,0],[0,-2],[1,0],[1,-1],[-1,0],[-2,-2],[-1,0],[-1,-1],[-4,0]],[[495,178],[0,1]],[[495,179],[1,1],[0,2],[2,0],[-1,1],[-2,0],[-2,-1],[0,-1],[-1,-1],[0,-1],[-2,0],[0,-1],[-1,-1],[-1,1],[0,3],[-1,1],[-2,0],[-1,-1],[-3,3],[-1,0],[-1,-1],[1,-1],[-1,-1],[-1,0],[0,-1],[1,0],[-1,-1],[1,-1],[-1,0],[1,-1],[1,0],[1,-1],[0,-1],[1,0],[1,-1],[0,-1],[2,-1],[0,-1],[-3,0],[0,-2],[1,0],[0,-1],[1,-3],[0,-1],[-1,0],[0,-2],[1,-1],[-2,-1],[-4,0],[-1,-1],[-2,0],[1,-1],[0,-1],[-1,-1],[-3,0],[-2,-1],[0,-1],[-1,0],[0,-2],[-4,0],[-2,1],[0,2],[-1,0],[-1,-1],[-3,-2],[-4,1],[0,-2],[-1,-1],[1,-1],[1,0],[-1,-1],[-2,-1],[0,-2],[-2,0],[-3,-3],[0,-1],[1,-1],[0,1],[1,0],[1,-1],[0,-1],[1,-2],[0,-1],[2,-1],[2,-4],[1,-1],[1,0],[0,-6],[1,-1],[0,-2],[1,-1],[0,-3],[3,-6],[0,-1],[2,-2],[1,0],[0,-5],[1,0],[-1,-1],[1,-1],[-1,-1],[-1,-2],[1,-1],[-1,-1],[-1,-2],[0,-3],[-1,-1],[-2,0],[-1,-2],[1,-1],[2,-1],[0,-4],[-1,-1],[0,-3],[-1,-1],[-2,0],[1,-2],[1,1],[1,0],[0,-2],[1,0],[0,-1],[2,-2],[0,-1],[1,-1],[-2,0]],[[462,69],[1,0]],[[463,69],[0,-1],[-3,0],[-3,-2],[1,0],[1,-1],[0,-1],[3,-1],[1,0],[0,-6],[1,-1],[1,0],[0,-2],[-1,0],[0,-2],[-2,-1],[-2,0],[0,-1],[-1,-1],[-1,-2],[0,3],[-1,3],[-2,0],[0,-1],[-2,0],[0,1],[-3,0],[-3,-3],[0,-1],[-3,1],[-1,-1],[-1,1],[-4,1],[-1,0],[0,1],[-5,0],[0,-1],[-1,0],[0,-1],[-1,-1],[-2,0],[0,-2],[-1,-1],[-1,0],[-3,-2],[0,-1],[-1,0],[0,1],[-1,0],[-1,-1],[-3,0],[0,1],[-2,-1],[-1,1],[-1,0],[0,-1],[-2,0],[0,-2],[-2,0],[0,-1],[-2,0],[-5,-5]],[[402,35],[-3,0],[-1,1],[-3,0],[-7,5],[0,1],[-1,0],[-3,3],[-1,0],[-1,1],[-2,0],[-1,1],[-3,1],[-7,2],[-1,0],[-7,-1],[-1,0],[-2,2],[-3,0],[-4,1],[-8,1],[-3,-1],[-10,-4],[-2,1],[-2,4],[-1,0],[1,1],[-1,1],[1,0],[1,-1],[1,1],[-1,0],[0,1],[-3,0],[0,1],[-2,0],[-1,1],[-1,0],[0,1],[1,0],[-1,1],[-1,0],[0,-1],[-1,0],[-2,-2],[0,-1],[3,0],[1,-2],[-1,0],[0,-2],[-1,0],[-3,2],[-3,0],[-1,1],[1,1],[0,1],[-2,1],[0,2],[1,1],[2,0],[0,1],[-2,1],[-3,0],[-1,1],[0,1],[-2,2],[-1,0],[0,1],[-1,0],[0,-5],[-3,0],[0,2],[-1,1],[1,1],[-1,1],[-4,0],[0,1],[-1,0],[0,-1],[-1,-1],[2,0],[0,-2],[-1,0],[-1,1],[-1,0],[-2,-1],[-1,-1],[-1,1],[-2,-1],[-1,0],[-1,-1],[-1,0],[0,-1],[-2,-2],[1,-1],[0,-1],[-1,0],[-2,-1],[-1,-1],[-2,-1],[2,-2],[-1,-1],[0,-1],[1,0],[1,-1],[1,0],[1,-1],[1,0],[1,1],[0,-2],[1,-1],[0,2],[1,-1],[5,0],[0,2],[1,0],[0,1],[3,0],[1,-1],[2,1],[0,1],[1,0],[0,-1],[2,-2],[1,0],[-2,-2],[-1,0],[1,1],[0,1],[-2,-1],[0,-2],[1,-1],[0,-1],[-2,-2],[-2,0],[0,2],[-1,1],[-4,2],[-3,-3],[-2,0],[-1,-1],[-1,0],[0,-2],[1,-1],[1,0],[1,1],[1,-1],[-1,-1],[-2,0],[-4,-1],[-1,1],[-3,0],[-1,-1],[-2,0],[-1,1],[-3,0],[-1,1],[-2,1],[-1,1],[1,1],[-1,1],[-6,0],[0,-1],[-1,0],[-2,2],[-1,0],[-1,-1],[0,-1],[-2,0],[0,-1],[-2,0],[-1,-1],[-1,0],[0,-1],[-3,0],[0,-1],[-1,0],[0,-2],[-3,0],[-1,1],[0,-1],[-2,0],[-1,-1],[-3,0],[0,1],[-6,0],[0,-2],[-2,0],[-2,1],[-1,1],[0,1],[1,0],[-2,2],[0,1],[-3,0],[-3,-1],[-1,1],[-2,0],[0,-3],[-2,-1],[-5,-2],[-4,0],[-2,-1],[-2,0],[-2,1],[-1,1],[-2,1],[1,1],[0,-1],[1,0],[1,1],[2,0],[1,1],[0,1],[-1,1],[1,0],[1,1],[-2,-1],[-1,0],[-2,1],[-2,-2],[-1,0],[-2,-1],[0,1],[-2,1],[1,0],[0,2],[-1,1],[-1,0],[0,1],[-1,1],[0,1],[-1,0],[-2,2],[-1,0],[0,1],[-1,0],[0,3],[-1,2],[0,1],[2,0],[0,1],[1,0],[0,1],[1,0],[0,3],[-1,1],[0,1],[-1,1],[0,2],[3,6],[1,1],[0,2],[-1,1],[0,2],[3,3],[0,5],[1,0],[2,2],[1,2],[0,2],[-1,0],[0,2],[-1,0],[-1,1],[0,1],[-1,0],[0,1],[-1,0],[-1,1],[1,3],[-1,2],[0,2],[1,0],[0,4],[1,1],[1,0],[0,1],[1,1],[0,2],[1,1],[0,1],[1,0],[1,1],[0,1],[1,1],[0,1],[2,1],[1,1],[1,2],[0,3],[2,5],[2,2],[3,1],[0,1],[1,0],[-1,1],[0,3],[-1,3],[0,2],[2,4],[1,1],[0,1],[1,1],[0,5],[2,0],[2,2],[0,8],[-1,1],[1,1],[0,1],[1,0],[1,2],[1,1],[0,2],[2,2],[1,0],[2,1],[1,1],[1,0],[8,8],[0,4],[5,0],[1,1],[0,2],[1,1],[3,0],[2,1],[2,2],[1,2],[0,2],[1,1],[0,2],[3,4],[2,3],[1,0],[2,3],[0,1],[1,0],[0,1],[3,0],[1,1]],[[258,218],[3,1],[1,1],[0,1],[1,0],[1,1],[0,1],[1,1],[0,3],[1,1],[0,1],[5,5],[0,1],[1,1],[0,3],[1,2],[0,2],[-1,0],[1,2],[1,1],[0,1],[2,2],[0,2],[-1,0],[-1,-1],[1,2],[2,2],[4,2],[0,1],[1,0],[0,1],[1,0],[2,1],[0,2],[-1,0],[-2,1],[-1,1],[0,1],[1,1],[1,0],[2,2],[1,0],[0,1],[1,2],[0,2],[-2,-2],[-2,0],[0,2],[1,0],[2,2],[0,1],[1,2],[0,1],[-1,1],[-4,0],[-2,1],[2,2],[1,0],[-2,3],[-4,8],[1,3],[0,1]],[[278,297],[2,0],[1,1],[2,0],[6,-6],[1,-2],[3,-1],[4,0],[3,3],[-1,2],[-1,4],[-1,0],[-1,1],[1,1],[9,2],[2,0],[0,-1],[-1,-1]],[[307,300],[-1,1],[0,-1],[1,-1],[0,1]],[[307,300],[1,-1],[0,-1],[-1,0],[0,-3],[1,-1],[0,-2],[1,0],[0,-1],[2,-1],[1,-1],[1,0],[3,-1],[3,0],[1,1],[1,0],[1,-1],[-1,-1],[2,-2],[1,0],[0,1],[2,0],[1,1],[2,0],[0,-1],[1,0]],[[330,287],[0,-1]],[[330,286],[0,-2],[-2,-2],[-2,0],[0,1],[-1,1],[-3,-2],[0,-1],[1,0],[0,-4],[-1,-1],[-2,0],[0,-2],[1,-1],[1,0],[0,1],[1,0],[1,-1],[2,0],[1,2],[1,0],[2,1],[0,3],[1,0],[1,-1],[1,1],[0,1],[3,0],[-2,2],[1,2],[1,0],[0,3],[1,0],[1,-1],[1,1],[3,0],[1,-1],[2,0],[1,2],[2,2],[2,-1],[2,0],[1,-2],[1,1],[1,0],[0,1],[-1,1],[-3,2],[-2,2],[0,2],[1,-1],[0,-1],[2,0],[0,2]],[[352,296],[15,0],[1,1],[0,1],[1,0],[1,1],[0,1],[1,0],[1,1],[-1,1],[0,1],[1,1],[1,0],[1,1],[0,1],[1,0],[3,-1],[2,0],[1,1],[2,-2],[3,1],[1,1],[-2,2],[1,1],[-1,0],[1,1],[1,0],[0,3],[-1,1],[-1,0],[0,1],[-2,1],[0,-3],[-1,-1],[-2,0],[-1,2],[1,1],[1,0],[-2,1],[-3,0],[-3,1],[3,0],[0,2],[-1,1],[3,0],[1,1],[2,0],[0,1],[1,0],[1,-1],[1,0],[1,1],[1,0],[1,1],[1,0],[2,-2],[2,0],[0,1],[1,1],[3,0],[1,-1],[0,-2],[4,0],[0,-1],[1,-1],[1,0],[-1,1],[0,3],[7,0],[3,1],[0,-1],[-1,0],[0,-1],[1,-1],[-1,-1],[0,-3],[-1,0],[1,-1],[0,-1],[-1,0],[-1,-2],[1,-1],[2,-1],[1,0],[2,1],[0,3],[3,0],[0,1],[1,0],[0,-2],[1,-1],[0,-2],[2,0],[1,1],[0,2],[2,1],[1,0],[1,1],[0,1],[1,0],[0,-2],[2,-1],[1,0],[0,-1],[1,0],[0,-3],[-1,-1],[0,-1],[1,0],[0,-2],[1,0],[1,-1],[2,-4],[-1,0],[0,-1],[-1,0],[-1,-1],[0,-2],[-2,-2],[-1,0],[0,-1],[1,0],[4,-1],[0,3],[1,0],[0,1],[1,0],[2,1],[1,0],[1,-1],[-1,0],[-1,-1],[0,-1],[3,0],[0,-1]],[[441,293],[1,0]],[[442,293],[0,-1],[-1,0],[1,-1],[0,-2],[-1,0],[0,-1],[1,-1],[-1,-1],[0,-1],[1,-1],[10,0],[0,1],[1,1],[2,1],[1,1],[0,1],[-1,0],[0,1],[1,1],[1,0],[0,1],[2,0],[1,-1],[0,-1],[-1,0],[0,-2],[2,0],[2,-1],[-2,-1],[0,-2],[2,-1],[0,-2],[-1,0],[-2,-2],[3,0],[1,-1],[1,-2],[1,-1],[1,-2],[0,-1],[-1,-1],[-2,1],[-2,-1],[1,-1],[0,-1],[-1,-1],[1,0],[0,-1],[-1,0],[-1,-1],[1,-1],[2,-1],[1,0],[1,-1],[-2,-2],[3,-3],[-1,0],[0,-2],[-2,0],[0,1],[-1,-1],[0,-1]],[[461,74],[-1,0],[0,-1],[1,1]],[[311,289],[0,-1],[1,1],[-1,0]],[[305,301],[2,0],[-1,1],[-1,-1]],[[310,54],[-3,0],[-2,-1],[-1,0],[0,1],[1,0],[1,1],[-1,1],[0,1],[1,0],[1,-1],[0,1],[2,0],[0,-2],[1,0],[0,-1]],[[425,805],[0,-1],[1,-2],[-1,0],[0,-2],[2,-2],[1,0],[0,-2],[1,-1],[0,-1],[1,0],[2,-1],[3,-3],[0,1],[4,3],[2,-1],[0,-3],[-1,-2],[1,0],[1,1],[2,0],[0,1],[1,0],[2,-1],[1,-1],[2,2],[2,0],[1,1],[-1,0],[0,1],[2,0],[1,1],[0,1],[1,1],[3,-2],[3,-3],[2,0],[3,-3],[2,-1],[7,0],[2,2],[0,1],[6,2]],[[484,791],[2,-1],[3,0],[8,-4],[4,-1],[3,-2],[4,0],[1,-1],[2,0],[2,-1],[1,0],[1,1]],[[515,782],[2,1],[4,-1],[6,0],[2,-1],[1,-1],[0,-1],[3,0],[0,-2],[1,0],[1,-1],[3,-1],[2,0],[1,-1],[1,0],[1,1],[0,1],[2,0],[0,1]],[[544,777],[1,0]],[[545,777],[1,-1],[1,1],[-1,0],[0,1],[3,0],[1,1],[0,1],[1,0],[0,-1],[1,0],[1,-1],[5,0],[-1,-1],[1,0],[1,-1],[0,-2],[1,0],[0,-1],[-1,0],[1,-2],[2,0],[3,-4],[0,-1],[3,-3],[3,-2],[3,0],[0,-1],[4,-1],[2,-1],[-1,-2],[-1,-1],[1,-2],[1,0],[2,1],[6,-3]],[[588,751],[0,-3],[1,0],[1,-2],[2,0],[4,-4],[1,0],[4,1],[4,2],[4,0],[2,-2],[1,0],[1,-1],[1,0],[0,-1],[2,0],[1,1],[2,0],[0,-1],[1,-1],[4,0]],[[526,561],[-2,-1],[0,-1],[-2,0],[-2,-1],[0,-2],[-1,0],[1,-2],[0,-1],[3,0],[-1,-2],[0,-1],[-1,0],[-2,1],[-1,0],[0,1],[-2,1],[-1,-1],[-1,0],[0,-1],[-3,-1],[-5,0],[-2,2],[-1,0],[-6,2],[-6,0],[0,-3],[-1,-1],[0,-2],[-1,0],[-1,-1],[0,-1],[-1,-1],[-3,0],[-1,-2],[0,-1],[-2,0],[-1,-1],[-3,0],[-1,-2],[-2,0],[0,1],[-1,0],[-1,1],[-1,-1],[-1,-2],[0,-1],[-1,0],[0,-1],[-3,0],[-1,-1],[1,0],[0,-1]],[[467,534],[-1,0]],[[466,534],[-7,0],[0,-1],[-1,-1],[-1,0],[0,2],[-1,0]],[[455,534],[1,0]],[[456,534],[-1,-1],[-2,-1],[-2,0],[0,-1],[-1,-1],[-1,0],[-1,-1],[-2,0],[-1,-1],[-1,0],[0,-1],[-2,0]],[[442,527],[0,3],[-1,0],[-1,1],[0,1],[-3,0],[0,-2],[-1,1],[-2,1],[0,-3],[1,0],[-1,-1],[1,-1],[1,0],[-1,-1],[-1,0],[-1,2],[0,2],[-2,1],[-3,0],[0,-3],[-3,0],[-2,-1],[-1,-1],[-2,0],[-2,-1],[0,-1],[2,-1],[0,-1],[2,-2],[1,0],[2,2],[0,-4],[-4,-2],[-1,1],[-2,1],[-3,0],[0,1],[-5,0],[0,1],[-3,0],[-1,1],[-2,1],[-1,0],[-1,2],[-1,1],[2,0],[1,1],[-1,0],[-1,1],[1,1],[0,1],[1,0],[0,1],[3,0],[1,1],[1,0],[2,1],[-1,1],[0,5],[1,0],[0,1],[-1,0],[-1,1],[-4,5],[0,1],[1,-1],[1,0],[1,1],[1,2],[-1,1],[0,1],[1,-1],[3,0],[-1,1],[-1,0],[0,1],[-1,1],[1,1],[1,0],[3,-2],[2,0],[0,2],[-1,1],[-1,0],[-2,2],[-1,0],[0,1],[-1,1],[0,2],[-2,0],[-2,-1],[-3,0],[-1,1],[-1,0],[0,1],[-1,-1],[-2,-1],[-3,0],[0,4],[-2,-1],[-1,0],[-1,-1],[-2,1]],[[389,562],[-2,0],[-4,-1],[-1,1],[1,2],[1,1],[0,1],[-1,1],[1,0],[1,1],[0,1],[-1,0],[0,1],[-1,1],[1,1],[-1,1],[-1,0],[0,1],[1,0],[0,2],[2,0],[1,1],[0,1],[4,2],[-1,1],[0,1],[-1,0],[0,2],[1,0],[0,2],[-1,0],[2,2],[1,0],[0,1],[-1,0],[-1,-1],[-3,0],[-1,1],[-5,0],[-2,-1]],[[376,588],[2,0]],[[378,588],[0,3],[1,2],[-1,2],[-1,1],[-2,1],[-2,0],[-2,1],[0,2],[-1,0],[2,2],[-1,0],[0,1],[-1,0],[0,1],[-3,0],[-2,-1],[-1,0],[0,-1],[-2,0],[0,1],[-2,2],[1,0],[0,1],[2,0],[-2,1],[0,1],[2,0],[-1,2],[-1,0],[-1,1],[0,3],[2,2],[-2,2],[-1,0],[-2,2],[0,-1],[-1,0],[0,1],[2,2],[0,1],[-1,1],[-3,1],[-1,-1],[-1,0],[-2,1],[-1,0],[0,1],[-2,0],[-1,-1],[-1,0],[-2,-1],[-1,0],[1,2],[0,3],[-1,0],[-1,2],[-1,0],[0,1],[1,0],[1,-1],[1,1],[0,-2],[3,0],[0,4],[-1,1],[1,1],[0,-1],[2,0],[1,1],[0,1],[-2,0],[-2,2],[-3,0],[0,1],[-3,0],[-1,1],[1,0],[0,1],[-1,0],[0,1],[2,1],[0,3],[1,0],[0,2],[2,0],[1,1],[0,1],[2,0],[1,-1],[2,2],[1,0],[0,1],[1,1],[1,0],[0,2],[2,2],[1,2],[0,1],[-2,0],[0,2],[-1,1],[0,1],[2,1],[1,1],[0,1],[1,0],[-1,1],[-2,0],[-1,1],[0,1],[-1,-1],[-2,1],[-2,0],[-1,-2],[-1,-1],[-1,0],[-1,-2],[-1,-1],[-1,0],[0,1],[-2,-1],[0,-1],[1,0],[-1,-1],[0,-1],[-1,0],[-1,-1],[0,-1],[-2,0],[0,-1],[-1,-1],[-1,0],[-2,1],[-1,-1],[0,1],[-1,-1],[-2,-1],[-1,1],[0,-1],[-2,0],[-6,1],[-1,0],[-1,-1],[-4,0],[-1,1],[-1,-1],[-1,1],[1,1],[-1,1],[1,1],[0,1],[-1,1],[0,3],[1,0],[-1,2],[0,1],[-1,0],[1,2],[-1,1],[-1,0],[0,1],[-2,0],[-2,2],[-10,-4],[-4,1],[-1,1],[-1,0],[0,-1],[-2,-1],[-1,0],[-2,-1],[0,-4],[-3,-2],[0,1],[-1,0],[0,-1],[-1,0],[-1,1],[-1,-1],[-4,0],[-1,1],[-2,0],[-2,1],[-1,-1],[1,-1],[-1,-1],[1,0],[0,-1],[1,-1],[0,-2],[1,-1],[2,0],[2,-1],[3,-1],[5,-3],[1,-1],[2,-4],[0,-1],[1,0],[-1,-1],[-1,0],[0,-3],[1,-1],[0,-1],[-1,-1],[1,0],[0,-1],[-1,-1],[0,-2],[-1,-1],[0,-1],[1,-2],[2,0],[5,-1],[-5,-4],[-2,0],[-5,-3],[-1,-1],[1,-1],[-2,-1],[-2,0],[-1,1],[-2,1],[-2,0],[-2,-1],[-3,1],[0,1],[-2,0],[0,-2],[-2,0],[-2,-1],[-3,-3],[-1,-2],[-3,0],[-1,1],[-6,-3],[-1,1],[-6,0],[-4,-2],[-2,-2],[-7,2],[0,1],[-3,3],[2,2],[2,0],[3,1],[2,1],[0,1],[4,0],[0,4],[-1,0],[1,1],[1,0],[1,1],[-1,0],[0,1],[-9,0],[-1,1],[-2,1],[0,2],[-1,0],[2,2],[1,0],[0,5],[1,1],[1,0],[2,1],[-3,2],[0,1],[2,1],[4,0],[-1,1],[-2,1],[-1,2],[0,1],[-1,0],[0,2],[-1,1],[-1,0],[-3,1],[-1,1],[-2,-1],[-3,-1],[-3,0],[-3,1],[-3,2],[-1,0],[-2,1],[-2,0],[-1,2],[0,3],[-2,2],[-2,0],[-6,3],[-1,0],[-1,-1],[-2,-3],[0,-2]],[[186,662],[-1,0]],[[185,662],[2,0],[2,-1],[0,-1],[-1,-1],[-1,0],[0,-2],[-1,-1],[0,-1],[-1,0],[-1,-1],[-2,0],[-4,-1],[-1,0],[-3,-2],[-2,-1],[-1,0],[-1,-2],[0,-1],[-3,0],[0,-1],[-2,0],[-1,-1],[-1,0],[0,-1],[-1,-1],[-4,0],[-2,-2],[-16,0],[-3,-1],[-2,-1],[0,-1],[-4,0]],[[131,638],[-3,2],[-2,2],[0,2],[2,3],[1,1],[1,2],[1,1],[0,4],[-1,3],[-2,0],[-1,1],[0,1],[-1,1],[-1,0],[0,1],[-1,1],[-2,4],[-1,0],[-1,-2],[-2,-2],[-1,0],[-8,2],[-2,0],[0,1],[-8,0],[-3,1],[-1,0],[-2,1],[-1,1],[-2,0],[0,1],[1,0],[0,4],[-1,1],[-1,3],[2,-1],[1,0],[1,2],[5,0],[-4,2],[-1,1],[0,2],[1,2],[-2,1],[3,3],[3,0],[2,1],[3,-1],[5,0],[1,1],[3,-1],[2,0],[1,-1],[3,0],[3,1],[3,-1],[4,-1],[1,1],[2,15],[0,7],[1,1],[1,2],[0,2],[3,3],[0,1],[1,1],[1,0],[2,3],[3,4],[1,1],[0,1],[1,3],[1,2],[1,1],[-1,1],[0,5],[-1,2],[0,6],[-2,1],[0,2],[1,1],[0,2],[1,1],[2,1],[-1,1],[1,2],[-1,5],[2,2],[1,2],[0,4],[1,0],[0,2],[7,0],[-1,1],[-3,0],[-4,1],[-23,0],[-3,3],[0,2],[1,0],[0,3],[1,1],[0,3],[1,5],[0,2],[3,3],[-1,1],[-1,2],[0,1],[4,-1],[2,0],[0,-1],[4,1],[1,1],[-3,2],[-2,2],[0,1],[3,2],[1,1],[2,1],[1,2],[1,1],[1,0],[1,1],[5,3],[2,1],[1,0],[3,1],[1,0],[3,1],[17,0],[3,-1],[2,-1],[3,1],[4,0],[2,1],[11,2],[6,0],[2,1],[4,0],[5,1],[6,0],[11,-1],[2,-1],[-1,-1],[0,-3],[1,-1],[1,-3],[1,0],[1,1],[2,0],[4,-4],[0,-1],[1,-1],[3,0],[0,-2],[-1,0],[0,-1],[1,-1],[0,-1],[2,-2],[-2,-2],[1,0],[-1,-2],[-6,-1],[-2,-1],[-2,1],[0,-4],[4,-4],[2,1],[1,0],[3,-1],[4,-4],[1,0],[0,-1],[1,0],[4,-1],[1,1],[2,0],[1,1],[1,2],[1,0],[0,2],[1,1],[1,3],[0,5],[-2,1],[-8,0],[1,5],[1,3],[2,2],[2,1],[1,1],[5,0],[5,-5],[8,-3],[7,0],[0,-1],[2,-1],[1,0],[1,-1],[-1,-1],[0,-1]],[[292,801],[-1,0],[-1,-1],[-1,0],[-2,-2],[-1,-2],[3,0],[2,1],[4,1],[1,0],[2,-1],[2,1],[3,3],[0,1],[-1,1],[0,2],[1,1],[-2,0],[-2,3],[1,0],[2,2],[0,1]],[[302,812],[1,0],[0,1]],[[304,813],[-1,0]],[[303,813],[-1,-1]],[[302,812],[-2,1],[-2,-1],[-1,-1],[-1,1],[-3,0],[-2,1],[-2,0]],[[289,813],[-1,2],[-3,4],[0,6],[1,1],[2,4],[0,1],[1,0],[0,2],[2,3],[0,1],[1,4],[2,2],[1,0],[2,3],[2,2],[7,2],[2,-2],[1,0],[3,-3],[5,-3],[6,0],[8,-1],[3,1],[2,0],[4,1],[3,-1],[1,0],[0,1],[6,2],[10,1],[1,0],[8,-1],[3,0],[0,-1],[4,-2],[0,-1],[1,0],[0,-1],[3,-4],[5,-5],[2,-3],[4,-3],[2,-1],[1,-1],[0,-1],[3,-3],[0,-2],[2,-1],[1,-2],[1,-1],[1,0],[1,-2],[2,0],[2,-1],[1,-1],[2,-1],[2,0],[1,-1],[2,-1],[2,0],[0,-1],[2,0],[0,1],[1,0],[0,-1],[5,0]],[[310,741],[2,-1],[2,0],[1,1],[0,1],[1,0],[1,-1],[0,-1],[2,-1],[2,0],[0,-1],[4,0],[0,-1],[2,1],[0,1],[-1,1],[1,0],[0,-1],[2,-2],[5,0],[0,1],[1,0],[0,1],[2,1],[1,0],[1,1],[0,1],[-1,0],[-1,1],[1,0],[-1,3],[1,1],[2,0],[-2,1],[-1,0],[-1,2],[3,1],[-3,3],[-3,0],[-1,-1],[0,-1],[-1,1],[-3,-1],[-1,0],[-3,2],[0,1],[-2,1],[-9,0],[-2,2],[-2,0],[-1,1],[-1,-1],[-3,0],[0,1],[-1,0],[-2,1],[-2,0],[-2,-1],[-1,1],[0,1],[1,0],[0,1],[-2,1],[0,-1],[-2,0],[-3,1],[-1,1],[-4,0],[0,-1],[2,-2],[6,-3],[2,0],[3,-1],[2,-1],[0,-1],[1,-2],[3,-3],[0,-1],[1,-1],[0,-2],[3,0],[2,-2],[-1,-2],[1,-1]],[[423,806],[0,0]],[[416,807],[-1,-1],[-1,1],[2,0]],[[406,811],[0,-1],[-1,1],[1,0]],[[398,821],[0,-1]],[[393,825],[-1,0],[-2,2],[2,-1],[1,-1]],[[230,835],[0,0]],[[221,837],[6,-1],[2,-1],[-6,0],[-3,1],[-2,0],[0,-1],[-1,0],[-1,1],[1,1],[4,0]],[[212,834],[-5,-1],[-8,0],[-1,-1],[-2,0],[0,2],[1,0],[3,1],[12,0],[0,-1]],[[192,831],[-11,0],[-1,-1],[-2,0],[-1,-2],[-4,0],[1,3],[2,1],[12,1],[5,-1],[-1,-1]],[[169,827],[-4,0],[-2,1],[4,2],[1,-1],[2,0],[1,-1],[-1,0],[-1,-1]],[[159,826],[-6,-1],[-3,0],[-2,1],[-2,0],[-2,-1],[-2,1],[-1,-1],[-2,0],[-1,1],[1,0],[5,2],[17,0],[0,-1],[-2,-1]],[[129,822],[-17,-2],[-2,1],[7,1],[6,1],[12,0],[-1,-1],[-5,0]],[[112,816],[0,-1],[-2,1],[-1,1],[0,1],[3,1],[1,0],[0,-1],[-1,-1],[0,-1]],[[109,811],[0,-1],[-1,1],[1,0]],[[95,809],[1,-1],[0,-1],[-2,1],[-1,0],[-1,-1],[-1,1],[-3,1],[-1,0],[0,1],[-2,1],[-1,1],[1,0],[1,1],[1,0],[7,1],[5,0],[2,-1],[-1,-1],[-2,0],[-1,-1],[-3,-1],[0,-1],[1,0]],[[689,699],[1,0]],[[690,699],[1,0],[-1,-1],[1,0],[1,-1],[0,-2],[1,0],[0,-1],[1,-2],[-1,-1],[0,-1],[1,-1],[-1,0],[0,-1],[1,0],[-3,-1],[-1,-1],[-1,0],[-2,1],[-1,-1],[1,0],[-1,-1],[1,0],[0,-4],[1,0],[-2,-2],[-2,-3],[0,-1],[1,0],[2,1],[1,-1],[-2,-2],[2,-2],[4,0],[0,1],[1,1],[0,1],[1,0],[2,-1],[0,-1],[1,-1],[0,-1],[1,-1],[1,1],[3,0]],[[703,670],[-1,0]],[[702,670],[0,-2],[2,0],[-1,-2],[-1,0],[0,-1],[-1,0],[0,-2],[-1,-1]],[[699,662],[1,0]],[[700,662],[0,-1],[-1,-1],[-1,0],[1,-1],[1,0],[1,-1],[0,-1],[-1,0],[0,-1],[1,0],[0,-2],[-2,0],[1,-1],[1,-2],[-2,-3],[-1,-2],[-1,0],[0,-1],[-2,-3],[0,-3],[1,-1],[1,0],[1,-1],[1,0],[1,-1],[-2,-1],[-2,0],[-1,-1],[0,-1],[-1,-1],[0,-1],[1,0],[0,-1],[-1,0],[-1,1],[-1,-2],[1,-1],[0,-1],[1,-2],[2,-1],[1,0],[1,-4],[2,0],[2,-1],[2,-4],[2,-1],[1,-1],[2,0],[1,-1],[2,-1],[3,-2],[2,0],[0,1],[1,1],[2,0],[1,-2],[1,-1],[4,-1],[1,-2],[7,-1],[1,1],[0,1],[3,0],[1,2],[2,0],[1,-1],[3,0],[2,-2],[3,0],[2,-1],[0,-2],[6,0],[2,1],[0,-2],[1,-1],[0,-2],[7,0],[0,1],[4,-1],[0,-1],[1,0],[1,-1],[0,-2],[8,0],[0,-1],[-1,0],[0,-1],[-1,0],[0,-1],[1,-1],[5,0],[0,1],[1,0],[0,-1],[1,1],[2,0],[0,1],[1,0],[1,-1],[0,-1],[1,0],[0,-1],[-3,-1],[1,-1],[1,-2],[0,-1],[1,0],[1,-2],[0,-2],[1,-1],[-1,0],[0,-1],[-1,-1],[0,-1],[1,0],[0,-1]],[[795,575],[-1,0]],[[794,575],[0,-1],[1,0],[0,-1],[1,-1],[1,-2],[-1,1],[-1,0],[0,-1]],[[795,569],[0,1]],[[795,570],[-1,0],[0,-3],[-1,-1],[-11,-4]],[[782,562],[-3,-2],[0,3],[-1,1],[-5,0],[0,-1],[1,-1],[-3,0],[0,-1],[-1,-1],[0,1],[-1,1],[-1,0],[-1,-1],[-1,0],[-1,1],[0,2],[-1,-1],[-2,0],[0,1],[-2,2],[-2,0],[0,-1],[-2,-1],[-2,0],[-1,-1],[0,-1],[-4,0],[-1,1],[-5,0],[-3,-3],[0,-1],[-1,0],[-1,-1],[-4,-1],[2,1],[0,1],[-2,0],[-1,-1],[-2,1],[-2,-2],[-2,0],[0,-1],[-5,0],[0,-1],[-2,0],[1,1],[-3,0],[-2,1],[0,-1],[-1,-1],[-1,0],[0,-2],[-2,0],[-1,1],[-3,0],[0,-1],[-1,1],[-1,0],[0,-1],[-1,1],[0,-1],[-2,0],[-1,-1],[0,-1],[-2,0],[-1,-1],[-4,0],[0,1],[-1,0],[-1,-1],[0,-1],[-2,-1],[-1,-1],[-1,0],[0,-4],[1,0],[0,-2],[-1,0],[-2,-1],[0,-1],[-1,-1],[-2,0],[0,-1],[1,0],[0,-3],[3,0],[0,-1],[1,-1],[-1,0],[0,-1],[-1,0],[0,-2],[1,-1],[-1,0],[0,-1],[1,0],[0,-1],[1,0],[-1,-1],[1,0],[0,-4],[-1,0],[-2,-1],[-2,0],[1,-2],[0,-2],[1,0],[1,-1],[-1,-1],[0,-1],[1,0],[0,-1],[1,-1],[1,-2]],[[690,509],[-1,0]],[[689,509],[0,-2],[1,-1],[-1,-1],[0,-1],[-1,-1],[-1,0],[0,-1],[4,0],[0,-1],[-1,-1],[0,-1],[-1,0],[0,-2],[2,-1],[2,0],[1,-1],[-1,-1],[-1,0],[0,-1],[1,-1],[3,-1],[2,0],[1,-1]],[[699,490],[-1,-1],[0,-1],[-1,0],[-1,-1],[0,-2],[-1,-1],[1,-1],[1,1],[1,0],[2,-2],[0,-1],[-1,0],[0,-2],[-1,0],[-1,-2],[-2,-1],[-2,-2],[1,0],[0,-2],[-2,-1],[-1,0],[0,2],[-2,0],[-1,2],[-2,0],[0,-2],[-2,1],[-2,0],[-2,1],[-11,0],[0,1],[1,0],[-2,1],[-1,1],[-1,-1],[-1,0],[-1,1],[1,1],[0,1],[1,0],[-1,1],[-2,0],[0,1],[-1,0],[0,1],[-1,-1],[-3,0],[0,1],[1,0],[-1,1],[-1,0],[-1,1],[0,1],[-2,0],[0,-1],[-11,0],[0,-1],[-1,0],[0,1],[-2,0],[1,1],[-4,2],[-1,-1],[-1,0],[0,3],[-1,1],[-2,1],[-1,1],[-1,0],[0,-1],[-1,0],[-1,1],[-2,-2],[0,1],[-2,1],[-3,1],[-1,-1],[-1,0],[-1,-1],[-6,0],[-2,1],[-1,1],[0,2],[-1,1],[2,0],[0,1],[1,1],[0,1]],[[612,500],[-1,0]],[[611,500],[-1,0],[0,3],[-1,0],[0,1],[-1,-1],[-1,2],[-1,1],[-3,-1],[-2,0],[0,1],[-1,1],[-1,0],[0,1],[2,2],[1,0],[0,-1],[2,0],[1,2],[2,1],[0,1],[1,0],[0,2],[1,1],[1,0],[0,1],[1,0],[-1,1],[-6,3],[2,1],[-3,0],[-1,1]],[[603,523],[-1,0]],[[602,523],[0,2],[-1,1],[1,0],[0,2],[-5,0],[-1,1],[-1,0],[0,1],[-1,1],[-2,0],[-2,-1],[-4,0]],[[586,529],[0,1]],[[586,530],[0,1],[-1,-1],[-2,2],[-1,-1],[-2,0],[-1,-1],[-1,1],[-1,-1],[-3,0],[-1,1],[-1,0],[-6,3],[-1,0],[-1,-1],[-1,0],[-2,-1],[-2,0],[0,1],[1,0],[0,1],[-3,-1],[0,1],[-2,0],[1,1],[0,2],[-1,0],[0,3],[1,0],[-2,2],[0,1],[-1,0]],[[553,543],[0,0]],[[552,543],[1,0]],[[553,543],[-1,1],[0,3],[1,0],[-2,2],[-1,0],[-1,1],[0,-1],[-1,0],[0,2],[-1,1],[0,1],[-1,0],[1,2],[4,0],[1,1],[-1,1],[-1,0],[0,1],[-2,-1],[-1,0],[-2,1],[-1,2],[-2,-1],[-2,0],[-2,2],[-4,0],[-1,1],[0,-1],[-7,0]],[[526,561],[-3,3],[0,2],[-1,1],[1,1],[0,2],[-1,1],[-1,0],[-2,2],[0,2],[-1,1],[-2,0],[-3,3],[1,0],[0,2],[-1,1],[0,3],[1,1],[-1,0],[0,1],[1,1],[1,0],[2,2],[2,1],[2,2],[0,1],[-2,2],[-1,0],[-1,1],[0,2],[1,1],[1,0],[1,1],[1,0],[-1,1],[-1,0],[-1,-1],[-1,1],[0,1],[-1,0],[0,1],[-2,0],[0,1],[-3,2],[1,1],[2,0],[1,1],[0,-1],[1,0],[3,1],[1,0],[0,1],[1,0],[0,2],[1,0],[1,1],[20,0],[2,1],[10,0],[1,2],[0,2],[-1,0],[-2,1],[0,1],[3,0],[4,2],[2,2],[2,0],[0,1],[1,1],[0,1],[1,1],[0,1],[-3,0],[-2,1],[-1,0],[1,2],[0,1],[1,1],[2,0],[1,1],[2,0],[1,1],[-1,2],[-2,0],[0,2],[-1,1],[0,1],[-1,0],[-1,-1],[-2,3],[2,1],[1,0],[0,1],[-2,3],[-2,0],[0,1],[-2,0],[0,1],[6,0],[2,1],[1,1],[0,2],[-2,1],[-1,1],[-2,0],[0,1],[-2,2],[-1,0],[-1,2],[-1,0],[-4,4],[0,2],[1,0],[0,2],[1,1],[6,0],[-5,4],[-1,1],[-1,2],[-1,1],[1,2],[0,1],[2,2],[1,0],[0,3],[-3,-1],[-2,-1],[-3,3],[0,1],[-1,1],[-1,0],[0,2],[-1,1],[-1,0],[-2,3],[-1,1],[0,1],[-1,1],[-3,0],[-1,2],[0,2],[-2,2],[-1,2],[-1,1],[1,1],[0,3],[1,2],[0,1],[2,0],[2,1],[6,0],[0,1],[1,-1],[1,0],[1,-1],[0,1],[1,1],[1,-1],[3,0],[3,3],[2,0],[0,1],[1,1],[0,2],[1,1],[11,0],[-1,-1],[0,-1],[6,0],[1,1],[6,-1],[1,0],[0,-1],[2,0],[0,-1],[4,0],[0,1],[1,0],[1,-1],[0,-1],[2,0],[2,1],[1,1],[2,0],[2,1],[3,1],[1,0],[1,1],[0,1],[2,0],[0,1],[1,1],[3,0],[2,1],[1,0],[-1,2],[0,2],[1,3],[1,1],[1,0],[2,-1],[2,0],[0,1],[-1,0],[1,1],[4,3]],[[624,740],[5,0],[-2,-2],[0,-2],[5,0],[1,-1],[0,-1],[2,-2],[1,0],[1,1],[2,1],[1,0],[2,-1],[3,-3],[4,0],[2,-1],[0,-2],[-1,-1],[-1,0],[0,-2],[1,0],[1,-1],[3,0],[2,-1],[1,-1],[5,0],[1,-1],[3,-1],[1,1],[2,0],[1,1],[3,-1],[1,1],[1,-1],[2,0],[0,-1],[3,0],[1,1],[0,1],[1,0],[-1,-2],[1,-1],[0,-1],[4,1],[2,0],[1,1],[2,-1],[0,-1],[1,0],[0,1],[1,-1],[1,-2],[0,-3],[1,0],[1,-2],[-1,0],[0,-2],[-3,0],[0,-2],[-1,0],[0,-1],[-1,-1],[1,0],[0,-1],[1,0],[0,-1],[-2,-2],[0,-1]],[[697,636],[1,0],[-1,1],[0,-1]],[[696,637],[0,0]],[[608,504],[-1,-1],[0,1],[1,0]]]}