{"type":"Topology","objects":{"data":{"geometries":[{"properties":{"index":1379,"nuts_2_code":"DED4","nuts_2_name":"Chemnitz"},"type":"Polygon","arcs":[[-84,82,-82,0,-92,-91,90,-90,-56,-55,54,-54,-53,-52,51,-51,-4,-3,2,-2]],"id":0},{"properties":{"index":1380,"nuts_2_code":"DED5","nuts_2_name":"Leipzig"},"type":"MultiPolygon","arcs":[[[-162,177,-161,-160,159,-159,-85,1,-3,2,3,-50,-7,-6,5,-5]],[[-178,-177]]],"id":1},{"properties":{"index":1384,"nuts_2_code":"DEE0","nuts_2_name":"Sachsen-Anhalt"},"type":"MultiPolygon","arcs":[[[-172,171,-171,-170,169,-169,-168,167,-167,-166,165,-165,-164,163,-163,4,-6,5,6,-49,-48,47,-47,-46,45,-45,-44,43,-43,-42,-41,40,-57,-360,-105,-173],[178],[179]],[[57]]],"id":2},{"properties":{"index":1386,"nuts_2_code":"DEF0","nuts_2_name":"Schleswig-Holstein"},"type":"MultiPolygon","arcs":[[[7]],[[8]],[[-15,9,-292,-291,-290,-104,-192,190,-199,-198,197,-197,-196,195,-195,10]],[[11]],[[12]],[[13]],[[14,15]],[[16]],[[-114,17]],[[18]],[[19]],[[20]],[[21]],[[22]],[[23]],[[24]],[[25]],[[26]],[[27]],[[28]],[[29]],[[30]],[[31]],[[32]],[[33]],[[34]],[[35]]],"id":3},{"properties":{"index":1388,"nuts_2_code":"DEA3","nuts_2_name":"M\u00fcnster"},"type":"Polygon","arcs":[[-40,-39,38,-38,-60,-226,36,-213,-212,-211]],"id":4},{"properties":{"index":1391,"nuts_2_code":"DEA4","nuts_2_name":"Detmold"},"type":"Polygon","arcs":[[-88,87,-87,366,-258,-59,37,-39,38,39,-210,-89]],"id":5},{"properties":{"index":1392,"nuts_2_code":"DEG0","nuts_2_name":"Th\u00fcringen"},"type":"Polygon","arcs":[[-41,40,-42,42,-44,43,44,-46,45,46,-48,47,48,49,50,-52,51,52,-54,-55,54,55,-100,-99,98,-98,-97,-96,-95,94,-94,-150,-249,-365,-364,363,-363,-362,361,-361,56],[57]],"id":6},{"properties":{"index":1394,"nuts_2_code":"DEA5","nuts_2_name":"Arnsberg"},"type":"Polygon","arcs":[[58,-257,-256,255,-255,-241,-61,-138,-227,59]],"id":7},{"properties":{"index":1398,"nuts_2_code":"DEB1","nuts_2_name":"Koblenz"},"type":"Polygon","arcs":[[-240,-236,-75,-74,73,-73,-72,71,-71,-70,69,-69,-81,-80,79,-79,-66,-65,64,-64,-63,62,-62,-133,-132,-131,-130,129,-129,-128,-127,60]],"id":8},{"properties":{"index":1399,"nuts_2_code":"DEB2","nuts_2_name":"Trier"},"type":"Polygon","arcs":[[61,-63,62,63,-65,64,65,-78,66,-136,-135,134,-134]],"id":9},{"properties":{"index":1402,"nuts_2_code":"DEB3","nuts_2_name":"Rheinhessen-Pfalz"},"type":"Polygon","arcs":[[-415,67,-76,68,-70,69,70,-72,71,72,-74,73,74,-235]],"id":10},{"properties":{"index":1404,"nuts_2_code":"DEC0","nuts_2_name":"Saarland"},"type":"Polygon","arcs":[[75,76,77,78,-80,79,80]],"id":11},{"properties":{"index":1406,"nuts_2_code":"DED2","nuts_2_name":"Dresden"},"type":"Polygon","arcs":[[81,82,83,84,-158,-157,156,-156,154,-154,-153,-152,85]],"id":12},{"properties":{"index":1409,"nuts_2_code":"DE92","nuts_2_name":"Hannover"},"type":"Polygon","arcs":[[-110,-109,-108,-107,-106,-376,-375,-374,-373,-372,-371,-370,-369,368,-368,-367,86,-88,87,88,-209,-208,207,-207,-183,-182,-181],[214]],"id":13},{"properties":{"index":1410,"nuts_2_code":"DE24","nuts_2_name":"Oberfranken"},"type":"MultiPolygon","arcs":[[[89,-91,90,91,92,-399,-398,397,-397,-396,395,-395,-394,-126,-392,-123,121,-121,-120,119,-119,117,-117,-148,-147,146,-146,-145,144,-144,-143,142,-142,-141,140,-140,93,-95,94,95,96,97,-99,98,99],[400]],[[123]],[[124]]],"id":14},{"properties":{"index":1412,"nuts_2_code":"DE27","nuts_2_name":"Schwaben"},"type":"MultiPolygon","arcs":[[[-244,-243,242,-242,-345,-344,343,-343,-116,100,270,-268,-267,266,-266,-265,264,-264,-263,262,-262,-261,260,-260,101],[102],[279],[280]],[[278]],[[246]]],"id":15},{"properties":{"index":1413,"nuts_2_code":"DE30","nuts_2_name":"Berlin"},"type":"MultiPolygon","arcs":[[[174]],[[175]]],"id":16},{"properties":{"index":1414,"nuts_2_code":"DE93","nuts_2_name":"L\u00fcneburg"},"type":"MultiPolygon","arcs":[[[-193,103,-289,-288,287,-287,-174,104,-377,105,106,107,108,109,-184,-205,-190,-189,-188,187,-187,-186,110],[377]],[[200]],[[111]],[[112]],[[113,-114]],[[114]]],"id":17},{"properties":{"index":1415,"nuts_2_code":"DE25","nuts_2_name":"Mittelfranken"},"type":"MultiPolygon","arcs":[[[-392,-391,-390,389,-389,-278,-277,276,-276,-275,274,-274,-273,272,-272,-271,-270,115,-342,-341,340,-340,-339,338,-338,-149,116,-118,118,-120,119,120,-122,122,391],[123],[124]],[[125,-394,-393]]],"id":18},{"properties":{"index":1417,"nuts_2_code":"DEA2","nuts_2_name":"K\u00f6ln"},"type":"Polygon","arcs":[[126,127,128,-130,129,130,131,132,133,-135,134,135,136,-228,137],[138]],"id":19},{"properties":{"index":1418,"nuts_2_code":"DE26","nuts_2_name":"Unterfranken"},"type":"Polygon","arcs":[[139,-141,140,141,-143,142,143,-145,144,145,-147,146,147,148,-356,-355,354,-354,-421,-234,-233,-232,-250,149]],"id":20},{"properties":{"index":1420,"nuts_2_code":"DE40","nuts_2_name":"Brandenburg"},"type":"MultiPolygon","arcs":[[[150,151,152,153,154,155,-157,156,157,158,-160,159,160,-178,161,162,-164,163,164,-166,165,166,-168,167,168,-170,169,170,-172,171,172,173,-286,-285,284,-284],[174],[175],[176,177]],[[178]],[[179]]],"id":21},{"properties":{"index":1421,"nuts_2_code":"DE50","nuts_2_name":"Bremen"},"type":"MultiPolygon","arcs":[[[180,-182,182,-206,183]],[[-204,184,185,186,-188,187,188,189]]],"id":22},{"properties":{"index":1422,"nuts_2_code":"DE60","nuts_2_name":"Hamburg"},"type":"MultiPolygon","arcs":[[[190,191,192,193,194,-196,195,196,-198,197,198]],[[199]],[[200]],[[201]],[[202]]],"id":23},{"properties":{"index":1423,"nuts_2_code":"DE94","nuts_2_name":"Weser-Ems"},"type":"MultiPolygon","arcs":[[[203,204,205,206,-208,207,208,209,210,211,212,213]],[[214]],[[215]],[[216]],[[217]],[[218]],[[219]],[[220]],[[221]],[[222]],[[223]],[[224]]],"id":24},{"properties":{"index":1424,"nuts_2_code":"DEA1","nuts_2_name":"D\u00fcsseldorf"},"type":"Polygon","arcs":[[225,226,227,228]],"id":25},{"properties":{"index":1426,"nuts_2_code":"DE13","nuts_2_name":"Freiburg"},"type":"MultiPolygon","arcs":[[[409,-409,-246,229,-413,-412,411,-411]],[[247]],[[230]],[[426]],[[427]]],"id":26},{"properties":{"index":1428,"nuts_2_code":"DE71","nuts_2_name":"Darmstadt"},"type":"MultiPolygon","arcs":[[[-251,231,-233,233,-420,-419,418,-418,-417,-416,234,235,-239,-238,237,-237]],[[424]],[[425]]],"id":27},{"properties":{"index":1429,"nuts_2_code":"DE72","nuts_2_name":"Gie\u00dfen"},"type":"Polygon","arcs":[[-253,252,-252,236,-238,237,238,239,240,-254]],"id":28},{"properties":{"index":1431,"nuts_2_code":"DE14","nuts_2_name":"T\u00fcbingen"},"type":"Polygon","arcs":[[241,-243,242,243,244,245,-408,-407,406,-406,-353,-352,351,-351,358,-350,-349,348,-348,-347,346,-346],[246],[247],[-359,-358]],"id":29},{"properties":{"index":1434,"nuts_2_code":"DE73","nuts_2_name":"Kassel"},"type":"Polygon","arcs":[[248,249,250,251,-253,252,253,254,-256,255,256,257,-366]],"id":30},{"properties":{"index":1436,"nuts_2_code":"DE21","nuts_2_name":"Oberbayern"},"type":"MultiPolygon","arcs":[[[-336,-335,334,-334,-333,332,-332,-331,330,-330,328,-328,258,259,-261,260,261,-263,262,263,-265,264,265,-267,266,267,268,269,270,271,-273,272,273,-275,274,275,-277,276,277,-388,-387,386,-386,-385,384,-384],[278]],[[279]],[[280]]],"id":31},{"properties":{"index":1440,"nuts_2_code":"DE80","nuts_2_name":"Mecklenburg-Vorpommern"},"type":"MultiPolygon","arcs":[[[-306,281,-296,282,283,-285,284,285,286,-288,287,288,289,290,291,292,-319,293]],[[294]],[[295,296]],[[297]],[[298]],[[299]],[[300]],[[301]],[[302]],[[303]],[[304]],[[305,306]],[[307]],[[308]],[[309]],[[310]],[[311]],[[312]],[[313]],[[314]],[[315]],[[316]],[[317]],[[318,319]],[[320]],[[321]],[[322]],[[323]],[[324]],[[325]],[[326]]],"id":32},{"properties":{"index":1441,"nuts_2_code":"DE22","nuts_2_name":"Niederbayern"},"type":"Polygon","arcs":[[327,328,329,-331,330,331,-333,332,333,-335,334,335,-383,-382,381,-381,-380,379,-379,336]],"id":33},{"properties":{"index":1444,"nuts_2_code":"DE11","nuts_2_name":"Stuttgart"},"type":"MultiPolygon","arcs":[[[337,-339,338,339,-341,340,341,342,-344,343,344,345,-347,346,347,-349,348,349,-359,350,-352,351,352,-405,-404,403,-403,-402,-424,-423,422,-422,353,-355,354,355],[428]],[[356]],[[357,358]]],"id":34},{"properties":{"index":1445,"nuts_2_code":"DE91","nuts_2_name":"Braunschweig"},"type":"MultiPolygon","arcs":[[[359,360,-362,361,362,-364,363,364,365,-367,366,367,-369,368,369,370,371,372,373,-375,375,376]],[[377]]],"id":35},{"properties":{"index":1446,"nuts_2_code":"DE23","nuts_2_name":"Oberpfalz"},"type":"MultiPolygon","arcs":[[[378,-380,379,380,-382,381,382,383,-385,384,385,-387,386,387,388,-390,389,390,391,392,393,394,-396,395,396,-398,397,398,399]],[[400]]],"id":36},{"properties":{"index":1449,"nuts_2_code":"DE12","nuts_2_name":"Karlsruhe"},"type":"MultiPolygon","arcs":[[[401,402,-404,403,404,405,-407,406,407,408,409,410,-412,411,412,413,414,415,416,417,-419,418,419,420,421,-423,422,423],[424],[425],[426],[427]],[[428]]],"id":37}],"type":"GeometryCollection"}},"bbox":[5.867377523004748,47.27013771911675,15.040835113705157,55.057160469255976],"transform":{"scale":[0.00918264023093134,0.007794817567706936],"translate":[5.867377523004748,47.27013771911675]},"arcs":[[[848,444],[-3,-1],[0,-1],[-3,-1],[-1,1],[-4,0],[-1,-1],[-2,-1],[1,-1],[1,0],[0,-3],[-2,0],[-1,-2],[0,-1],[1,0],[0,-1],[-3,0],[-4,-5],[-2,2],[-3,0],[0,1],[-1,1],[0,1],[-2,1],[-1,0],[0,1],[-1,-1],[1,-1],[0,-1],[-2,-1],[-1,-1],[-1,0],[-1,-1],[-1,0],[0,-3],[-3,-1],[-2,2],[-3,1],[-2,-3],[0,-1],[-1,0],[0,-1],[1,-1],[-2,-3],[-1,-1],[-1,0],[0,-2],[-6,0],[0,1],[-1,1],[-1,-1],[-4,-2],[-3,0],[0,1],[-1,0],[0,1],[-2,-1],[0,-1],[-1,-1],[0,-6],[-2,-1],[-1,-1],[-1,0],[0,-1],[-3,-1],[-2,0],[1,-1],[-1,0],[0,1],[-3,1],[-1,1],[-1,0],[-8,4],[-1,-2],[0,-1],[-2,2],[-4,-2],[-2,0],[-1,-1],[0,-1],[-2,-1],[0,-2],[-2,1],[-2,2],[0,-1],[-4,0],[-2,1],[-2,-2],[-2,0],[-2,-1],[-5,0],[-3,-3],[0,-3],[-1,0],[-1,1],[-1,-1],[-2,-1],[-1,-1],[0,-1],[-2,0],[-2,-1],[0,-1],[1,-1],[-1,-1],[0,-1],[-3,0],[-1,-1],[-1,-3],[0,-1],[1,0],[-1,-1],[-2,0],[0,-3],[-1,-1],[1,-1],[0,-1],[1,0],[-2,-2],[1,-1],[-4,1],[-2,2],[0,1],[1,0],[0,3],[-1,1],[-1,0],[-1,1],[-2,1],[1,1],[2,0],[-2,2],[-5,0],[0,2],[-1,1],[0,1],[1,1],[-2,0],[0,2],[-1,0],[-3,-1],[-5,0]],[[798,508],[-1,1],[-2,-1],[-2,0],[0,-1],[-5,0],[0,-1],[-6,0],[0,-1],[-1,-1],[-2,0],[-1,1],[-1,0],[0,1],[-1,0],[0,1],[-4,0],[-3,-1],[-3,0],[-1,-1],[0,-1],[-1,0],[0,-2],[-2,-2],[-1,0],[1,-1],[-1,0],[-1,-1],[1,0],[2,-1],[1,-1],[1,0],[0,-1],[-1,-1],[1,0],[0,-3],[-2,0]],[[763,490],[0,1]],[[763,491],[-4,0],[-3,-1],[-1,1],[0,1],[-6,0],[-1,-1],[1,-1],[-1,0],[-1,-1],[0,-1],[-1,-1],[0,-1],[1,0],[0,-3],[-2,-1],[1,-1],[1,0],[0,-1],[2,-1],[-1,-1],[-1,1],[-3,0],[0,-1],[-1,0],[0,-1],[-3,0],[0,-1],[-5,0]],[[782,562],[-3,-2],[0,3],[-1,1],[-5,0],[0,-1],[1,-1],[-3,0],[0,-1],[-1,-1],[0,1],[-1,1],[-1,0],[-1,-1],[-1,0],[-1,1],[0,2],[-1,-1],[-2,0],[0,1],[-2,2],[-2,0],[0,-1],[-2,-1],[-2,0],[-1,-1],[0,-1],[-4,0],[-1,1],[-5,0],[-3,-3],[0,-1],[-1,0],[-1,-1],[-4,-1],[2,1],[0,1],[-2,0],[-1,-1],[-2,1],[-2,-2],[-2,0],[0,-1],[-5,0],[0,-1],[-2,0],[1,1],[-3,0],[-2,1],[0,-1],[-1,-1],[-1,0],[0,-2],[-2,0],[-1,1],[-3,0],[0,-1],[-1,1],[-1,0],[0,-1],[-1,1],[0,-1],[-2,0],[-1,-1],[0,-1],[-2,0],[-1,-1],[-4,0],[0,1],[-1,0],[-1,-1],[0,-1],[-2,-1],[-1,-1],[-1,0],[0,-4],[1,0],[0,-2],[-1,0],[-2,-1],[0,-1],[-1,-1],[-2,0],[0,-1],[1,0],[0,-3],[3,0],[0,-1],[1,-1],[-1,0],[0,-1],[-1,0],[0,-2],[1,-1],[-1,0],[0,-1],[1,0],[0,-1],[1,0],[-1,-1],[1,0],[0,-4],[-1,0],[-2,-1],[-2,0],[1,-2],[0,-2],[1,0],[1,-1],[-1,-1],[0,-1],[1,0],[0,-1],[1,-1],[1,-2]],[[690,509],[-1,0]],[[689,509],[0,-2],[1,-1],[-1,-1],[0,-1],[-1,-1],[-1,0],[0,-1],[4,0],[0,-1],[-1,-1],[0,-1],[-1,0],[0,-2],[2,-1],[2,0],[1,-1],[-1,-1],[-1,0],[0,-1],[1,-1],[3,-1],[2,0],[1,-1]],[[588,923],[2,-3],[1,-1],[2,-4],[-2,0],[-4,1],[-6,0],[0,1],[-3,0],[0,-2],[-6,0],[-2,1],[-1,1],[1,1],[0,1],[-1,2],[-5,0],[-2,-1],[-2,0],[-1,1],[1,1],[0,3],[1,2],[2,3],[3,2],[10,-2],[2,0],[2,-1],[1,0],[3,-1],[2,-2],[0,-1],[2,-2]],[[580,916],[0,0]],[[454,948],[0,-1],[-1,-2],[1,-2],[-1,-1],[0,-8],[-3,-3],[0,-1],[-8,-4],[-5,-2],[-4,0],[0,-2],[2,-1],[6,0],[0,1],[2,1],[7,0],[0,1],[3,0],[11,2],[3,-2],[4,-2],[1,0],[-1,-1],[-1,0],[-2,-2],[3,-3],[0,-2],[-2,-1],[-1,0],[0,-1],[-2,-2],[0,-1],[1,-2],[-1,-2],[2,1],[1,2],[0,1],[1,1],[1,0],[0,2],[2,1],[0,1],[1,1],[0,1],[1,1],[7,0],[-1,1],[2,1],[6,0],[4,-1],[1,-1],[4,-2],[5,-2],[3,0],[2,-1],[1,0],[6,-2],[4,-2],[2,-2],[1,0],[1,-1],[1,0],[0,-1],[1,-1],[9,0],[3,1],[5,3],[2,2],[1,0],[6,3],[2,0],[1,1],[3,-1],[3,0],[-1,-1],[2,0],[6,1],[1,1],[1,0],[2,1],[0,-1],[1,1],[1,-1],[0,-1],[-1,-1],[-3,-2],[-4,0],[0,-1],[2,0],[0,-6],[1,-1],[0,-7],[1,-2],[0,-3],[-1,-1],[-2,0],[-2,-2],[-8,-4],[-2,0],[-1,-1],[0,-1],[-2,-1],[-3,-3],[-4,-2],[-1,1],[-4,0],[0,1],[-1,0],[-1,-1],[0,-1],[-2,-2],[-1,0],[-2,-2],[0,-2],[2,-3],[2,-2],[4,0],[2,-1],[1,1],[2,-1],[1,-1],[0,-3],[2,0]],[[421,808],[-7,0],[0,1],[-3,2],[-2,0],[-1,1],[-6,2],[-1,3],[-1,1],[0,1],[1,0],[0,-1],[1,-1],[-1,2],[0,3],[-3,4],[0,1],[-2,0],[-3,1],[-4,2],[0,1],[-1,1],[-2,4],[0,1],[-1,0],[0,2],[-1,1],[1,1],[-2,0],[-2,1],[-2,2],[-2,1],[-1,1],[-4,1],[-1,1],[-5,1],[-16,0],[-2,1],[-4,0],[-1,-1],[-5,1],[-6,4],[-1,0],[-2,3],[0,1],[-2,3],[-2,2],[-1,2],[-2,2],[6,2],[5,0],[1,-1],[3,0],[2,1],[0,2],[-1,0],[0,2],[-2,2],[-2,4],[-1,1],[-2,1],[-2,-1],[-1,0],[-2,-1],[-1,1],[-2,0],[-1,2],[-1,3],[-1,0],[0,1],[1,4],[2,1],[1,2],[-1,0],[0,3],[1,0],[0,1],[-1,3],[-1,1],[-3,-1],[-1,-1],[-1,0],[-1,1],[-2,1],[-1,0],[-2,-1],[-2,1],[0,-1],[-2,-1],[-1,0],[-3,1],[-2,2],[-2,1],[-1,1],[0,3],[5,0],[0,1],[2,0],[2,1],[1,0],[0,2],[-4,0],[-1,1],[0,1],[1,1],[2,1],[1,-1],[1,0],[5,1],[4,0],[2,1],[4,0],[2,-1],[2,0],[4,2],[2,2],[1,0],[3,3],[3,0],[2,2],[2,0],[-2,1],[0,3],[-2,1],[0,1],[-1,1],[-4,-2],[0,-1],[-1,-1],[0,-1],[-1,0],[0,-1],[-1,-1],[-3,-2],[-3,0],[-4,1],[-2,1],[1,1],[0,1],[-1,1],[1,1],[1,0],[2,1],[2,2],[1,0],[1,2],[0,1],[-1,0],[0,2],[2,4],[-1,2],[-2,0],[-2,2],[-1,2],[0,1],[-2,1],[-1,0],[-3,1],[-3,2],[0,2],[-1,2],[-2,1],[-3,0],[-1,1],[1,0],[1,1],[1,0],[-1,1],[0,1],[-1,1],[0,1],[1,1],[-2,2],[-3,0],[0,1],[-2,2],[-1,2],[-3,1],[1,2],[0,3],[-1,1],[2,1],[1,0],[1,1],[0,1],[5,0],[4,-2],[6,0],[2,1],[2,0],[1,1],[1,0],[2,-2],[1,0],[0,1],[9,0],[9,-3],[1,0],[1,-1],[11,0],[3,-1],[2,0],[2,-1],[3,-1],[1,0],[-1,-1],[0,-1],[1,-2],[0,-1],[4,0],[1,-1],[0,1],[4,0],[2,-1],[0,1],[3,2],[0,1],[1,1],[4,0],[0,-2],[2,-2],[-1,-1],[1,-1],[0,1],[3,3],[4,0],[0,1],[1,1],[6,2],[3,3],[1,-1],[0,-1],[-1,-2],[0,-1],[1,-1],[3,0],[1,-1],[3,0],[6,-2],[4,-1],[3,0],[5,-5],[2,-1],[2,0],[2,2],[1,0],[1,-1],[0,1],[-1,1],[0,2],[1,1],[5,-3],[3,-3],[0,-4],[1,-1],[1,0],[1,-1],[2,-1],[0,-1],[1,0],[0,-2],[-1,1],[0,1],[-1,0],[-2,-1],[-1,0],[0,2],[-1,0],[-1,-1],[1,-1],[-1,0],[-3,-1],[-1,-3],[0,-3],[-2,0],[-1,1],[0,-1],[-1,0],[-2,-1],[-1,-1],[0,-1],[-2,0],[-2,-1],[-1,-1],[-1,0],[-2,-2],[-3,0],[0,1],[-1,-1],[1,-1],[-4,-4],[-2,0],[0,-2],[-1,0],[-1,1],[-3,0],[-3,-1],[-1,-1],[-1,1],[1,1],[-3,0],[0,-1],[-2,-1],[-4,0],[0,-1],[3,0],[6,1],[1,0],[6,-3],[1,0],[1,2],[-2,2],[2,0],[1,1],[0,-1],[1,1],[1,0],[0,1],[1,1],[0,1],[2,0],[0,1],[2,0],[2,1],[0,1],[2,1],[1,0],[1,1],[2,1],[2,0],[1,1],[4,2],[1,0],[0,1],[1,1],[-1,2],[1,0],[-1,1],[2,2],[3,0],[1,-1],[1,0],[0,1],[1,-1],[0,-1],[2,0]],[[569,919],[-1,1],[1,0],[0,-1]],[[564,919],[0,-1],[-1,0],[1,1]],[[563,919],[0,0]],[[454,948],[-1,0]],[[453,948],[0,1],[1,0],[0,-1]],[[401,820],[-1,0],[0,1],[1,-1]],[[398,821],[0,1],[-1,0],[0,2],[-2,2],[1,0],[2,-2],[0,-1],[1,-1],[0,-1],[-1,-1]],[[386,833],[-1,0],[-1,2],[2,0],[0,-2]],[[337,872],[0,-1],[-1,1],[1,0]],[[323,941],[-2,-1],[-1,1],[3,0]],[[322,933],[-1,0],[-1,1],[-2,0],[2,1],[2,-2]],[[312,944],[-3,0],[1,1],[3,1],[0,-1],[-1,-1]],[[312,923],[0,0]],[[308,949],[-2,1],[2,0],[0,1],[1,-1],[-1,-1]],[[305,927],[-3,-1],[-2,0],[-3,2],[-1,2],[0,1],[1,1],[3,0],[2,1],[3,1],[1,0],[3,1],[0,-2],[-1,-3],[0,-1],[-3,-2]],[[307,870],[1,-1],[-1,0],[-1,1],[1,2],[1,0],[0,-1],[-1,-1]],[[303,945],[-7,0],[-4,-2],[-2,1],[1,1],[7,1],[4,1],[1,1],[1,-1],[0,-1],[-1,-1]],[[293,960],[3,-1],[0,-3],[1,0],[-1,-1],[0,-1],[-1,-1],[0,-1],[-2,-2],[-3,1],[-7,0],[-4,2],[-3,0],[-1,1],[0,1],[1,2],[1,0],[1,2],[2,0],[4,1],[9,0]],[[289,937],[2,0],[2,1],[2,-2],[0,-1],[-4,0],[0,1],[-2,0],[-1,1],[0,1],[1,-1]],[[278,999],[3,-1],[0,-1],[-2,1],[-3,-1],[0,-1],[3,0],[1,-1],[0,-1],[-4,-2],[-1,0],[-4,-4],[1,-3],[0,-5],[2,-2],[3,-1],[2,-1],[6,0],[3,1],[5,0],[-6,-1],[-2,-1],[-3,-2],[-5,-1],[-1,0],[-3,2],[-1,2],[-3,0],[0,-1],[-1,-1],[-2,0],[-1,-1],[-1,-3],[0,-1],[1,-1],[0,-1],[-1,-1],[0,-2],[1,-1],[-1,-4],[-1,1],[0,5],[1,10],[0,4],[1,1],[1,3],[1,2],[3,4],[3,6],[3,3],[2,1]],[[293,923],[-1,-1],[-1,1],[1,1],[1,-1]],[[289,931],[-1,0],[0,1],[1,-1]],[[275,942],[-2,-1],[-3,3],[-1,0],[-4,3],[0,1],[-1,1],[2,2],[3,2],[1,0],[0,-3],[2,-3],[1,-1],[1,0],[0,-2],[1,0],[0,-1],[1,0],[-1,-1]],[[224,887],[-2,0],[1,1],[1,-1]],[[221,886],[-1,0],[-1,1],[1,0],[1,-1]],[[59,585],[-1,1],[1,0],[-1,1],[1,0],[0,1],[-1,1],[-1,0],[0,1],[2,0],[2,-1],[4,0],[0,-1],[1,0],[3,1],[0,1],[2,0],[0,1],[2,0],[1,1],[1,0],[3,1],[1,0],[8,2],[0,1],[3,0],[2,-1],[1,-1],[2,1],[1,0],[1,1],[1,0],[3,3],[0,2],[1,0],[1,1],[2,0],[0,1],[-1,3],[-1,0],[0,1],[-7,4],[-4,1],[-3,0],[0,2],[1,2],[4,0],[2,1],[0,2],[1,0],[0,3],[11,0],[1,1],[0,1],[1,3],[1,0],[2,2],[1,0],[4,1],[3,3],[0,2],[1,1],[6,0],[2,1],[1,1]],[[267,572],[-1,1],[0,1]],[[265,574],[1,0]],[[266,574],[-1,1],[-1,0],[0,1],[-2,1],[-1,1],[-1,0],[0,4],[-2,0],[0,2],[-3,0],[-1,1],[1,1],[1,0],[0,1],[-1,2],[-3,0],[0,2],[-1,0],[0,1],[-2,2],[1,1],[1,0],[0,2],[-1,1],[-4,3],[-1,0],[0,1],[-1,0],[0,1],[1,0],[-1,2],[0,2],[-2,0],[-1,1],[2,6]],[[552,543],[1,0]],[[553,543],[0,0]],[[553,543],[1,0],[0,-1],[2,-2],[-1,0],[0,-3],[1,0],[0,-2],[-1,-1],[2,0],[0,-1],[3,1],[0,-1],[-1,0],[0,-1],[2,0],[2,1],[1,0],[1,1],[1,0],[6,-3],[1,0],[1,-1],[3,0],[1,1],[1,-1],[1,1],[2,0],[1,1],[2,-2],[1,1],[0,-1]],[[586,529],[0,1]],[[586,530],[4,0],[2,1],[2,0],[1,-1],[0,-1],[1,0],[1,-1],[5,0],[0,-2],[-1,0],[1,-1],[0,-2]],[[603,523],[-1,0]],[[602,523],[1,-1],[3,0],[-2,-1],[6,-3],[1,-1],[-1,0],[0,-1],[-1,0],[-1,-1],[0,-2],[-1,0],[0,-1],[-2,-1],[-1,-2],[-2,0],[0,1],[-1,0],[-2,-2],[0,-1],[1,0],[1,-1],[0,-1],[2,0],[3,1],[1,-1],[1,-2],[1,1],[0,-1],[1,0],[0,-3],[1,0]],[[612,500],[-1,0]],[[611,500],[0,-1],[-1,-1],[0,-1],[-2,0],[1,-1],[0,-2],[1,-1],[2,-1],[6,0],[1,1],[1,0],[1,1],[3,-1],[2,-1],[0,-1],[2,2],[1,-1],[1,0],[0,1],[1,0],[1,-1],[2,-1],[1,-1],[0,-3],[1,0],[1,1],[4,-2],[-1,-1],[2,0],[0,-1],[1,0],[0,1],[11,0],[0,1],[2,0],[0,-1],[1,-1],[1,0],[1,-1],[-1,0],[0,-1],[3,0],[1,1],[0,-1],[1,0],[0,-1],[2,0],[1,-1],[-1,0],[0,-1],[-1,-1],[1,-1],[1,0],[1,1],[1,-1],[2,-1],[-1,0],[0,-1],[11,0],[2,-1],[2,0],[2,-1],[0,2],[2,0],[1,-2],[2,0],[0,-2],[1,0],[2,1],[0,2],[-1,0],[2,2],[2,1],[1,2],[1,0],[0,2],[1,0],[0,1],[-2,2],[-1,0],[-1,-1],[-1,1],[1,1],[0,2],[1,1],[1,0],[0,1],[1,1]],[[699,490],[1,0],[1,1],[3,0],[0,1],[2,-1],[1,0],[0,-2],[1,0],[1,-1],[0,1],[2,0],[2,-1],[1,1],[3,-1],[0,1],[1,0],[0,-2],[4,0],[1,-2],[0,-4],[1,0],[0,1],[2,0],[0,-2],[1,-1],[-2,0],[0,-1],[5,0],[0,-1],[1,0],[3,1],[0,-1],[1,-1]],[[735,476],[0,-1],[1,-4],[1,-1],[1,0],[0,-1],[1,0],[0,-1],[-1,-1],[0,-1],[-1,0],[-2,1],[0,-1],[-10,0],[-1,1],[-1,-1],[1,-1],[-3,0],[-1,-1],[-2,-1],[0,-1],[-1,0],[-1,-1],[0,-1],[1,0],[-1,-1],[0,-1],[-2,0],[-1,1],[0,1],[-1,0],[0,-1],[-3,0]],[[709,460],[0,-1]],[[709,459],[-1,0],[-2,-1],[0,-2],[-2,0],[-3,-1]],[[701,455],[-1,2],[0,-2]],[[701,455],[-1,0]],[[700,455],[-1,1],[0,-2],[-1,0],[0,1],[-1,0],[-1,-1],[-1,1],[0,-1],[-1,0],[1,-1],[0,-1],[1,-1],[3,0],[0,-1],[-2,-2],[-1,0],[-2,1],[-1,-2],[0,-2],[1,-1],[1,1],[2,0],[1,-1],[-2,-1],[0,-2],[1,-1],[-1,0],[2,-2],[5,0],[0,-1],[-1,-1],[0,-1],[-1,0],[-2,-2],[-2,0],[0,-2],[-5,0],[-1,1],[-1,0],[0,-1],[-1,0],[-1,-1],[1,-1],[-2,0],[0,1],[-1,1],[-2,0],[0,-3],[-2,-1],[-1,0],[-1,-1],[2,-1],[3,0],[0,-1],[-3,0],[-1,-1],[-2,1],[-2,0],[-1,-1],[0,-1],[-2,-1],[-3,0],[0,1],[-1,1],[2,2],[-1,0],[1,1],[-1,1],[-1,0],[-2,2],[2,2],[-1,1],[-1,0],[0,-1],[-2,-1],[0,-2],[-2,-1],[-1,1],[0,-1],[-1,-1],[-2,-1],[1,-2],[-1,-1],[-2,0],[0,-1],[-3,0],[-1,-1],[0,-1],[2,-2],[3,0],[1,1],[0,-1],[1,-1],[0,-1],[1,0],[2,-2],[0,-1],[-2,0],[-1,-1],[1,-1],[0,-1],[-1,0],[-1,1],[-1,-1],[-3,-1],[0,-1],[1,-1],[3,0],[0,-1],[-1,0]],[[526,561],[7,0],[0,1],[1,-1],[4,0],[2,-2],[2,0],[2,1],[1,-2],[2,-1],[1,0],[2,1],[0,-1],[1,0],[1,-1],[-1,-1],[-4,0],[-1,-2],[1,0],[0,-1],[1,-1],[0,-2],[1,0],[0,1],[1,-1],[1,0],[2,-2],[-1,0],[0,-3],[1,-1]],[[608,504],[-1,0],[0,-1],[1,1]],[[267,572],[1,-1],[1,1],[0,-1],[14,0],[0,-1],[1,0],[0,-2],[1,-1],[-1,0],[1,-1],[3,0],[2,-2],[2,0],[2,-1],[1,0],[1,-5],[-1,0],[-6,-3],[-1,0],[-1,-1],[-1,0],[0,-1],[-1,0],[-1,-1],[0,-2],[1,-3],[2,0],[1,-1],[0,-2],[1,-2],[3,-3],[3,0],[1,1],[8,0],[1,-1],[2,0],[1,-1],[3,-1],[2,1],[1,0],[2,-2],[2,1],[2,3],[1,1],[2,1],[0,1],[-1,2],[-1,0],[-1,1],[1,1],[0,1],[1,0],[2,-1],[0,2],[5,0],[0,-2],[1,-1],[1,1],[0,-1],[3,-1],[1,-1],[3,0]],[[135,540],[3,1],[1,2],[0,1],[-2,5],[6,0],[5,2],[2,1],[1,-1],[1,0],[0,-1],[2,0],[2,-2],[-1,-1],[3,-1],[5,0],[-2,2],[1,1],[0,2],[-2,1],[2,1],[2,0],[0,1],[2,0],[1,1],[2,0],[2,1],[1,1],[1,0],[0,2],[1,0],[0,1],[-1,0],[0,1],[-1,0],[0,2],[-3,0],[-1,1],[0,1],[1,-1],[1,0],[2,2],[0,1],[-1,2],[-2,0],[3,3],[2,1],[1,-1],[1,0],[0,-1],[-1,0],[1,-1],[1,1],[3,0],[0,-2],[1,0],[0,-1],[2,-2],[2,2],[2,0],[2,1],[1,1],[4,0],[1,-1],[0,1],[1,0],[0,1],[2,1],[1,-1],[0,-1],[1,0],[2,1],[0,1],[1,0],[0,1],[2,0],[2,-1],[2,0],[0,1],[1,0],[1,-1],[1,1],[1,0],[0,1],[1,0],[0,-1],[1,-1],[2,-1],[1,1],[1,0],[1,-1],[0,-2],[4,0],[2,-1],[2,1],[0,2],[3,0],[1,-1],[7,0],[1,-1],[3,0],[1,1],[2,1],[6,-3],[3,0],[0,-1],[-1,-1],[0,-2],[-1,-1],[7,0],[1,1],[3,1],[1,1],[0,2],[1,3],[1,1]],[[209,471],[3,0],[1,-2],[2,0],[1,1],[0,-1],[-2,-2],[0,-2],[-1,0],[1,-2],[4,0],[4,-4],[6,0],[1,-1],[0,-1],[1,0],[0,-1],[-1,-1],[0,-4],[-1,0],[1,-2],[1,-1],[1,0],[4,-4],[2,-1],[0,-3],[2,-1],[2,2],[2,-1],[1,0],[1,-1],[0,-1],[1,0]],[[102,397],[1,-1],[-1,-1],[0,-1],[1,-1],[-2,0],[0,-1],[3,0],[2,-1],[1,1],[2,0],[1,-1],[1,1],[0,-1],[1,0],[3,-1],[2,0],[0,1],[1,1],[2,0],[0,2],[2,0],[0,1],[2,0],[0,-1],[1,0],[3,-1],[-3,0],[0,-1],[-1,-1],[-2,0],[0,-1],[-2,0],[2,-2],[1,0],[0,-1],[2,0],[0,1],[2,0],[1,-1],[3,-1],[0,-1],[-1,-1],[0,-2],[-1,0],[0,-1],[-2,0],[0,-2],[-2,0],[-1,-1],[0,1],[-1,2],[-1,-1],[-1,0],[0,1],[-1,-1],[0,-1],[-1,0],[0,-1],[-1,-1],[1,-1],[0,-2],[1,0],[0,-3],[-1,0],[1,-2],[1,-1],[1,0],[1,-1],[-1,0],[-1,-1],[0,-2]],[[122,364],[-1,0]],[[121,364],[0,-3],[3,0],[2,-2],[7,0],[1,-1],[0,-1],[1,-1],[0,-1],[2,-2],[0,-1],[1,-1],[0,-1],[1,0],[0,-1],[2,0],[3,-1],[0,-1],[2,-2],[1,0],[1,-1],[2,-1],[1,0],[0,-1],[-1,0],[0,-1],[-1,-1],[0,-1],[-2,0],[0,-1],[-1,-1],[3,-3]],[[149,333],[0,1]],[[149,334],[3,-2],[0,-1],[-2,0],[0,-1],[-1,0],[0,-1],[-1,0],[-2,-1],[-2,-2],[-1,0],[0,-1],[-2,-1],[-1,-1],[-2,-1],[-1,0],[0,-4],[-2,0],[0,-1],[-2,-3],[-2,-1],[-3,-3],[1,0],[1,-1],[-1,0],[-1,-1],[1,-1],[0,-1],[-3,-2]],[[56,293],[-1,1],[0,1],[-2,0],[1,1],[2,0],[-1,1],[0,1],[1,1],[2,0],[2,3],[2,4],[0,1],[-1,0],[4,4],[2,0],[2,2],[1,0],[-1,1],[0,1],[2,0],[-2,1],[0,2],[2,2],[0,1],[-1,0],[0,1],[1,0],[-1,1],[0,1],[1,0],[1,1],[0,1],[-1,0],[-1,-1],[-1,1],[-2,0],[-1,1],[-1,0],[-1,-1],[-3,0],[0,1],[-3,0],[-4,4],[-2,0],[-2,-2],[-1,1],[0,2],[-1,1],[-1,0],[-2,2],[-2,0],[-2,2],[-1,0],[-1,2],[1,0],[-1,1],[-1,0],[1,1],[0,1],[-1,1],[1,1],[-3,0],[0,1],[-1,1],[-1,0],[0,-1],[1,0],[-1,-1],[0,1],[-1,0],[0,3],[-1,1],[-1,0],[-1,1],[0,1],[-2,2],[1,0],[0,-1],[1,1],[-1,1],[0,2],[-1,1],[0,1],[-1,0],[0,1],[1,1],[-1,0],[1,1],[0,1],[1,0],[-1,1],[1,0],[0,2],[-1,0],[1,2],[1,0],[0,1],[1,0],[0,1],[-1,0],[-1,1],[1,1],[0,2],[1,0],[1,-1],[0,1],[3,0],[0,4],[-1,1],[-1,0],[0,2],[1,1],[2,0],[1,2],[2,0],[2,1],[4,0],[1,2],[0,2],[1,1],[0,1],[1,0],[0,1],[1,0],[1,1],[2,-2],[2,0],[0,1],[1,-1],[0,1],[1,0],[3,1]],[[258,218],[-1,0],[-1,1],[-2,-1],[-1,1],[-3,0],[-3,1],[-3,0],[-4,2],[-1,1],[-2,1],[-3,0],[-2,2],[-2,-1],[-4,4],[-2,0],[0,-2],[-1,0],[0,1],[-4,0],[-1,-2],[-2,0],[0,1],[-2,1],[-1,1],[-1,0],[-1,1],[-2,0],[0,-1],[-2,0],[0,-1],[-4,0],[0,1],[-4,0],[0,-1],[-2,0],[-3,1],[-2,0],[0,2],[-3,1],[-1,1],[-2,-1],[-2,0],[0,1],[-1,0],[-1,1],[-1,0],[0,1],[-1,1],[0,1],[-2,1],[0,1],[-1,0],[0,1],[1,1],[0,1],[-1,0],[0,1],[-1,1],[-2,-1],[-1,0],[-1,1],[0,-1],[-1,0],[0,2],[1,1],[-4,-1],[-3,-1],[-2,0],[0,-1]],[[153,292],[3,1],[3,0],[-1,1],[2,0],[0,2],[1,0],[3,3],[1,-1],[0,1],[1,-1],[5,0],[1,1],[-1,1],[1,0],[0,1],[-1,0],[0,1],[-1,1],[0,1]],[[171,304],[-1,0]],[[170,304],[0,2],[1,1],[1,0],[0,1],[2,0],[1,1],[1,0],[1,-1],[3,1],[1,0],[-1,2],[0,2],[1,0],[1,1],[0,-2],[1,-1],[1,0],[0,-1],[4,0],[1,-1],[1,1],[3,0],[1,1],[0,1],[1,0],[2,-2],[-1,0],[0,-2],[1,0],[-2,-2],[0,-1],[-1,0],[1,-1],[2,0],[3,2]],[[199,306],[1,0]],[[200,306],[1,0],[0,1],[1,1],[0,2],[1,1],[0,1],[-1,2],[2,1],[3,2],[0,1],[-1,0],[0,1],[1,1],[1,0],[0,-2],[2,1],[2,0],[1,-1],[2,1],[0,1],[2,0],[1,-1],[3,0]],[[221,320],[0,-1]],[[221,319],[1,-1],[2,2],[1,0],[0,1],[-1,1],[1,0],[0,3],[-1,0],[0,1],[1,1],[1,0],[0,1],[1,0],[1,1],[0,1],[-1,0],[2,2],[-1,0],[0,1],[-1,1],[0,1],[-4,0],[0,3],[-1,0],[0,2],[-1,0],[0,1],[-1,0],[0,1],[-3,0],[-1,1],[-2,0],[-2,-1],[-1,0],[0,2],[2,0],[-1,1],[-1,0],[-3,1],[-1,2],[0,1],[-1,0],[0,1],[-3,0],[0,1],[-1,0],[-1,1],[-1,0],[-1,1],[0,1],[-3,0],[3,4],[2,1],[4,1],[2,1],[0,-1],[1,-1]],[[153,292],[1,-1],[2,0],[0,-1],[1,-1],[-2,0],[0,-1],[-1,-1],[0,-1],[1,0],[-1,-1],[0,-1],[2,0],[1,-1],[-2,-2],[-2,-1],[-3,-1],[1,0],[0,-2],[1,-1],[1,0],[2,-1],[0,-1],[1,-1],[-1,-1],[1,0],[1,-1],[5,0],[0,-1],[1,0],[0,-1],[3,1],[1,-1],[-1,0],[1,-1],[-1,-1],[1,-1],[0,-1],[-2,-2],[1,0],[-1,-2],[0,-1],[-1,-2],[-4,0],[0,-1],[1,0],[-2,-2],[0,-1],[-1,0],[-1,1],[-1,-1],[0,-1],[-1,0],[0,-1],[1,-1],[0,-3],[2,-2],[2,0],[0,-1],[3,-3],[0,1]],[[163,243],[0,-2],[-2,-1],[-3,0],[-3,-3],[-1,0],[0,1],[-4,0],[0,1],[-4,-1],[-1,-1],[0,1],[-1,1],[-3,-1],[0,-1],[-2,1],[-2,2],[-2,0],[0,1],[1,0],[-2,1],[-2,-1],[0,-1],[1,0],[0,-1],[-2,-1],[0,-1],[-1,-1],[-2,1],[0,4],[-1,1],[0,1],[-1,1],[1,1],[0,1],[-2,0],[-1,1],[-1,0],[-2,2],[-2,-1],[-1,0],[0,1],[-1,0],[0,1],[-2,1],[-1,-1],[-2,-1],[-1,0],[-2,1],[-1,0],[-2,-1],[1,-1],[0,-2],[1,0],[0,-2],[-2,0],[1,-1],[0,-1],[-1,0],[0,-1],[-1,0],[-3,2],[-7,0],[-3,3],[1,1],[0,1],[1,0],[-1,1],[0,1],[-4,0],[1,2],[-1,1],[1,1],[-1,0],[-1,1],[-2,0],[1,1],[0,2],[-1,0],[-2,2],[-1,0],[-1,1],[-1,0],[-2,2],[0,1],[-1,1],[-1,0],[0,1],[-1,1],[0,1],[2,0],[0,-1],[1,0],[1,2],[-2,0],[0,2],[-1,1],[-2,0],[-1,1],[-1,0],[0,2],[2,1],[-2,2],[-2,0],[-2,2],[-2,0],[-2,1],[-1,0],[-2,1],[-1,1],[-1,0],[-2,-1],[-4,0],[0,4],[-1,4],[3,3]],[[56,293],[3,-1],[3,0],[2,-1],[1,1],[1,-1],[1,0],[1,-1],[1,0],[2,1],[0,-1],[2,1],[3,0],[3,-3],[1,0],[1,1],[0,1],[1,0],[0,1],[3,0],[0,1],[1,1],[0,-1],[3,0],[0,-1],[2,0],[0,1],[1,1],[1,0],[1,1],[1,0],[1,-1],[2,2],[1,0],[3,2],[1,1],[1,-1],[2,0],[0,1],[1,0],[0,1],[1,0],[1,1],[1,-1],[0,1],[1,0],[1,1],[4,0],[0,2],[2,0],[0,-1],[2,1],[2,0],[0,-1],[1,1],[3,0],[0,1]],[[126,304],[4,-1],[2,-3],[1,-1],[2,0],[3,-1],[1,1],[3,0],[0,-2],[2,-1],[3,0],[-1,-1],[2,-1],[2,1],[2,2],[1,0],[-1,-1],[0,-1],[1,-1]],[[152,294],[1,0]],[[153,294],[0,-2]],[[848,444],[-4,2],[-2,4],[-1,0],[-2,-1],[-2,1],[0,1],[1,2],[0,1],[-1,1],[-1,2],[-1,-1],[-1,0],[-1,2],[-1,0],[-1,1],[1,0],[1,1],[-2,1],[0,2],[-1,2],[-2,1],[-1,0],[-1,2],[1,0],[0,1],[-2,0],[0,1],[1,1],[-2,0],[0,1],[1,2],[2,0],[1,2],[0,1],[-2,-1],[-2,0],[-1,2],[2,2],[0,2],[-6,3],[-5,-1],[-1,0],[0,-1],[-6,0],[0,-1],[-1,0],[-2,-2],[-2,-1],[0,1],[1,1],[0,1],[1,1],[1,0],[0,2],[-1,0],[0,1],[-1,1],[2,0],[0,4],[-1,2],[-1,0]],[[803,493],[0,-1],[-2,0],[1,1],[1,0]],[[803,493],[1,1],[0,3],[1,1],[-1,1],[-1,0],[0,1],[-2,1],[-1,0],[0,2],[-1,1],[0,1],[-1,1],[1,0],[-1,2]],[[798,508],[0,1],[1,0],[-1,1],[0,2],[1,0],[1,1],[0,1],[-1,0],[0,1],[1,1],[0,1],[-1,2],[0,3],[1,1],[-1,0],[0,1],[-1,0],[0,1],[1,0],[0,1],[-1,0],[-1,1],[1,2],[1,1],[0,1],[1,-1]],[[965,553],[-2,-2],[2,-2],[0,-2],[4,-2],[3,0],[1,-1],[1,0],[2,-1],[1,0],[1,-2],[4,0],[2,-1],[2,1],[0,-1],[1,-1],[2,0],[3,-4],[-1,-1],[-1,0],[1,-1],[0,-1],[-1,-1],[1,0],[0,-2],[-1,0],[1,-2],[1,0],[1,-1],[-1,-1],[-1,0],[1,-1],[0,-2],[3,-3],[1,-2],[1,0],[1,-1],[0,-2],[1,0],[0,-1],[-1,-1],[0,-1],[-1,0],[1,-1],[0,-1],[-1,-1],[-1,0],[0,-3],[-1,0],[1,-1],[-1,-1],[0,-3],[-1,-1],[0,-1],[1,0],[-1,-1],[0,-3],[-1,0],[0,-1],[-1,-1],[1,-1],[0,-1],[-1,0],[0,-2],[-1,0],[0,-2],[-1,0],[1,-1],[-1,0],[-1,-1],[0,-2],[-1,-1],[0,-1],[-1,-2],[-1,0],[0,-3],[-2,0],[-1,-3],[0,-1],[-1,-1],[-1,0],[0,-1],[-2,-2],[-1,0],[-3,-3],[0,-4],[-1,0],[0,-1],[-1,-1],[0,-2],[-1,-1],[0,1],[-2,0],[0,-1],[-1,0],[0,1],[-3,1],[-1,-1],[-1,0],[0,1],[-1,1],[-3,0],[-1,1],[-3,0],[-3,1],[0,1],[2,3],[0,1],[1,1],[1,0],[0,3],[-1,1],[-6,-2],[-3,0],[0,1],[1,1],[0,1],[1,0],[2,3],[-1,0],[0,1],[1,1],[0,1],[-1,0],[-1,1],[0,1],[-2,1],[-1,-1],[-2,0],[0,2],[-4,0],[1,2],[0,1],[-2,0],[0,-2],[-2,0],[-1,1],[-1,0],[-1,-1],[-2,-1],[-3,0],[-1,1],[-1,0],[0,1],[-2,1],[-3,0],[-2,2],[-1,-1],[-2,-1],[-1,-1],[1,-1],[-1,0],[0,-1],[-1,-1],[-1,0],[0,-1],[1,0],[-1,-1],[0,-1],[3,-1],[2,0],[2,1],[1,-1],[-1,0],[0,-1],[-1,0],[-1,-1],[2,-2],[3,0],[2,-1],[2,0],[1,-1],[0,-2],[-1,0],[0,-2],[-2,-1],[-2,1],[0,-1],[-1,0],[-2,-1],[-4,0],[-1,1],[-2,0],[-2,-1],[-1,0],[0,-1],[-1,-3],[-2,0],[-1,-1],[-4,0],[-1,-1],[-1,0],[0,-1],[-1,0],[-3,-1],[-2,0],[-1,-1],[0,-1],[-5,0],[0,-1],[-1,1],[-2,0],[0,1],[-1,0],[-3,-1],[-1,0],[0,-1],[-4,-2],[-1,1],[-1,0],[-1,-1],[1,0],[-2,-2],[2,-2],[0,-1],[-2,-1],[-3,0],[0,-1],[-3,-1],[-2,1],[-3,1],[-1,-1],[-1,0],[-1,1],[0,-1],[-4,0],[-1,-1],[0,-1],[-2,1],[-1,0],[-2,1],[-1,0]],[[387,562],[-4,-1],[-1,1],[1,2],[1,1],[0,1],[-1,1],[1,0],[1,1],[0,1],[-1,0],[0,1],[-1,1],[1,1],[-1,1],[-1,0],[0,1],[1,0],[0,2],[2,0],[1,1],[0,1],[4,2],[-1,1],[0,1],[-1,0],[0,2],[1,0],[0,2],[-1,0],[2,2],[1,0],[0,1],[-1,0],[-1,-1],[-3,0],[-1,1],[-5,0],[-2,-1]],[[376,588],[2,0]],[[378,588],[0,3],[1,2],[-1,2],[-1,1],[-2,1],[-2,0],[-2,1],[0,2],[-1,0],[2,2],[-1,0],[0,1],[-1,0],[0,1],[-3,0],[-2,-1],[-1,0],[0,-1],[-2,0],[0,1],[-2,2],[1,0],[0,1],[2,0],[-2,1],[0,1],[2,0],[-1,2],[-1,0],[-1,1],[0,3],[2,2],[-2,2],[-1,0],[-2,2],[0,-1],[-1,0],[0,1],[2,2],[0,1],[-1,1],[-3,1],[-1,-1],[-1,0],[-2,1],[-1,0],[0,1],[-2,0],[-1,-1],[-1,0],[-2,-1],[-1,0],[1,2],[0,3],[-1,0],[-1,2],[-1,0],[0,1],[1,0],[1,-1],[1,1],[0,-2],[3,0],[0,4],[-1,1],[1,1],[0,-1],[2,0],[1,1],[0,1],[-2,0],[-2,2],[-3,0],[0,1],[-3,0],[-1,1],[1,0],[0,1],[-1,0],[0,1],[2,1],[0,3],[1,0],[0,2],[2,0],[1,1],[0,1],[2,0],[1,-1],[2,2],[1,0],[0,1],[1,1],[1,0],[0,2],[2,2],[1,2],[0,1],[-2,0],[0,2],[-1,1],[0,1],[2,1],[1,1],[0,1],[1,0],[-1,1],[-2,0],[-1,1],[0,1],[-1,-1],[-2,1],[-2,0],[-1,-2],[-1,-1],[-1,0],[-1,-2],[-1,-1],[-1,0],[0,1],[-2,-1],[0,-1],[1,0],[-1,-1],[0,-1],[-1,0],[-1,-1],[0,-1],[-2,0],[0,-1],[-1,-1],[-1,0],[-2,1],[-1,-1],[0,1],[-1,-1],[-2,-1],[-1,1],[0,-1],[-2,0],[-6,1],[-1,0],[-1,-1],[-4,0],[-1,1],[-1,-1],[-1,1],[1,1],[-1,1],[1,1],[0,1],[-1,1],[0,3],[1,0],[-1,2],[0,1],[-1,0],[1,2],[-1,1],[-1,0],[0,1],[-2,0],[-2,2],[-10,-4],[-4,1],[-1,1],[-1,0],[0,-1],[-2,-1],[-1,0],[-2,-1],[0,-4],[-3,-2],[0,1],[-1,0],[0,-1],[-1,0],[-1,1],[-1,-1],[-4,0],[-1,1],[-2,0],[-2,1],[-1,-1]],[[659,405],[2,-1],[1,0],[0,-1],[1,-1],[-1,0],[0,-1],[3,0],[1,-1],[0,-4],[-1,-1],[2,0],[0,1],[1,-1],[1,0],[1,-1],[1,0],[0,-1],[2,0]],[[673,392],[0,1]],[[673,393],[1,-1],[0,1],[1,0],[1,-1],[1,0],[0,1],[2,-2]],[[679,391],[2,-1],[0,-2],[1,-2],[1,0],[-1,-1],[-1,0],[-2,-1],[0,-1],[-1,-1],[1,0],[1,-1],[3,-1],[1,0],[1,-1],[0,-1],[1,-1],[1,0],[1,-1],[1,0],[0,-1],[1,-1],[0,-2],[1,0],[0,-1],[-1,-1],[0,-1],[-1,-1],[0,-1],[1,-3],[1,-1],[2,0],[0,-1],[1,1],[1,0],[0,-1],[3,-2],[-2,-1],[0,-1]],[[529,380],[0,2],[2,0],[1,-1],[2,0],[1,1],[2,0],[1,-1],[4,0],[0,1],[1,0],[0,2],[-1,1]],[[542,386],[0,-1]],[[542,385],[-1,0],[-1,1],[-2,0],[0,1],[-1,1],[-4,0],[-2,3],[-3,0],[0,2],[1,0],[0,2],[-1,0],[0,2],[2,0],[1,-1],[1,0],[1,1],[0,1],[1,0],[2,2],[0,-1],[1,0],[2,1],[1,0],[0,1],[1,-1],[3,0],[1,1],[2,0],[0,-2],[1,0],[1,1],[3,1],[3,-3],[-1,0],[3,-3],[2,0],[-1,1],[0,1],[5,-1],[0,-1],[1,0],[3,1],[1,-1],[1,2],[3,0],[0,-2],[1,1],[1,0],[0,-1],[2,-2],[0,-1],[-1,-1],[-1,0],[-1,-1],[0,-1],[1,0],[0,-1],[1,-1],[2,0],[0,-1],[2,0]],[[579,386],[-1,0]],[[578,386],[0,-1],[2,0],[0,1],[1,2],[3,-2],[2,-1],[1,0],[0,3],[-1,0],[2,2],[-1,2],[0,1],[2,0],[-1,2],[0,1],[2,0],[-1,3],[-1,1],[0,1],[-1,1],[1,1],[0,4],[-1,1],[-1,0],[1,1],[-1,1],[0,1],[1,1],[4,0],[1,1],[2,0],[0,2],[1,1],[2,0],[0,1]],[[596,417],[1,0]],[[597,417],[3,0],[1,-1],[1,1],[3,-1],[2,-2],[-1,-1],[-1,0],[0,-2],[-1,-1],[1,-1],[0,-2],[1,0],[1,-1],[1,0],[0,-1],[-1,-1],[2,1],[0,1],[2,0],[0,-1],[1,-1],[-1,-2],[1,-1],[3,0],[1,-3],[1,1],[3,0],[1,1],[0,1],[3,1],[1,-1],[2,-1],[1,0],[7,1],[1,1],[1,-1],[2,1],[1,1],[1,0],[0,1],[1,-1],[1,0],[1,1],[2,0],[2,-2],[1,0],[-1,-1],[1,-1],[2,2],[2,0],[1,1],[1,0],[1,1],[1,0],[2,1]],[[552,204],[2,0]],[[547,34],[-4,0],[-1,-1],[-3,0],[0,-1],[-3,0],[-1,-1],[-2,1],[0,2],[-4,0],[-3,1],[-1,1],[0,1],[-7,0],[-1,1],[-2,0],[0,-1],[-2,0],[0,-3],[-6,0],[-3,1],[-2,0],[0,1],[-2,1],[-2,-4],[0,-2],[-1,-1],[1,-1],[0,-1],[2,-1],[1,0],[0,-4],[1,-2],[-1,0],[-4,-4],[0,-2],[1,-1],[-2,1],[-1,-1],[-2,0],[-1,-1],[0,-2],[-2,-1],[-1,-1],[-1,-3],[-2,-2],[-1,1],[-1,0],[-1,-1],[-1,0],[-1,-1],[0,-1],[-3,0],[0,-1],[-2,0],[0,-1],[-1,0],[-1,1],[-3,0],[-2,-1],[0,1],[1,2],[1,0],[2,2],[0,1],[-1,1],[0,2],[1,0],[1,1],[0,1],[2,2],[-1,1],[1,0],[-1,1],[-1,0],[-1,-1],[-2,1],[-1,1],[0,-1],[-1,0],[-1,-1],[0,-1],[-3,-1],[-1,1],[-1,0],[-2,-2],[0,1],[-1,1],[0,1],[-1,1],[0,2],[-1,0],[0,2],[3,0],[0,2],[-1,1],[0,2],[-2,0],[-1,1],[-1,0],[0,1],[-1,2],[-2,0],[-2,-1],[-1,0],[-1,2],[0,1],[-2,1],[-1,1],[1,3],[-1,0],[0,-1],[-3,0],[-2,-1],[0,1],[-1,0],[-1,1],[-2,0],[-1,-2],[-2,2],[-3,0],[-1,1],[1,1],[0,4],[-2,0],[0,1],[-3,0],[0,-1],[-2,0],[0,-1],[-1,-1],[0,-2],[-1,0],[0,-1],[-1,-1],[0,-1],[-1,0],[-2,-1],[-3,-1],[-2,1],[-3,0],[-2,1],[-1,0],[-4,1],[-1,0]],[[500,37],[1,1],[0,2],[2,0],[-1,1],[-2,-1],[-2,0],[-1,-1],[0,-1],[2,0],[0,-2],[1,1]],[[484,791],[2,-1],[3,0],[8,-4],[4,-1],[3,-2],[4,0],[1,-1],[2,0],[2,-1],[1,0],[1,1]],[[624,740],[-4,-3],[-1,-1],[1,0],[0,-1],[-2,0],[-2,1],[-1,0],[-1,-1],[-1,-3],[0,-2],[1,-2],[-1,0],[-2,-1],[-3,0],[-1,-1],[0,-1],[-2,0],[0,-1],[-1,-1],[-1,0],[-3,-1],[-2,-1],[-2,0],[-1,-1],[-2,-1],[-2,0],[0,1],[-1,1],[-1,0],[0,-1],[-4,0],[0,1],[-2,0],[0,1],[-1,0],[-6,1],[-1,-1],[-6,0],[0,1],[1,1],[-11,0],[-1,-1],[0,-2],[-1,-1],[0,-1],[-2,0],[-3,-3],[-3,0],[-1,1],[-1,-1],[0,-1],[-1,1],[-1,0],[-1,1],[0,-1],[-6,0],[-2,-1],[-2,0],[0,-1],[-1,-2],[0,-3]],[[480,672],[-1,-1],[0,-1],[-2,0],[-3,1],[0,1],[-4,1],[-2,-2],[-1,1],[-2,-1],[-1,1],[-3,0],[-1,1],[0,1],[-1,0],[0,1],[-1,1],[-1,0],[-2,-1],[-1,1],[-5,0],[0,1],[-2,0],[-1,1],[2,1],[0,1],[1,0],[0,1],[-2,0],[0,1],[-3,0],[-2,1],[-5,0],[0,1],[-3,0],[-1,1],[-1,-1]],[[432,684],[0,-1],[-1,0],[0,1],[1,0]],[[432,684],[-3,1],[-1,1],[-2,1],[-1,1],[-3,0],[-1,1],[0,-1],[-2,0],[0,-1],[-1,0],[0,-1],[1,0],[-1,-2],[-5,0],[-1,1],[-1,0],[-1,2],[1,1],[2,0],[-3,1],[-1,0],[-1,1],[-1,0],[0,1],[-1,0],[0,1],[-1,0],[0,1],[1,0],[-3,1],[-3,-1],[-1,-2],[-1,1],[0,1],[-2,1],[0,1],[1,1],[-1,1],[-2,0],[0,3],[-8,0],[-1,1],[-4,0],[-1,-2],[-4,0],[1,1],[2,0],[0,2],[-2,0]],[[377,702],[1,0]],[[378,702],[0,1],[-1,1],[-1,0],[1,1],[-1,1],[-2,0],[0,5],[-1,1],[-2,-1],[0,-1],[-2,0],[-2,1],[0,1],[-2,0],[0,-1],[-3,0],[0,1],[1,1],[0,1],[1,1],[1,0],[0,1],[-2,1],[-2,-1],[0,1],[2,1],[1,0],[0,1],[-1,0],[0,1],[-2,1],[-1,0],[-1,2],[0,-2],[-5,1],[-1,1],[-1,-1],[-1,0],[0,1],[-2,0],[0,1],[-1,1],[-3,0],[0,1],[-4,-1],[0,-1],[-1,-2],[-1,-1],[-1,0],[-1,1],[0,-1],[-1,0],[0,1],[-1,0],[-1,1],[0,3],[-2,2],[-1,2],[0,3],[1,0],[2,1],[0,1],[-1,0],[-1,1],[1,0],[-1,1]],[[289,813],[-1,2],[-3,4],[0,6],[1,1],[2,4],[0,1],[1,0],[0,2],[2,3],[0,1],[1,4],[2,2],[1,0],[2,3],[2,2],[7,2],[2,-2],[1,0],[3,-3],[5,-3],[6,0],[8,-1],[3,1],[2,0],[4,1],[3,-1],[1,0],[0,1],[6,2],[10,1],[1,0],[8,-1],[3,0],[0,-1],[4,-2],[0,-1],[1,0],[0,-1],[3,-4],[5,-5],[2,-3],[4,-3],[2,-1],[1,-1],[0,-1],[3,-3],[0,-2],[2,-1],[1,-2],[1,-1],[1,0],[1,-2],[2,0],[2,-1],[1,-1],[2,-1],[2,0],[1,-1],[2,-1],[2,0],[0,-1],[2,0],[0,1],[1,0],[0,-1],[5,0]],[[416,807],[-1,-1],[-1,1],[2,0]],[[406,811],[0,-1],[-1,1],[1,0]],[[398,821],[0,-1]],[[393,825],[-1,0],[-2,2],[2,-1],[1,-1]],[[552,204],[-1,0],[0,1],[-2,2],[-3,-1],[-1,0],[0,1],[-2,0],[1,1],[-2,1],[-3,0],[-1,1],[1,0],[1,1],[0,2],[-1,0],[0,2],[-2,0],[-3,-3],[1,0],[0,-1],[-2,0],[0,1],[-3,0],[0,-1],[-1,-1],[0,-1],[-1,0],[-1,1],[-3,0],[0,1],[-1,1],[1,1],[1,0],[0,1],[1,0],[0,1],[-1,0],[1,1],[-1,1],[-1,2],[-1,0],[0,1],[-3,0],[-1,1],[1,1],[0,2],[-4,0],[0,1],[-1,1],[-4,0],[-2,-1],[0,-2],[-11,0],[0,-1],[-1,1],[0,-1],[-1,-1],[0,-1],[1,0],[-2,-1]],[[510,319],[7,-2],[3,0],[1,-3],[1,1],[1,0],[2,1],[2,0],[0,2],[-2,0],[-2,1],[1,1],[2,1],[1,1],[1,0],[0,1],[1,0],[2,-2],[1,0],[4,-1],[1,-2],[1,-1],[2,0],[0,1],[2,1],[3,0],[1,1],[-1,1],[3,0],[0,1],[2,0]],[[550,322],[0,1],[1,0],[-1,-1]],[[550,322],[0,-1],[1,0],[-1,-1],[1,0],[0,-1],[1,0],[-2,-2],[0,-1],[2,-1],[1,-1],[2,0],[-1,-1],[-2,0]],[[552,314],[0,-1]],[[552,313],[-1,0],[1,-1],[4,-2],[0,-1],[2,0],[3,1],[-2,-2],[4,0],[1,1],[1,0],[-1,-1],[0,-1],[2,0],[0,-1],[-2,0],[0,-2],[-2,0],[0,-2],[1,0],[2,2],[2,-1],[1,-1],[-1,-1],[1,-2],[2,0],[0,-1],[4,0],[1,-1],[1,1],[2,0],[0,-1],[1,1],[3,0],[0,1],[1,1],[1,0],[0,-1],[2,-1],[2,2],[1,-1],[1,1],[0,1],[1,0],[1,1],[-1,0],[2,1],[1,0],[0,1],[1,0],[0,1],[1,2],[3,0]],[[599,307],[1,1],[0,-1],[-1,0]],[[599,307],[3,-3],[0,-2],[2,0],[0,-1],[2,0],[0,1],[2,0],[2,2],[0,1],[1,0],[0,-1],[1,0],[1,1],[5,0],[1,-1],[1,0],[0,5]],[[550,320],[0,0]],[[546,317],[0,0]],[[620,310],[-2,0],[0,1],[1,0],[1,1]],[[209,471],[-1,-2],[-2,-1],[-3,0],[2,-1],[0,-1],[1,0],[0,-1],[-1,-1],[1,-1],[-1,-1],[1,-1],[0,-2],[-3,0],[-2,-1],[0,-1],[-1,0],[0,-1],[-3,-1],[-2,0]],[[195,455],[1,0]],[[196,455],[1,-1],[0,-1],[1,-1],[-1,0],[0,-2],[-1,1],[-1,0],[0,-2],[-5,0],[-2,-2],[0,-2],[-1,0],[-3,1],[-1,0],[-1,-1],[-1,0],[-1,-1]],[[180,445],[0,-1]],[[180,444],[-2,0],[-2,-2],[-4,0],[-1,-1],[-2,0],[-1,1],[-4,0],[-2,-2],[1,0],[0,-2],[1,0],[0,-1],[-2,-2],[0,-1],[-2,-2],[-3,0],[-2,-1],[-3,-1],[-1,1],[-4,0],[-1,-1],[0,4],[-1,-1],[-1,-3],[-2,0],[0,-1],[-2,0],[0,-1],[-1,-1],[-1,0],[-2,2],[0,-1],[-1,-2],[-2,-1],[-2,1],[0,1],[-1,0],[0,1],[-2,-1],[-3,-2],[-2,-2],[-1,0],[-1,-1],[-2,0],[-1,1],[-3,-1],[0,-2],[1,-1],[-2,-1],[-3,0],[0,-1],[1,0],[0,-1],[-1,-1],[2,0],[0,-1],[-1,0],[1,-1],[0,-1],[-1,0],[1,-2],[-3,0],[-2,-2],[-2,2],[-2,0],[-1,1],[-1,2],[-2,0],[-1,-1],[-1,0],[-1,-1]],[[97,411],[-1,0],[-1,-1],[1,0],[1,1]],[[97,411],[0,-1],[1,-1],[0,-1],[-1,0],[-1,-1],[0,-1],[2,0],[0,-1],[1,-1],[1,0],[-1,-1],[0,-1],[-1,-1],[1,-1],[1,-2],[2,0],[0,-1]],[[102,397],[-1,-1],[-1,1],[-1,0],[0,-1],[-3,0],[-2,-1],[-3,-1],[0,-1],[-1,1],[0,1],[-3,3],[-1,-1],[0,-2],[-2,0],[-2,1],[1,1],[-2,2],[-1,-1],[0,2],[-1,-1],[-1,0],[-1,-1],[-1,0],[-2,-1],[-1,1],[-1,0],[0,-1],[-1,0],[-1,-1],[-1,0],[0,-1],[-1,0],[-1,-1],[-2,0],[-1,-1],[-1,1],[1,0],[0,3],[-1,0],[0,1],[-1,0],[-1,-1],[-1,1],[0,1],[-1,1],[-2,0],[0,-2],[1,-1]],[[57,397],[1,0]],[[58,397],[0,-3],[1,-1],[2,0],[0,-1],[-2,0]],[[59,392],[0,1],[-1,1],[0,1],[-1,0],[-2,1],[-1,2],[-2,1],[1,1],[2,3],[-1,1],[1,0],[1,2],[-1,2],[0,1],[-3,0],[0,1],[-1,1],[1,1],[0,1],[-1,0],[-2,1],[-4,0],[-1,1],[-1,-1],[-2,1],[-2,-1],[-2,3],[-2,0],[0,1],[1,1],[-2,1],[0,2],[1,1],[1,0],[3,3],[2,0],[1,1],[0,1],[2,2],[-1,1],[-8,0],[-1,-1],[0,2],[-1,1],[1,0],[2,1],[0,1],[0,0],[-2,-1],[-4,4],[0,1],[-2,2],[0,1],[-1,1],[-6,0],[-2,1],[0,-1],[-1,1],[1,1],[0,1],[-2,1],[0,3],[-4,2],[-1,0],[0,1],[1,1],[2,-1],[2,1],[0,2],[-1,1],[0,1],[4,2],[1,-1],[1,0],[1,2],[1,1],[0,1],[-1,2],[0,1],[1,1],[0,1],[-1,0],[-1,1],[-2,0],[-1,1],[-3,0],[0,3],[0,0],[0,1],[1,2],[-6,0],[-1,1],[-3,0],[0,-1],[-1,0],[-3,-1],[0,1],[1,1],[0,2],[-1,0],[0,1],[-2,1],[0,3],[-1,0],[0,1],[2,0],[2,1],[1,1],[1,0],[0,-2],[2,-2],[2,0],[1,2],[0,1],[1,1],[0,1],[3,2],[2,1],[1,0],[2,1],[2,2],[1,0],[2,2],[2,0],[1,1],[2,0],[1,1],[1,0],[1,1],[-2,2],[2,1]],[[157,509],[1,1],[1,0],[0,1],[1,-1],[0,-1],[2,0],[1,1],[3,0],[1,-1],[-1,-1],[1,-1],[1,0],[0,1],[1,0],[1,-1],[0,-1],[1,0],[-1,-1],[0,-1],[-1,0],[1,-2],[1,0],[0,-2],[1,-1],[3,0],[0,-3],[1,0],[0,-1],[2,0],[0,-2],[-1,-1],[3,-1],[4,1],[3,0],[2,-1],[0,-2],[1,-1],[2,-1],[1,1],[1,0],[3,1],[1,0],[1,1],[2,-2],[-1,-1],[3,-3],[0,-3],[-1,-1],[1,-2],[2,-2],[3,0],[0,-1],[1,-1],[0,-1],[1,-1],[-1,0],[0,-1]],[[43,433],[0,0]],[[529,380],[4,-1],[0,-1],[-1,0],[3,-3],[0,-2],[-1,-1],[1,-2],[0,-1],[1,0]],[[536,370],[0,-1]],[[536,369],[1,-1],[1,0],[0,1],[4,0],[0,1],[1,0],[3,-1],[-1,-1],[0,-1],[-1,-1],[-1,-2],[1,-2],[0,-2],[-2,0],[-1,-1],[0,-3],[-1,0],[0,-1],[-2,0],[-2,1],[-1,0],[0,-1],[-1,0],[0,-2],[-2,0],[0,-1],[1,0],[0,-2],[-1,-1],[-1,0],[1,-2],[1,0],[0,-1],[-1,-1],[-3,0]],[[529,344],[0,1]],[[529,345],[1,-1],[1,0],[-1,-2],[-2,0],[0,-2],[-1,0]],[[527,341],[0,-1]],[[527,340],[-1,0],[0,-2],[-1,-1],[0,-1]],[[526,336],[-1,0]],[[525,336],[-1,-1],[0,1],[-3,0],[0,-1],[-2,-1],[-1,-1],[-2,-1],[-1,0],[0,1],[1,1],[-1,0],[-1,-1],[0,-1],[-1,0],[0,2],[-1,-1],[-1,0],[0,2],[-1,0],[-1,-1],[-7,0],[-2,1],[0,-1],[-1,0],[0,-3],[-1,-1],[1,0],[1,-1],[-1,-2],[1,-1],[3,0],[0,-1],[-1,-1],[-1,0],[0,-1],[2,0],[3,1],[0,1],[1,-1],[1,0],[0,-1],[-1,0],[1,-1],[1,0],[0,-1],[1,0],[0,-2]],[[510,319],[-6,0],[0,-2],[-4,0],[-1,1],[-2,0],[-1,-2],[0,1],[-5,-2],[0,-1],[-2,-2],[-2,0],[2,-1],[3,0],[0,-1],[-2,0],[0,-1],[-1,0],[1,-1],[0,-2],[1,-1],[1,-2],[-2,0],[-1,-1],[-8,0],[0,-1],[-1,1],[-4,0],[-2,1],[-2,-1],[0,-3],[-2,0],[-1,-1],[-2,0],[-1,2],[-2,0],[0,1],[-1,1],[-1,0],[-4,-4],[0,-3],[1,-1],[0,-2]],[[455,416],[3,3],[2,1],[0,1],[1,0],[0,1],[1,1],[1,0],[1,-1],[-1,-1],[1,0],[1,-1],[1,0],[0,1],[2,0],[1,-1],[0,1],[3,0],[3,-3],[0,-2],[3,0],[1,-1],[2,0],[1,-1],[1,0],[2,-1],[1,1],[0,-1],[1,0],[0,-3],[1,0],[2,-3],[1,0],[0,-1],[1,-1],[2,0],[-1,-2],[-1,-1],[1,-1],[5,0],[0,1],[1,0],[1,-1],[0,-2],[2,-1],[1,0],[1,-1],[-1,0],[1,-1],[2,0],[0,-1],[2,2],[1,0],[1,-1],[0,-1],[1,-1],[2,-1],[2,0],[0,-4],[1,-1],[-1,-1],[0,-1],[-1,-1],[2,0],[-1,-1],[2,-2],[-1,0],[0,-3],[4,0],[2,1],[0,-1],[3,0],[0,-1],[1,0],[2,-1],[2,0],[-1,3]],[[931,777],[-1,-1],[0,-1],[1,-1],[0,-3],[1,0],[1,-1],[1,0],[1,-1],[-2,-2],[0,-1],[-1,0],[-2,-2],[0,-2],[-1,0],[-2,-1],[-1,-3],[0,-3],[1,0],[1,-2],[-1,0],[0,-3],[-1,-1],[0,-3],[-1,-2],[-2,-3],[-1,0],[-2,-1],[-2,-2],[-1,0],[-5,-4],[-3,0],[-1,-1],[-3,-1],[-4,-2],[0,-3],[1,-2],[0,-3],[1,0],[0,-3],[-4,-4],[0,-1],[1,-1],[1,0],[5,-1],[3,0],[2,-2],[1,0],[1,-2],[1,0],[2,-2],[2,-1],[6,-2],[2,-2],[5,-4],[2,-2],[0,-1],[2,0],[2,-3],[3,-1],[7,-3],[4,-2],[1,-1],[0,-2],[1,0],[1,-1],[1,0],[0,-1],[-3,-3],[0,-5],[1,0],[2,-2],[-1,-1],[-1,0],[0,-1],[-1,-1],[0,-1],[-3,-3],[-2,0],[-2,-1],[0,-2],[-1,-3],[2,-2],[0,-3],[1,-1],[0,-2],[1,-1],[1,-2],[0,-1],[-1,0],[0,-1],[1,-1],[1,0],[0,-1],[3,0],[2,-1],[1,0],[3,-1],[2,0],[3,-3],[-2,-4],[-1,-1],[-1,0],[2,-2],[0,-2],[-1,-2],[-1,-1],[0,-4],[2,-2],[1,0],[3,-1],[2,-2],[0,-2],[-1,0],[0,-3],[-2,-2],[0,-1],[-1,0],[0,-3],[-1,-1],[-1,0],[1,-2],[1,-1],[0,-2],[-1,0],[-1,-1],[0,-2],[-1,-1],[0,-1],[-2,-1],[-1,0],[-1,-1],[0,-1],[-3,-2],[-1,0],[-1,-1],[0,-1],[-1,0],[0,-1],[-1,0],[0,-2],[2,-2],[1,0],[2,-1],[1,0],[1,-2],[0,-3],[1,0],[-1,-1],[0,-1],[1,-2],[3,-3],[4,-2],[1,0],[0,-1],[2,-2],[0,-6],[1,0],[0,-1],[-4,-4]],[[965,553],[-2,2],[-1,0],[0,-2],[-1,-1],[0,-2],[-2,-1],[-3,1],[-2,-1],[-2,0],[-1,2],[0,1],[-2,0],[0,1],[-1,0],[-1,-1],[-2,0],[0,-1],[-3,-1],[-7,0],[-1,-1],[0,-1],[-1,0],[-3,-1],[-1,1],[-1,0],[0,-1],[-1,0],[-3,-2],[-1,0],[0,-1],[-1,-1],[-1,1],[0,1],[-5,2],[-2,0],[-1,-1],[-4,2],[-9,0],[0,-2]],[[900,546],[1,0]],[[901,546],[-2,0],[-2,-1],[0,-1],[-1,-2],[-2,0],[0,-1],[1,-1],[-2,-1],[-1,1],[-2,0],[0,-1],[1,-1],[1,-2],[-1,-1],[-1,0],[0,-2],[1,-1],[-1,0],[-1,-1],[-2,-1]],[[887,530],[1,0],[1,-1],[-2,1]],[[887,530],[-1,-1],[0,-1],[-1,0],[1,-1],[0,-1],[-3,1],[0,2],[-4,0],[-1,-1],[-2,0],[0,-1],[-5,0],[-3,1],[0,-1],[-1,0],[-1,-1],[-4,0],[-1,-1],[-1,0],[0,1],[-1,0],[-2,-1],[-3,0],[-2,1],[-2,0],[0,1],[-1,-1],[-7,0],[-1,1],[0,1],[-2,0],[-2,-1],[-1,-1],[-1,1],[-1,0],[0,1],[-1,2],[-2,0],[-1,1],[-3,0],[0,1],[1,0],[-1,1],[-1,0],[-1,1],[-1,-1],[-1,0],[0,1],[-2,1],[0,1],[-1,1],[-1,-1],[0,-1],[-1,-1],[0,-1],[-1,1],[-4,0],[0,1],[-1,0],[0,-2],[-4,-2],[0,-1],[-3,0],[0,-1]],[[806,528],[-1,1]],[[805,529],[-5,0],[0,1]],[[800,530],[-1,2],[0,2],[-2,0],[0,-1],[-1,0],[0,1],[1,1],[1,0],[1,1],[0,1],[-2,2],[0,3],[1,-1],[1,1]],[[798,542],[1,0]],[[799,542],[0,4],[-1,2],[-1,0],[0,2],[-3,0],[0,1],[-1,0],[-1,1],[2,2],[0,2],[-1,-1],[-1,0],[-1,2],[-1,1],[-1,-1],[-1,0]],[[787,557],[-1,0],[-4,5]],[[782,562],[11,4],[1,1],[0,3],[1,0]],[[795,569],[0,1]],[[795,570],[0,1],[1,0],[1,-1],[-1,2],[-1,1],[0,1],[-1,0],[0,1]],[[795,575],[-1,0]],[[794,575],[0,1],[-1,0],[0,1],[1,1],[0,1],[1,0],[-1,1],[0,2],[-1,2],[-1,0],[0,1],[-1,2],[-1,1],[3,1],[0,1],[-1,0],[0,1],[-1,1],[-1,0],[0,-1],[-2,0],[-1,-1],[0,1],[-1,0],[0,-1],[-5,0],[-1,1],[0,1],[1,0],[0,1],[1,0],[0,1],[-8,0],[0,2],[-1,1],[-1,0],[0,1],[-4,1],[0,-1],[-7,0],[0,2],[-1,1],[0,2],[-2,-1],[-6,0],[0,2],[-2,1],[-3,0],[-2,2],[-3,0],[-1,1],[-2,0],[-1,-2],[-3,0],[0,-1],[-1,-1],[-7,1],[-1,2],[-4,1],[-1,1],[-1,2],[-2,0],[-1,-1],[0,-1],[-2,0],[-3,2],[-2,1],[-1,1],[-2,0],[-1,1],[-2,1],[-2,4],[-2,1],[-2,0],[-1,4],[-1,0],[-2,1],[-1,2],[0,1],[-1,1],[1,2],[1,-1],[1,0],[0,1],[-1,0],[0,1],[1,1],[0,1],[1,1],[2,0],[2,1],[-1,1],[-1,0],[-1,1],[-1,0],[-1,1],[0,3],[2,3],[0,1],[1,0],[1,2],[2,3],[-1,2],[-1,1],[2,0],[0,2],[-1,0],[0,1],[1,0],[0,1],[-1,1],[-1,0],[-1,1],[1,0],[1,1],[0,1]],[[699,662],[1,0]],[[700,662],[1,1],[0,2],[1,0],[0,1],[1,0],[1,2],[-2,0],[0,2]],[[703,670],[-1,0]],[[702,670],[-3,0],[-1,-1],[-1,1],[0,1],[-1,1],[0,1],[-2,1],[-1,0],[0,-1],[-1,-1],[0,-1],[-4,0],[-2,2],[2,2],[-1,1],[-2,-1],[-1,0],[0,1],[2,3],[2,2],[-1,0],[0,4],[-1,0],[1,1],[-1,0],[1,1],[2,-1],[1,0],[1,1],[3,1],[-1,0],[0,1],[1,0],[-1,1],[0,1],[1,1],[-1,2],[0,1],[-1,0],[0,2],[-1,1],[-1,0],[1,1],[-1,0]],[[689,699],[1,0]],[[690,699],[0,1],[2,2],[0,1],[-1,0],[0,1],[-1,0],[1,1],[0,1],[1,0],[0,2],[3,0],[0,2],[1,0],[-1,2],[-1,0],[0,3],[-1,2],[-1,1],[0,-1],[-1,0],[0,1],[-2,1],[-1,-1],[-2,0],[-4,-1],[0,1],[-1,1],[1,2],[-1,0],[0,-1],[-1,-1],[-3,0],[0,1],[-2,0],[-1,1],[-1,-1],[-3,1],[-1,-1],[-2,0],[-1,-1],[-3,1],[-1,1],[-5,0],[-1,1],[-2,1],[-3,0],[-1,1],[-1,0],[0,2],[1,0],[1,1],[0,2],[-2,1],[-4,0],[-3,3],[-2,1],[-1,0],[-2,-1],[-1,-1],[-1,0],[-2,2],[0,1],[-1,1],[-5,0],[0,2],[2,2],[-5,0]],[[624,740],[-4,0],[-1,1],[0,1],[-2,0],[-1,-1],[-2,0],[0,1],[-1,0],[-1,1],[-1,0],[-2,2],[-4,0],[-4,-2],[-4,-1],[-1,0],[-4,4],[-2,0],[-1,2],[-1,0],[0,3]],[[820,690],[-3,-3],[-7,0],[0,4],[-2,0],[-1,-2],[-2,0],[0,-2],[-4,0],[-2,-2],[0,-1],[1,-1],[0,-1],[-1,0],[-4,2],[-4,-2],[0,-1],[2,0],[0,-3],[-2,0],[-1,-1],[0,-4],[2,0],[3,-1],[-2,-1],[-4,-4],[0,-2],[1,-2],[-2,-2],[-2,-1],[1,-1],[2,1],[0,-1],[1,-1],[2,0],[3,-1],[0,1],[-1,0],[1,1],[6,2],[2,0],[1,-2],[3,0],[1,1],[1,0],[2,-2],[3,2],[0,-1],[3,-2],[2,0],[0,-2],[4,0],[0,3],[-1,1],[5,2],[2,-2],[0,-1],[6,0],[0,-1],[6,0],[2,-2],[2,1],[1,-1],[1,0],[0,-2],[-1,0],[0,-2],[1,-1],[1,0],[0,2],[2,2],[2,0],[1,1],[-1,1],[3,2],[1,0],[1,1],[0,1],[-1,0],[1,1],[0,1],[1,1],[2,0],[-1,1],[-2,0],[-1,1],[-1,0],[0,1],[-2,1],[0,-2],[-1,1],[-3,2],[-4,0],[0,-1],[-2,0],[2,2],[0,2],[3,3],[0,1],[-3,0],[0,1],[-2,1],[-2,0],[-1,1],[0,2],[-1,0],[-2,2],[-1,0],[-2,1],[-2,0],[-1,2],[0,1],[3,3],[-4,2],[0,2],[-2,0],[-1,-1],[0,1],[-1,-1],[1,-1],[1,0],[-1,-1],[-2,0],[-2,-2],[-3,2]],[[791,657],[0,0]],[[788,557],[-1,1],[0,-1]],[[787,557],[1,0]],[[697,636],[0,1],[1,-1],[-1,0]],[[696,637],[0,0]],[[332,737],[-3,0],[-2,2]],[[327,739],[0,1],[-1,0],[1,-1]],[[327,739],[0,-1],[-2,-1],[0,1],[-4,0],[0,1],[-2,0],[-2,1],[0,1],[-1,1],[-1,0],[0,-1],[-1,-1],[-2,0],[-2,1]],[[285,764],[4,0],[1,-1],[3,-1],[2,0],[0,1],[2,-1],[0,-1],[-1,0],[0,-1],[1,-1],[2,1],[2,0],[2,-1],[1,0],[0,-1],[3,0],[1,1],[1,-1],[2,0],[2,-2],[9,0],[2,-1],[0,-1],[3,-2],[1,0],[3,1],[1,-1],[0,1],[1,1],[3,0],[3,-3],[-3,-1],[1,-2],[1,0],[2,-1],[-2,0],[-1,-1],[1,-3],[-1,0],[1,-1],[1,0],[0,-1],[-1,-1],[-1,0],[-2,-1],[0,-1],[-1,0],[0,-1],[-2,0]],[[292,801],[1,0],[2,3],[-1,2],[-6,6],[1,1]],[[289,813],[2,0],[2,-1],[3,0],[1,-1],[1,1],[2,1],[2,-1]],[[302,812],[1,1]],[[304,813],[-1,0]],[[303,813],[0,-1],[-1,0]],[[302,812],[0,-1],[-2,-2],[-1,0],[2,-3],[2,0],[-1,-1],[0,-2],[1,-1],[0,-1],[-3,-3],[-2,-1],[-2,1],[-1,0],[-4,-1],[-2,-1],[-3,0]],[[484,792],[0,1],[2,0],[-2,-1]],[[484,792],[1,-1],[-1,0]],[[484,791],[-6,-2],[0,-1],[-2,-2],[-7,0],[-2,1],[-3,3],[-2,0],[-3,3],[-3,2],[-1,-1],[0,-1],[-1,-1],[-2,0],[0,-1],[1,0],[-1,-1],[-2,0],[-2,-2],[-1,1],[-2,1],[-1,0],[0,-1],[-2,0],[-1,-1],[-1,0],[1,2],[0,3],[-2,1],[-4,-3],[0,-1],[-3,3],[-2,1],[-1,0],[0,1],[-1,1],[0,2],[-1,0],[-2,2],[0,2],[1,0],[-1,2],[0,1]],[[425,805],[4,-2],[1,0],[1,1],[-1,1],[1,1],[-6,1],[-4,1]],[[421,808],[0,1],[1,0],[-1,1],[1,1],[0,1],[1,0],[0,1],[1,0],[0,1]],[[423,814],[1,0]],[[424,814],[0,2],[1,0],[0,-2],[1,0],[2,-1],[-1,-1],[2,-1],[1,-1],[2,0],[0,1],[1,0],[1,1],[1,0],[0,1],[1,0],[0,1],[3,3],[1,0],[0,2],[4,0],[5,-1],[0,4],[1,0],[4,1],[1,-1],[2,0],[0,1],[1,2]],[[459,825],[-1,0]],[[458,825],[0,1],[1,1],[5,0],[0,1],[2,0],[2,2],[3,-1],[0,-1],[-1,-2],[-3,0],[0,-3],[-1,-1],[1,-1],[2,0],[0,-1],[1,0],[2,-2],[-1,0],[0,-1],[1,0],[2,-1],[-1,-1],[-2,-1],[0,-3],[1,-1],[-4,0],[-2,-2],[0,-1],[1,0],[0,-3],[1,0],[0,-2],[3,-1],[1,0],[1,1],[1,-2],[0,-1],[2,0],[0,-2],[1,0],[2,-1],[1,-1],[2,-1],[0,-2],[2,0]],[[427,806],[-1,-1],[0,1],[1,0]],[[423,806],[0,0]],[[288,853],[-1,-1],[-2,0],[0,2],[1,1],[3,-2],[-1,0]],[[279,856],[-2,0],[3,3],[2,-1],[-3,-2]],[[292,801],[-1,0],[-1,-1],[-1,0],[-2,-2],[-1,-2]],[[286,796],[0,-12],[1,-2],[0,-2],[-1,-2],[0,-6],[-1,-2],[0,-6]],[[285,764],[0,-1],[2,-2],[6,-3],[2,0],[3,-1],[2,-1],[0,-1],[1,-2],[3,-3],[0,-1],[1,-1],[0,-2],[3,0],[2,-2],[-1,-2],[1,-1]],[[310,741],[-1,-1],[-2,0],[-1,-2],[-1,0],[-1,-2],[0,-1],[-1,0],[-1,-1],[1,-1],[0,-1],[-1,0],[2,-2],[0,1],[3,0],[0,-4],[1,-1],[-1,-2],[-2,0],[0,1],[-2,0],[0,-2],[-1,-1],[0,-1],[1,0],[-1,-1],[0,-3],[-1,0],[0,-1],[-7,-2],[-1,0],[-2,-1],[0,-1]],[[292,712],[-1,0]],[[291,712],[-1,0],[0,-1],[-3,-1],[-1,0],[-1,-1],[-2,0],[-1,1],[-1,-2],[1,-1],[0,-1],[1,0],[-1,-1],[1,-1],[0,-3],[-2,-1],[-4,-1],[-2,0],[-1,-1],[-4,-2],[-1,0],[0,-1],[-3,0],[0,-2],[-2,-3],[2,-5],[1,-4],[1,-1],[0,1],[1,0],[0,-2],[1,0],[0,-3],[-3,0],[-1,-1],[0,-7],[-1,-2],[0,-1]],[[265,665],[1,-1],[-1,-1],[1,0],[0,-1],[1,-1],[0,-2],[1,-1],[2,0],[2,-1],[3,-1],[5,-3],[1,-1],[2,-4],[0,-1],[1,0],[-1,-1],[-1,0],[0,-3],[1,-1],[0,-1],[-1,-1],[1,0],[0,-1],[-1,-1],[0,-2],[-1,-1],[0,-1],[1,-2],[2,0],[5,-1],[-5,-4],[-2,0],[-5,-3],[-1,-1],[1,-1],[-2,-1],[-2,0],[-1,1],[-2,1],[-2,0],[-2,-1],[-3,1],[0,1],[-2,0],[0,-2],[-2,0],[-2,-1],[-3,-3],[-1,-2],[-3,0],[-1,1],[-6,-3]],[[243,614],[-1,1],[-6,0],[-4,-2],[-2,-2],[-7,2],[0,1],[-3,3],[2,2],[2,0],[3,1],[2,1],[0,1],[4,0],[0,4],[-1,0],[1,1],[1,0],[1,1],[-1,0],[0,1],[-9,0],[-1,1],[-2,1],[0,2],[-1,0],[2,2],[1,0],[0,5],[1,1],[1,0],[2,1],[-3,2],[0,1],[2,1],[4,0],[-1,1],[-2,1],[-1,2],[0,1],[-1,0],[0,2],[-1,1],[-1,0],[-3,1],[-1,1],[-2,-1],[-3,-1],[-3,0],[-3,1],[-3,2],[-1,0],[-2,1],[-2,0],[-1,2],[0,3],[-2,2],[-2,0],[-6,3],[-1,0],[-1,-1],[-2,-3],[0,-2]],[[186,662],[-1,0]],[[185,662],[2,0],[2,-1],[0,-1],[-1,-1],[-1,0],[0,-2],[-1,-1],[0,-1],[-1,0],[-1,-1],[-2,0],[-4,-1],[-1,0],[-3,-2],[-2,-1],[-1,0],[-1,-2],[0,-1],[-3,0],[0,-1],[-2,0],[-1,-1],[-1,0],[0,-1],[-1,-1],[-4,0],[-2,-2],[-16,0],[-3,-1],[-2,-1],[0,-1],[-4,0]],[[131,638],[-3,2],[-2,2],[0,2],[2,3],[1,1],[1,2],[1,1],[0,4],[-1,3],[-2,0],[-1,1],[0,1],[-1,1],[-1,0],[0,1],[-1,1],[-2,4],[-1,0],[-1,-2],[-2,-2],[-1,0],[-8,2],[-2,0],[0,1],[-8,0],[-3,1],[-1,0],[-2,1],[-1,1],[-2,0],[0,1],[1,0],[0,4],[-1,1],[-1,3],[2,-1],[1,0],[1,2],[5,0],[-4,2],[-1,1],[0,2],[1,2],[-2,1],[3,3],[3,0],[2,1],[3,-1],[5,0],[1,1],[3,-1],[2,0],[1,-1],[3,0],[3,1],[3,-1],[4,-1],[1,1],[2,15],[0,7],[1,1],[1,2],[0,2],[3,3],[0,1],[1,1],[1,0],[2,3],[3,4],[1,1],[0,1],[1,3],[1,2],[1,1],[-1,1],[0,5],[-1,2],[0,6],[-2,1],[0,2],[1,1],[0,2],[1,1],[2,1],[-1,1],[1,2],[-1,5],[2,2],[1,2],[0,4],[1,0],[0,2],[7,0],[-1,1],[-3,0],[-4,1],[-23,0],[-3,3],[0,2],[1,0],[0,3],[1,1],[0,3],[1,5],[0,2],[3,3],[-1,1],[-1,2],[0,1],[4,-1],[2,0],[0,-1],[4,1],[1,1],[-3,2],[-2,2],[0,1],[3,2],[1,1],[2,1],[1,2],[1,1],[1,0],[1,1],[5,3],[2,1],[1,0],[3,1],[1,0],[3,1],[17,0],[3,-1],[2,-1],[3,1],[4,0],[2,1],[11,2],[6,0],[2,1],[4,0],[5,1],[6,0],[11,-1],[2,-1],[-1,-1],[0,-3],[1,-1],[1,-3],[1,0],[1,1],[2,0],[4,-4],[0,-1],[1,-1],[3,0],[0,-2],[-1,0],[0,-1],[1,-1],[0,-1],[2,-2],[-2,-2],[1,0],[-1,-2],[-6,-1],[-2,-1],[-2,1],[0,-4],[4,-4],[2,1],[1,0],[3,-1],[4,-4],[1,0],[0,-1],[1,0],[4,-1],[1,1],[2,0],[1,1],[1,2],[1,0],[0,2],[1,1],[1,3],[0,5],[-2,1],[-8,0],[1,5],[1,3],[2,2],[2,1],[1,1],[5,0],[5,-5],[8,-3],[7,0],[0,-1],[2,-1],[1,0],[1,-1],[-1,-1],[0,-1]],[[304,722],[-1,0],[0,1],[1,-1]],[[230,835],[0,0]],[[221,837],[6,-1],[2,-1],[-6,0],[-3,1],[-2,0],[0,-1],[-1,0],[-1,1],[1,1],[4,0]],[[212,834],[-5,-1],[-8,0],[-1,-1],[-2,0],[0,2],[1,0],[3,1],[12,0],[0,-1]],[[192,831],[-11,0],[-1,-1],[-2,0],[-1,-2],[-4,0],[1,3],[2,1],[12,1],[5,-1],[-1,-1]],[[169,827],[-4,0],[-2,1],[4,2],[1,-1],[2,0],[1,-1],[-1,0],[-1,-1]],[[159,826],[-6,-1],[-3,0],[-2,1],[-2,0],[-2,-1],[-2,1],[-1,-1],[-2,0],[-1,1],[1,0],[5,2],[17,0],[0,-1],[-2,-1]],[[129,822],[-17,-2],[-2,1],[7,1],[6,1],[12,0],[-1,-1],[-5,0]],[[112,816],[0,-1],[-2,1],[-1,1],[0,1],[3,1],[1,0],[0,-1],[-1,-1],[0,-1]],[[109,811],[0,-1],[-1,1],[1,0]],[[95,809],[1,-1],[0,-1],[-2,1],[-1,0],[-1,-1],[-1,1],[-3,1],[-1,0],[0,1],[-2,1],[-1,1],[1,0],[1,1],[1,0],[7,1],[5,0],[2,-1],[-1,-1],[-2,0],[-1,-1],[-3,-1],[0,-1],[1,0]],[[59,585],[2,-2],[-1,0],[0,-1],[5,0],[3,1],[3,0],[1,-1],[4,-2],[2,0],[1,1],[2,0],[0,-1],[2,1],[2,-1],[1,0],[1,-1],[0,-1],[4,0],[1,1],[0,-1],[1,-1],[3,0],[0,1],[1,0],[1,-1],[0,-2],[1,-1],[1,1],[2,-1],[1,0],[2,-2],[2,1],[1,0],[0,-1],[6,2],[1,-1],[0,-1],[2,-2],[-1,-1],[-2,-1],[0,-2],[-1,-1],[0,-1],[-1,-1],[0,-1],[1,-2],[-4,-1],[0,-1],[-2,-2],[2,-1],[-1,-1],[-3,-1],[2,-1],[1,-1],[1,0],[-1,-1],[3,-3],[0,-1],[1,0],[0,-1],[2,-2],[2,0],[0,-1],[1,0],[5,2],[1,1],[0,2],[1,0],[2,-2],[3,-1],[1,-2],[1,0],[0,-1],[4,-1]],[[135,540],[1,-1],[-1,-1],[2,-1],[1,-2],[-1,-1],[1,-1],[0,-1],[-3,-1],[1,-2],[0,-2],[3,0],[2,-2],[-1,-1],[0,-1],[-1,-1],[1,0],[0,-1],[2,-2],[0,-1],[1,0],[-1,-1],[2,-1],[4,2],[3,1],[1,0],[0,-1],[-1,-2],[0,-1],[1,0],[1,-1],[0,-2],[1,-1],[2,0],[0,-1],[1,-1]],[[157,509],[0,-1],[-1,-1],[0,-3],[1,-1],[-1,-1],[1,0],[-1,-2],[-1,-1],[1,-1],[-1,-1],[-3,0],[-1,2],[-4,0],[-2,-1],[-4,0],[0,-1],[1,-1],[-1,0],[0,-1],[1,0],[-2,-1],[-4,0],[0,1],[-1,1],[-3,0],[0,-1],[-2,-1],[-1,1],[-3,0],[-2,-1],[-1,0],[0,-1],[-1,-1],[0,-4],[-2,-1],[-1,1],[-2,0],[-2,1],[-1,0],[-2,-2],[-4,1],[0,1],[-2,0],[0,-1],[-2,0],[1,-2],[-2,-1],[0,-1],[-1,1],[0,1],[-2,1],[-4,0],[0,-1],[1,0],[0,-2],[-2,0],[0,-1],[-1,0],[0,-1],[-2,-2],[-4,1],[-3,0],[-1,1],[-2,0],[-4,-1],[-2,0],[-1,1],[0,3],[-2,0],[0,1],[-2,0],[-3,-1],[-1,-1],[0,-1],[-3,1],[2,2],[-1,0],[-2,1],[0,1],[1,1],[-1,1],[-6,0],[0,1],[-3,0],[-1,1],[0,3],[-1,0],[-1,1],[0,1],[-2,1],[-2,0],[1,1],[0,1],[-1,0],[-1,1],[-1,0],[-3,2],[-1,-1],[-4,-2],[-4,2]],[[33,502],[1,1],[-2,0],[-4,-1],[-2,-1],[-1,-1],[-2,1],[-1,1],[0,5],[2,0],[-1,1],[-1,2],[2,0],[0,1],[1,0],[2,2],[1,0],[0,1],[2,2],[1,2],[1,1],[0,1],[1,1],[2,1],[4,3],[-1,3],[1,1],[0,1],[-2,0],[1,3],[0,3],[1,3],[-1,2],[0,3],[-4,4],[-2,3],[-1,1],[-2,1],[-1,1],[0,1],[-2,0],[-1,1],[0,3],[1,1],[1,3],[-2,0],[-3,1],[-4,1],[-1,4],[1,1],[1,0],[-1,1],[-4,2],[-4,0],[-1,1],[4,3],[0,2],[-1,1],[0,1],[-2,1],[-1,1],[0,1],[1,2],[3,-1],[1,0],[2,1],[1,1],[1,0],[2,1],[1,1],[0,1],[4,-2],[5,-1],[3,-1],[-1,3],[-1,1],[-1,0],[0,1],[-1,1],[-3,1],[1,1],[1,0],[3,1],[4,-2],[0,-1],[-1,0],[4,-2],[6,0],[0,1],[3,-1],[1,-2],[4,0],[2,-1],[0,-1],[1,-1],[4,0]],[[361,49],[-1,0],[-2,2],[-3,0],[-4,1],[-8,1],[-3,-1],[-10,-4],[-2,1],[-2,4],[-1,0],[1,1],[-1,1],[1,0],[1,-1],[1,1],[-1,0],[0,1],[-3,0],[0,1],[-2,0],[-1,1],[-1,0],[0,1],[1,0],[-1,1],[-1,0],[0,-1],[-1,0],[-2,-2],[0,-1],[3,0],[1,-2],[-1,0],[0,-2],[-1,0],[-3,2],[-3,0],[-1,1],[1,1],[0,1],[-2,1],[0,2],[1,1],[2,0],[0,1],[-2,1],[-3,0],[-1,1],[0,1],[-2,2],[-1,0],[0,1],[-1,0],[0,-5],[-3,0],[0,2],[-1,1],[1,1],[-1,1],[-4,0],[0,1],[-1,0],[0,-1],[-1,-1],[2,0],[0,-2],[-1,0],[-1,1],[-1,0],[-2,-1],[-1,-1],[-1,1],[-2,-1],[-1,0],[-1,-1],[-1,0],[0,-1],[-2,-2],[1,-1],[0,-1],[-1,0],[-2,-1],[-1,-1],[-2,-1],[2,-2],[-1,-1],[0,-1],[1,0],[1,-1],[1,0],[1,-1],[1,0],[1,1],[0,-2],[1,-1],[0,2],[1,-1],[5,0],[0,2],[1,0],[0,1],[3,0],[1,-1],[2,1],[0,1],[1,0],[0,-1],[2,-2],[1,0],[-2,-2],[-1,0],[1,1],[0,1],[-2,-1],[0,-2],[1,-1],[0,-1],[-2,-2],[-2,0],[0,2],[-1,1],[-4,2],[-3,-3],[-2,0],[-1,-1],[-1,0],[0,-2],[1,-1],[1,0],[1,1],[1,-1],[-1,-1],[-2,0],[-4,-1],[-1,1],[-3,0],[-1,-1],[-2,0],[-1,1],[-3,0],[-1,1],[-2,1],[-1,1],[1,1],[-1,1],[-6,0],[0,-1],[-1,0],[-2,2],[-1,0],[-1,-1],[0,-1],[-2,0],[0,-1],[-2,0],[-1,-1],[-1,0],[0,-1],[-3,0],[0,-1],[-1,0],[0,-2],[-3,0],[-1,1],[0,-1],[-2,0],[-1,-1],[-3,0],[0,1],[-6,0],[0,-2],[-2,0],[-2,1],[-1,1],[0,1],[1,0],[-2,2],[0,1],[-3,0],[-3,-1],[-1,1],[-2,0],[0,-3],[-2,-1],[-5,-2],[-4,0],[-2,-1],[-2,0],[-2,1],[-1,1],[-2,1],[1,1],[0,-1],[1,0],[1,1],[2,0],[1,1],[0,1],[-1,1],[1,0],[1,1],[-2,-1],[-1,0],[-2,1],[-2,-2],[-1,0],[-2,-1],[0,1],[-2,1],[1,0],[0,2],[-1,1],[-1,0],[0,1],[-1,1],[0,1],[-1,0],[-2,2],[-1,0],[0,1],[-1,0],[0,3],[-1,2],[0,1],[2,0],[0,1],[1,0],[0,1],[1,0],[0,3],[-1,1],[0,1],[-1,1],[0,2],[3,6],[1,1],[0,2],[-1,1],[0,2],[3,3],[0,5],[1,0],[2,2],[1,2],[0,2],[-1,0],[0,2],[-1,0],[-1,1],[0,1],[-1,0],[0,1],[-1,0],[-1,1],[1,3],[-1,2],[0,2],[1,0],[0,4],[1,1],[1,0],[0,1],[1,1],[0,2],[1,1],[0,1],[1,0],[1,1],[0,1],[1,1],[0,1],[2,1],[1,1],[1,2],[0,3],[2,5],[2,2],[3,1],[0,1],[1,0],[-1,1],[0,3],[-1,3],[0,2],[2,4],[1,1],[0,1],[1,1],[0,5],[2,0],[2,2],[0,8],[-1,1],[1,1],[0,1],[1,0],[1,2],[1,1],[0,2],[2,2],[1,0],[2,1],[1,1],[1,0],[7,7]],[[310,54],[-3,0],[-2,-1],[-1,0],[0,1],[1,0],[1,1],[-1,1],[0,1],[1,0],[1,-1],[0,1],[2,0],[0,-2],[1,0],[0,-1]],[[421,396],[0,-1],[1,0],[0,-3],[1,0],[-1,-1],[0,-1],[-2,-2],[-1,0],[-1,-1],[0,-1],[-3,0],[-1,-1],[-2,0],[-1,-2],[0,-1],[1,0],[2,-1],[-1,-1],[-4,0],[0,-1],[-5,0],[0,1],[-1,0],[-2,-1],[-1,0],[0,1],[-3,0],[0,1],[-1,0],[-1,-2],[1,-1],[0,-1],[1,0],[0,-2],[-1,0],[-1,-2],[1,-1],[3,0],[0,-1],[-2,-2],[-1,0],[2,-4],[0,-1],[-1,-2],[-1,1],[-3,-1],[-3,0],[-1,-1],[-4,0],[-3,6],[-4,0],[-1,1],[-2,0],[0,-1],[-1,1],[-1,0],[-2,1],[-1,-1],[-1,0],[-2,1],[-3,0],[-3,-1],[1,-1],[-2,-2],[-1,-2],[-2,-1],[0,1],[1,1],[0,1],[-2,0],[-2,1],[-3,0],[0,-1],[-2,0],[0,1],[-1,-1],[-4,0],[-3,-3],[0,-3],[-1,0],[0,-1],[-1,-1],[0,-1],[5,0],[1,-1],[-1,-1],[1,-1],[0,-2],[1,-1],[0,-1],[-2,0],[0,1],[-1,-1],[0,-2],[1,-3],[-1,0],[0,-1],[1,0],[1,-2],[-1,-2],[1,-2],[0,-3],[2,-1],[-2,0],[0,-1],[1,-1],[-1,0],[1,-1],[1,0],[0,-1],[2,0],[1,1]],[[350,330],[0,1],[1,-1],[-1,0]],[[350,330],[0,-4],[1,-1],[0,-2],[1,1],[3,0],[1,-2],[-1,0],[-1,-1],[-1,-2],[3,0],[2,-2],[-2,-2],[0,-1],[-1,0],[0,-2],[-1,-1],[-3,0],[0,-3],[1,-1],[0,-3],[-1,0],[0,-1],[-1,0],[-2,-2],[1,-1],[-1,-1],[2,0],[2,-3]],[[278,297],[-1,1],[0,1],[-3,3],[-2,5],[-1,2],[0,2],[1,0],[2,2],[5,1],[5,5],[0,2],[-2,-1],[-3,0],[-2,2],[-1,3],[-3,3],[0,1],[1,1],[0,1],[-1,1],[0,1],[-2,0],[-1,1],[0,4],[1,0],[0,2],[-1,1],[0,2],[-1,1],[-1,2],[-6,6],[-3,2],[-6,1],[-2,0],[0,-1],[-3,0],[-1,-1],[-6,-2],[-3,0],[-2,-1],[-5,-2],[-1,0],[-1,-1],[-11,0],[0,1],[-1,0],[0,3],[-1,1],[-1,0],[-3,3],[-1,0],[-1,1],[-1,0],[-1,1],[0,1],[-1,0],[1,1]],[[208,359],[1,0],[2,2],[4,0],[-1,1],[0,1],[1,0],[-1,1],[1,1],[0,1],[1,1],[4,-2],[2,1],[1,-1],[1,-2],[1,1],[-1,0],[0,4],[1,1],[-2,0],[0,1],[-1,1],[-1,0],[-1,1],[0,2],[2,1],[0,1],[2,1],[2,0],[1,1],[0,1],[4,0],[0,2],[1,-1],[1,0],[0,-1],[1,-1],[2,0],[0,1],[1,0],[0,1],[1,0],[0,1],[-1,1],[-1,0],[0,1],[-1,0],[1,1],[0,1],[4,0],[1,-1],[3,0],[0,1],[2,1]],[[393,407],[-1,0],[-2,-2],[-1,0],[0,-2],[-1,-1],[-2,0],[-2,-2],[-1,1],[-2,0],[0,-1],[-2,0],[0,4],[1,0],[0,1],[-2,3],[-2,0],[-1,1],[-2,1],[-1,-1],[1,-1],[-1,-2],[0,1],[-1,0],[-2,2],[0,1],[-6,-2],[-1,-1],[-4,0],[0,-1]],[[357,405],[1,1]],[[358,406],[-1,1],[0,-1],[-4,0],[-2,1],[0,2],[-2,0],[-1,1],[0,2],[1,1],[0,1],[-3,0],[-4,-1],[0,1],[-1,0],[-2,-1],[1,-1],[-1,-2],[1,0],[0,-2],[-3,0],[0,-1],[-1,-1],[-5,0],[-1,-1],[-1,0],[-2,2],[-1,0],[-1,-1],[-4,0],[-2,1],[0,2],[1,0],[0,1],[-1,0],[0,2],[-2,0],[-1,-1],[0,-1],[-1,1],[-1,0],[-1,1],[-1,0],[-2,-1],[-2,1],[-5,0],[-2,-1],[-1,-1],[-2,0],[-3,-3],[1,0],[1,-1],[1,0],[-1,-1],[1,-1],[-1,0],[-2,-1],[-4,1],[-3,-3],[-2,0],[-1,1],[-1,0],[0,1],[-3,0],[-2,-1],[-3,-1],[0,1],[-1,0],[0,-2],[-2,-1],[-1,0],[-2,-1],[0,-1],[1,-1],[-2,0],[0,-1],[-2,-1],[2,-2],[2,-1],[1,0],[0,-1],[-1,0],[-1,-1],[-1,0],[2,-1],[-1,0],[0,-1],[-2,0],[0,-1],[-1,0],[-1,-1],[-1,0],[0,1],[-3,0],[-2,-2],[-1,0],[-1,2],[-1,0],[0,1],[-1,1],[-4,-2],[-6,0]],[[246,386],[-1,2],[-1,1],[0,2],[-2,2],[-2,0],[1,1],[0,1],[-1,1],[-1,2],[-1,0],[0,1],[-1,0],[0,1],[-1,-1],[-2,1],[1,1],[0,1],[-1,0],[-1,-1],[-2,0],[0,1],[-2,0],[-1,1],[1,0],[0,1],[1,0],[1,1],[0,1],[-1,0],[1,1],[1,0],[1,1],[0,1],[-2,2],[0,1],[-1,0],[0,2],[1,0],[0,1],[-1,1],[1,0],[1,1],[0,1],[1,0],[2,2],[0,1],[2,0],[0,1],[3,-2],[0,-1],[5,0],[-1,1],[2,1],[1,0],[0,1],[1,2],[0,1],[1,2],[-3,1],[0,1],[1,0],[1,2],[-1,0],[0,1],[-1,0],[0,1],[-1,0],[0,1],[-1,1],[0,1],[2,2]],[[246,438],[0,1],[2,0],[2,5],[0,2],[-1,1],[0,1],[-1,0],[-1,1],[0,1],[-1,1],[1,1],[3,1],[1,2],[3,2],[1,0],[0,1],[1,0],[0,1],[1,0],[3,3],[1,0],[0,1],[3,0],[0,-1],[2,-1],[6,0],[3,3],[0,1],[3,2],[1,1],[3,0],[0,1],[-1,1],[0,1],[1,1],[0,2],[1,0],[0,1],[1,0]],[[475,159],[1,-1],[0,-1],[-1,-1],[-3,0],[-2,-1],[0,-1],[-1,0],[0,-2],[-4,0],[-2,1],[0,2],[-1,0],[-1,-1],[-3,-2],[-4,1],[0,-2],[-1,-1],[1,-1],[1,0],[-1,-1],[-2,-1],[0,-2],[-2,0],[-3,-3],[0,-1],[1,-1],[0,1],[1,0],[1,-1],[0,-1],[1,-2],[0,-1],[2,-1],[2,-4],[1,-1],[1,0],[0,-6],[1,-1],[0,-2],[1,-1],[0,-3],[3,-6],[0,-1],[2,-2],[1,0],[0,-5],[1,0],[-1,-1],[1,-1],[-1,-1],[-1,-2],[1,-1],[-1,-1],[-1,-2],[0,-3],[-1,-1],[-2,0],[-1,-2],[1,-1],[2,-1],[0,-4],[-1,-1],[0,-3],[-1,-1],[-2,0],[1,-2],[1,1],[1,0],[0,-2],[1,0],[0,-1],[2,-2],[0,-1],[1,-1],[-2,0]],[[462,69],[1,0]],[[463,69],[0,-1],[-3,0],[-3,-2],[1,0],[1,-1],[0,-1],[3,-1],[1,0],[0,-6],[1,-1],[1,0],[0,-2],[-1,0],[0,-2],[-2,-1],[-2,0],[0,-1],[-1,-1],[-1,-2],[0,3],[-1,3],[-2,0],[0,-1],[-2,0],[0,1],[-3,0],[-3,-3],[0,-1],[-3,1],[-1,-1],[-1,1],[-4,1],[-1,0],[0,1],[-5,0],[0,-1],[-1,0],[0,-1],[-1,-1],[-2,0],[0,-2],[-1,-1],[-1,0],[-3,-2],[0,-1],[-1,0],[0,1],[-1,0],[-1,-1],[-3,0],[0,1],[-2,-1],[-1,1],[-1,0],[0,-1],[-2,0],[0,-2],[-2,0],[0,-1],[-2,0],[-5,-5]],[[402,35],[-3,0],[-1,1],[-3,0],[-7,5],[0,1],[-1,0],[-3,3],[-1,0],[-1,1],[-2,0],[-1,1],[-3,1],[-7,2],[-1,0],[-7,-1]],[[361,49],[0,2],[1,0],[2,-1],[1,1],[-1,2],[-3,3],[0,2],[-1,0],[0,2],[-3,1],[-1,0],[-1,1],[-2,1],[-1,1],[-1,0],[-3,1],[-3,4],[1,1],[2,0],[1,-1],[1,0],[0,3],[-1,0],[0,2],[-1,0],[2,2],[0,-1],[2,-1],[0,-1],[1,0],[0,1],[1,-1],[1,1],[0,1],[-1,0],[0,1],[2,0],[0,1],[1,0],[0,3],[-1,1],[-3,0],[0,1],[-1,0],[0,1],[-3,0],[-1,1],[2,2],[-2,0],[-2,-1],[-4,1],[1,0],[0,3],[-1,1],[1,1],[0,2],[-1,0],[0,1],[1,0],[-1,2],[0,1],[-2,1],[-2,0],[0,1],[-2,-2],[0,2],[-1,0],[-1,1],[0,1],[6,0],[1,2],[-2,2],[-2,0],[-1,2],[-4,0],[-1,1],[-1,0],[0,-1],[-1,0],[-1,1],[-1,2],[-1,1],[0,1],[-1,1],[-2,0],[0,2],[-1,1],[-1,0],[0,1],[-5,0],[-1,-1],[0,-1],[-1,-1],[0,1],[-1,0],[-2,1],[0,1],[1,1],[1,0],[0,1],[-1,1],[-2,0],[0,2],[-1,0],[0,1],[1,0],[-2,2],[1,0],[0,2],[-1,0],[-1,1],[-2,0],[2,2],[-3,0],[-1,1],[2,2],[3,0],[3,1],[-1,1],[-2,1],[2,0],[0,1],[1,1],[1,0],[1,1],[0,1],[-1,0],[0,1],[1,1]],[[461,74],[-1,0],[0,-1],[1,1]],[[363,56],[-1,0],[0,-1],[1,1]],[[442,527],[0,-3],[1,-1],[0,-1],[1,0],[0,-5],[1,0],[1,1],[1,-1],[0,-2],[3,0],[3,-1],[4,0],[-2,-2],[0,-1],[2,0],[1,-1],[1,0],[-1,-1],[0,-2],[4,0],[0,-1],[2,0],[1,1],[1,-1],[0,-1],[2,1],[1,0],[2,-1],[0,-1],[1,-1],[1,0],[1,-1],[1,1],[1,-1],[-2,-2],[-1,0],[0,-2],[-1,0],[1,-1],[-1,-1],[0,-1],[1,0],[0,-1],[-1,-1],[-1,0],[0,1],[-1,1],[0,1],[-2,2],[-2,-1],[-2,0],[-1,-1],[1,0],[3,-2],[2,0],[0,-2],[-1,0],[0,-1],[-1,0],[-1,-1],[1,-2],[-2,-2],[2,0],[0,-1],[3,0],[0,-1],[2,0],[0,-2],[1,0],[0,-1],[-2,0],[0,-1],[1,0],[-2,-2],[-1,0],[-1,1],[-2,-1],[-1,0],[-2,2],[-1,0],[-1,-1],[-4,1],[-3,0],[-2,-2],[0,-2],[2,-1],[0,-2],[1,0],[0,-1],[2,0],[-2,-1],[-2,0],[-2,-1],[0,1],[-6,0],[0,-2],[1,0],[0,1],[3,0],[-2,-2],[0,-1],[1,-1],[2,2],[2,0],[3,-2],[0,-2],[1,0],[0,-1],[-4,-2],[0,-2],[1,0],[1,1],[0,-1],[-1,-1],[0,-1],[-1,0],[-1,1],[-2,-2],[-1,1],[-1,0],[-2,-1],[0,-2],[-1,-1],[0,-1],[1,-1],[0,-2],[-1,0],[0,1],[-2,0],[0,-1],[-1,-1],[2,-1],[1,-2],[-1,-2],[-1,-1],[-1,0],[-1,-1],[1,-1],[0,-1],[-1,0],[0,-1],[-1,0],[-2,-2],[0,-4],[3,0],[2,-1],[4,0],[0,1],[1,1],[-1,0],[-1,1],[0,1],[1,1],[2,0],[1,1],[6,0],[1,-1],[0,-1],[1,0],[1,-3],[1,-1],[0,-1],[-4,0],[-1,-1],[0,-1],[1,0],[0,-4],[1,-2],[1,0],[-2,-2],[0,-2],[-1,0],[1,-2]],[[455,416],[-1,-1],[0,-1],[-1,-2],[-1,-1],[0,-1],[-2,0],[0,-1],[-1,-1],[0,-1],[-1,0],[-2,-1],[0,-1],[-2,0],[-1,-1],[-3,-2],[-3,-1],[0,1],[-1,1],[-1,-1],[0,-1],[-2,1],[-2,0],[-2,1],[0,1],[-2,1],[-1,-1],[-1,0],[-1,1],[-1,-1],[0,-1],[1,-1],[-2,-4],[0,-1],[-1,-1]],[[421,396],[-4,0],[-2,2],[-2,0],[-1,1],[-2,0],[-1,1],[0,1],[-1,0],[-2,-1],[-3,0],[-1,-1],[-7,4],[-1,0],[0,4],[-1,0]],[[393,407],[-1,1],[-1,0],[0,3],[-2,0],[-1,1],[1,2],[1,1],[0,3],[1,0],[1,3],[1,0],[1,1],[1,0],[0,1],[-1,1],[-1,0],[1,2],[0,1],[2,1],[0,1],[-2,1],[-1,0],[0,4],[-1,1],[1,0],[3,-3],[4,0],[1,-1],[1,0],[-1,-1],[4,-2],[2,0],[2,2],[1,0],[1,1],[-1,1],[-1,0],[0,2],[1,1],[2,3],[-3,0],[-2,5],[0,1],[1,1],[-1,0],[0,2],[-3,1],[-2,0],[-2,-1],[0,-1],[-1,0],[-1,-1],[-2,-1],[-1,1],[0,2],[-2,1],[-2,0],[0,2],[-1,-1],[-1,1],[1,1],[-1,1],[-2,-1],[-2,0],[0,-1],[-1,-1],[0,1],[-2,0],[0,1],[-1,0],[0,2],[-2,0],[-2,-1],[-1,1],[0,1],[-2,0],[-1,-1],[-2,1],[0,-1],[-1,0],[0,2],[-3,0],[0,1],[-1,0]],[[366,455],[0,1]],[[366,456],[-3,0],[-2,1],[-4,1],[1,1],[-1,0],[0,2],[-1,0],[-3,3],[1,1],[1,0],[-2,3],[-2,0],[0,-1],[-1,1],[-1,-1],[-2,1],[-2,0],[0,-1],[-1,-1],[-1,1],[0,1],[-1,1],[-1,0],[-3,1],[0,1],[-1,1],[-1,0],[-2,2],[-1,0],[-1,1],[-1,-1],[1,0],[0,-1],[-1,-1],[-1,1],[-4,0],[-1,1],[-1,0],[-1,-1],[-5,0],[-2,2],[0,1],[-4,-2],[0,1],[-1,1],[-2,0],[0,2],[-1,-1],[-1,0],[-1,1],[-1,0],[-1,-2],[-1,0],[1,-1],[-1,0],[0,-1],[-5,-2],[-4,0],[-1,1],[-4,0],[-5,2]],[[284,475],[0,1],[1,0],[1,1],[0,1],[1,0],[1,1],[0,1],[2,0],[0,2],[-1,1],[0,1],[-1,0],[0,-1],[-1,1],[1,1],[1,0],[1,1],[0,1],[-1,0],[-1,1],[-1,0],[0,1],[3,2],[1,0],[1,1],[6,0],[4,-1],[3,0],[1,1],[2,0],[1,1]],[[311,493],[-2,0]],[[309,493],[0,1],[-1,2],[2,2],[3,1],[2,2],[-1,1],[0,2],[1,0],[0,1],[1,0],[-1,1],[-1,0],[-1,1],[-1,3],[0,2],[-1,1],[0,1],[-4,0],[-1,-1],[-1,0],[-4,-1],[-2,-2],[-2,0],[-1,1],[-1,2],[-1,0],[-1,1],[1,2],[1,0],[3,2],[0,2],[1,0],[1,1],[0,1],[2,1],[1,-1],[1,1],[0,1],[3,1],[-1,1],[3,1],[2,-1],[1,0],[3,1],[1,1],[4,1],[2,-1],[2,0],[0,-1],[1,0],[4,2],[4,0],[1,-1],[1,1],[0,2],[1,1],[-1,0],[0,1],[-1,1],[-2,0],[1,1],[0,1],[-1,0],[0,1],[-3,3],[3,2],[6,2]],[[338,544],[5,1],[2,-2],[5,0],[1,-1],[-1,-2],[0,-2],[1,-1],[0,-1],[5,0],[1,-1],[1,0],[1,1],[1,2],[5,0],[0,2],[1,1],[1,0],[0,1],[3,0],[0,1],[2,1],[3,0],[0,3],[1,2],[1,1],[1,0],[1,2],[2,2],[-1,2],[-2,1],[2,1],[1,0],[1,1],[3,0],[3,1],[1,1],[0,1]],[[771,120],[-8,0],[-1,-1],[0,-1],[-1,-1],[-1,-2],[-1,0],[-1,-2],[-3,-1],[-1,-1],[-1,-2],[-1,1],[-1,0],[-1,-1],[0,-5],[1,-1],[4,-3],[2,-2],[2,-1],[2,-2],[1,-2],[1,-3],[0,-1],[4,-1],[1,-1],[0,-1],[2,0],[0,-1],[1,-1],[1,-2],[1,-1],[2,-4],[2,-2],[0,-2],[-3,-3],[-1,-2],[-2,-2],[-1,0],[0,-1],[-1,-1],[1,0],[1,-1],[-1,0],[0,-2],[-2,0],[-1,-1],[-1,-2],[3,-2],[1,1],[1,0],[1,-1],[3,0],[2,1],[1,1],[1,0],[3,-1],[0,-1],[2,-1],[1,-1],[0,-4],[2,-2],[0,-2],[-2,-3],[-1,-1],[0,-1],[0,0],[-1,-1],[-1,0],[-1,-1],[2,-2],[-3,-3],[1,-1],[1,0],[0,-1],[-1,0],[1,-1],[0,-3],[-2,0],[-1,-1],[0,-1],[-2,-1],[-1,1],[0,1],[-2,0],[0,-1],[-1,0],[-6,3],[-3,2],[0,1],[-1,1],[-2,0],[-1,2],[-3,0],[-2,1],[-1,1],[0,1],[-1,0],[0,2],[1,1],[0,1],[1,1],[2,1],[-2,2],[-1,0],[0,1],[-1,0],[-2,2],[2,2],[0,1],[-1,-1],[-2,0],[-1,1],[-3,0],[-2,1],[-4,0],[-1,-2],[-2,1],[-3,0],[-4,-6],[-3,1],[-2,-1],[-3,0],[0,1],[-1,0],[-5,5],[0,2],[-3,0],[-4,-1],[-1,0],[-2,1],[-2,0],[1,1],[-2,0],[-4,-1],[-2,-2],[-1,0],[-2,2],[0,1],[1,1],[1,2],[1,1],[-1,2],[-2,-2],[-1,-2],[-5,-2],[-2,0],[0,-3],[2,-1],[0,-1],[1,-2],[1,-1],[0,-3],[-3,-2],[0,1],[1,1],[-1,0],[-3,-1],[-2,0],[-2,1],[-3,0],[-3,1],[0,-1],[-2,1],[-2,-1],[-1,1],[-3,0],[-1,-1],[-6,0],[-2,-1],[-5,0],[0,-2],[-1,-1],[-8,1],[-8,0],[-2,-1],[-3,1],[-2,0],[0,-1],[-3,0],[0,-1],[-2,-2],[0,-4],[-2,-2],[-6,0],[-1,-1],[-2,1],[-4,-1],[-1,2],[-3,-3],[-3,-2],[0,-1],[1,-1],[1,0],[2,-3],[-5,1],[-1,0],[0,-1],[-1,1],[-2,0],[-1,-1],[-2,-1],[-1,0],[-1,-1],[0,-1],[-1,-2],[-1,-1],[-6,0],[2,3],[1,1],[0,1],[-5,0],[-1,-1],[-2,0],[-1,-1],[-2,0],[-2,-1],[-1,-1],[0,-1],[-14,0],[-2,1],[0,2],[1,0],[0,2],[-3,2],[0,1],[-2,1],[-1,1],[1,1],[-3,1],[-1,-1],[-3,0],[0,2],[2,1],[3,1],[0,1],[-2,0],[-1,2]],[[547,34],[-1,1],[0,2],[-1,0],[0,2],[2,1],[3,0],[2,1],[1,1],[0,2],[1,0],[-2,1],[-2,2],[-1,0],[0,1],[1,1],[0,1],[-6,0],[-1,1],[-1,0],[-1,-1],[-6,0],[0,1],[1,1],[1,2],[0,1],[1,1],[1,0],[0,1],[1,1],[0,1],[-2,-1],[-1,0],[-1,-1],[0,-1],[-2,-1],[-1,0],[0,-1],[-2,0],[-1,-1],[0,2],[-1,0],[-1,1],[0,1],[2,0],[0,4],[1,1],[0,1],[-1,0],[1,1],[4,0],[0,1],[-2,1],[0,1],[-1,0],[0,3],[1,1],[0,2],[1,1],[-1,1],[-1,0],[0,1],[2,0],[0,1],[2,2],[-2,0],[0,1],[1,0],[0,4],[-1,0],[0,1],[2,1],[1,-1],[0,3],[1,0],[0,2],[1,1],[0,1],[1,0],[0,2],[-1,0],[-1,2],[1,1],[-1,1],[-2,1],[0,-1],[-3,0],[-1,2],[1,0],[3,3],[1,2],[1,0],[1,2],[-2,0],[0,1],[-1,1],[0,4],[6,0],[1,1]],[[542,114],[1,0]],[[543,114],[1,0],[0,1],[1,1],[1,2],[1,0],[0,1],[1,1],[0,4],[3,0],[0,-1],[1,-1],[1,0],[0,-2],[2,-1],[2,2],[5,-2],[1,-1],[1,1],[2,0],[-1,2],[-1,1]],[[563,122],[1,0]],[[564,122],[0,1],[-1,0],[0,1],[1,1],[1,0],[0,1],[-1,0],[1,1],[1,-1],[0,3],[1,0],[3,-2],[2,1],[0,1],[-1,2],[0,1],[2,0],[0,1],[-1,0],[0,1],[1,1],[3,0],[2,1],[-1,2],[0,1],[1,0],[-1,1],[0,1],[1,0]],[[579,141],[-1,0]],[[578,141],[0,1],[1,0],[1,1],[0,2],[-1,0],[-1,2],[2,1],[1,0],[1,1],[3,0],[1,1],[1,0],[1,1],[3,0],[2,1],[-1,0],[-1,1],[1,1],[-1,1],[-2,-1],[-1,-1],[-2,2],[0,1],[-3,1],[-1,1],[0,3],[-1,1],[-1,0],[-1,1],[-4,1],[-1,0],[-1,1],[0,1],[3,0],[1,1],[0,2],[-1,1],[-1,0],[0,-1],[-1,1],[-2,0],[0,2],[-1,0],[0,-1],[-7,0],[-1,1],[-2,1],[1,1],[1,0],[0,2],[-1,1],[-1,0],[0,1],[-2,1],[-1,2],[-1,1],[1,1],[-1,3]],[[557,187],[0,-1]],[[557,186],[1,1],[1,-1],[0,2],[-2,0],[1,1],[0,3],[-1,0],[-1,1],[1,1],[0,1],[-1,1],[-1,0],[-2,2],[1,0],[1,-1],[1,0],[3,2],[1,0],[-1,2],[0,1],[-3,0],[0,2],[-1,0]],[[555,204],[-3,0]],[[552,204],[1,1],[1,-1]],[[554,204],[1,0]],[[555,204],[0,1],[1,1],[4,1],[2,0],[0,1],[1,1],[-1,1],[1,0],[1,-1],[2,2],[1,0],[-2,2],[2,2],[0,1],[1,1],[1,0],[2,1],[1,0],[1,-1],[1,1]],[[574,217],[0,1]],[[574,218],[1,2],[0,1],[1,0],[1,1]],[[576,222],[1,0]],[[577,222],[0,2],[3,0],[-1,1],[0,2],[2,1],[5,0]],[[587,229],[-1,-1]],[[586,228],[1,-2],[1,-1],[0,-2],[2,-1],[1,1],[0,1],[1,-2],[3,0],[1,1],[0,1],[4,0],[1,1],[0,1],[3,0],[-1,1],[0,2],[2,0],[-1,1],[-1,0],[-2,2]],[[536,82],[0,0]],[[555,193],[0,0]],[[530,53],[0,0]],[[821,885],[0,-1],[-3,-1],[1,-1],[2,1],[0,-1],[2,-1],[2,-2],[0,-1],[2,-3],[3,-1],[1,0],[0,2],[-1,0],[-1,2],[0,1],[3,1],[8,0],[2,1],[3,0],[1,1],[1,0],[0,1],[6,2],[1,0],[1,-1],[-2,0],[0,-2],[2,0],[1,-1],[3,0],[0,-1],[1,0],[2,-2],[0,-1],[2,0],[0,-1],[-1,-1],[0,-3],[-2,-1],[1,-1],[-1,-1]],[[860,868],[-2,-1],[1,0],[1,-1],[0,-1],[4,-2],[1,0],[1,-1],[1,0],[3,-3],[0,-2],[2,0],[1,-1],[1,0],[2,-2],[0,-1],[-1,-1],[-1,0],[-4,-2],[-1,-2],[-2,0],[-1,-1],[0,-1],[-1,-1],[0,-1],[1,0],[0,-1],[3,0],[2,-1],[1,-2],[1,0],[2,-2],[1,0],[1,-1],[1,0],[1,-1],[1,0],[3,-2],[1,0],[5,-2],[3,0],[2,-1],[3,-1],[7,0],[1,-1],[4,3],[1,0],[1,1],[2,-1],[1,0],[1,-2],[-3,-3],[-1,0],[0,-1],[-2,0],[0,-1],[2,0],[1,-1],[3,1],[0,-2],[1,0],[0,-2],[-1,0],[1,-1],[1,0],[0,-3],[1,-1],[0,-1],[1,0],[1,-1],[0,-6],[-1,-1],[0,-2],[1,-1],[0,-2],[1,-2],[1,-1],[2,0],[0,-4],[2,-2],[0,-5],[1,-1],[0,-1],[1,-1],[1,-2],[0,-1],[-1,-1],[0,-1],[2,0],[1,-3]],[[931,777],[-4,0],[0,-1],[-2,0],[-2,-1],[-3,0],[0,-1],[-3,-3],[-2,0],[-1,-1],[1,-2],[-7,0],[-1,1],[-5,0],[-3,-1],[-3,1],[1,2],[3,2],[1,1],[4,2],[6,6],[0,1],[1,2],[0,4],[-2,2],[-2,-2],[-3,0],[-1,1],[-3,2],[-2,0],[-1,-1],[-1,-2],[-1,0],[-1,-1],[-4,0],[0,2],[-4,0],[-1,1],[-1,0],[-2,-1],[-5,0],[-1,-1],[-2,2],[1,0],[0,1],[1,0],[0,2],[-3,1],[-2,1],[1,0],[0,1],[-1,1],[0,2]],[[873,800],[-1,0]],[[872,800],[-1,0],[-1,1],[-2,0],[-2,1],[-2,3],[0,2],[-1,0],[-2,-4],[1,0],[0,-2],[1,0],[0,-1],[1,-1],[2,0],[-1,-2],[-1,-1],[-5,0],[-1,1],[-4,0],[-5,-3],[-1,-1],[0,-1],[-2,0],[0,-1],[-1,-1],[1,0],[0,-1],[-1,-1],[-3,0],[-1,-1],[-3,0],[-1,-1],[-1,0],[1,-1],[0,-2],[-1,0],[0,-1],[-2,0],[-1,-2],[1,0],[-1,-2],[1,-2],[-2,0],[-1,-1],[0,-1],[-1,-1],[-3,-1],[0,1],[-2,0],[-1,-1],[1,0],[-3,-3],[-1,0],[0,-2],[-2,0],[-1,1],[-2,3],[-1,-1],[-2,0],[-2,1],[-2,0],[-1,-1],[-1,0],[0,-1],[-3,0],[0,-3],[-1,0],[0,-1],[-1,-2],[-3,0],[-2,4],[-4,0],[-1,-1],[-3,0],[-1,-1],[0,-2],[-2,0],[0,-1],[-1,-1],[-3,0],[-2,-2],[-1,0],[0,-1],[-1,-1],[-2,0],[-1,-1],[-1,0],[-2,2],[1,1],[1,0],[0,1],[-1,1],[-2,-1],[-1,0],[0,-1],[-1,0],[0,1],[-2,0],[-2,-1],[-1,-1],[-2,1],[-2,2],[-1,0],[0,-1],[-4,0],[-3,-1],[-1,1],[-1,0],[-2,1],[1,0],[1,1],[0,2],[-7,0],[-3,1],[0,1],[1,0],[0,1],[-2,1],[-3,0],[0,-1],[-1,0],[-1,-1],[-6,3],[-5,0],[-1,-1],[-4,0],[-2,-1],[-1,1],[0,2],[-2,1],[-2,0],[0,3],[-3,0],[-4,2],[-1,0],[-1,1],[-6,0],[-3,3],[0,1],[-1,0],[-1,-1],[-3,0],[0,-1],[-2,0],[-2,2],[-1,0],[-1,-1],[-2,0],[0,-1],[-2,0],[-1,1],[0,1],[-2,2],[-2,0],[0,-1],[1,-1],[0,-1],[-2,-1],[-3,-1],[1,0],[0,-4],[-2,0],[-1,-1],[-1,1],[-4,-4],[-4,0],[-1,1],[-1,0],[0,-1],[-2,-1],[0,-1],[-1,-1],[-2,0],[-4,1],[0,-1],[2,-2],[-1,-1],[-5,0],[-3,-1],[-2,0],[0,2],[-1,0],[-2,1],[-8,0],[-2,-2],[-2,-1],[-1,-1],[-3,0],[1,-1],[0,-2],[1,-1],[-1,0],[0,-1],[1,-1],[-1,0],[-1,-2],[0,-2],[-2,-1],[-4,0],[-2,1],[-1,0],[-1,1],[-7,0],[0,-4],[-2,0],[-1,1],[-8,0],[-1,1],[-2,0]],[[588,751],[-6,3],[-2,-1],[-1,0],[-1,2],[1,1],[1,2],[-2,1],[-4,1],[0,1],[-3,0],[-3,2],[-3,3],[0,1],[-3,4],[-2,0],[-1,2],[1,0],[0,1],[-1,0],[0,2],[-1,1],[-1,0],[1,1],[-5,0],[-1,1],[-1,0],[0,1],[-1,0],[0,-1],[-1,-1],[-3,0],[0,-1],[1,0],[-1,-1],[-1,1]],[[544,777],[1,0]],[[545,777],[0,-1],[-2,0],[0,-1],[-1,-1],[-1,0],[-1,1],[-2,0],[-3,1],[-1,1],[-1,0],[0,2],[-3,0],[0,1],[-1,1],[-2,1],[-6,0],[-4,1],[-2,-1]],[[515,782],[0,1],[2,1],[1,3],[-1,1],[1,4],[1,2],[5,0],[2,-1],[0,3],[3,0],[0,1],[3,0],[3,2],[0,1],[1,0],[2,1],[2,0],[0,1],[-1,0],[0,2],[2,1],[-1,1],[0,3],[2,0],[0,-1],[1,0],[6,1],[2,1],[-1,1],[0,1],[1,1],[0,3],[2,1],[0,1],[1,0],[0,1],[-1,1],[0,2],[-3,3],[-3,1],[-2,-1],[-2,0],[0,1],[-3,0],[-2,2],[0,2],[-2,0],[0,1],[-3,0],[0,3],[1,1],[0,3],[-1,1],[0,2],[-1,1],[0,3],[2,2],[1,0],[2,1],[1,0],[0,1],[1,1],[3,0],[1,1],[2,1],[0,1],[1,0],[1,1],[0,-1],[2,-1],[-1,-1],[1,-1],[3,1],[1,0],[1,1]],[[554,852],[1,0]],[[555,852],[-2,0],[-1,1],[-1,0],[-3,1],[0,2],[1,1],[-1,1]],[[548,858],[4,1],[1,1],[3,1],[8,3],[5,1],[11,0],[0,-1],[2,-2],[2,-1],[1,0],[1,1],[1,-1],[0,-1],[-1,0],[-1,-3],[1,-1],[2,-1],[2,0],[3,1],[2,2],[1,0],[1,-1],[0,-1],[2,-1],[1,0],[1,1],[2,-1],[0,-2],[1,0],[2,-1],[0,-1],[2,0],[0,1],[2,2],[1,0],[0,5],[-1,0],[2,1],[1,0],[0,2],[1,3],[1,0],[1,1],[1,0],[0,1],[-2,0],[1,1],[1,-1],[3,0],[3,2],[0,2],[1,1],[2,0],[1,1],[0,2],[-2,2],[0,-1],[-1,0],[-2,-2],[-3,-2],[-1,-2],[-1,0],[0,3],[2,2],[6,2],[6,5],[2,1],[8,0],[3,-1],[8,0],[6,2],[2,0],[6,2],[8,0],[3,1],[1,-1],[0,-3],[-1,-1],[1,-2],[-1,-1],[1,-1],[1,-2],[1,0],[4,-1],[0,1],[-3,0],[-2,2],[0,5],[1,0],[0,1],[1,-1],[1,1],[1,2],[-2,0],[-2,-1],[0,1],[1,0],[4,4],[2,1],[1,2],[2,1],[1,1],[2,1],[7,3],[3,1],[1,1],[1,0],[3,3],[0,1],[1,1],[2,3],[1,0],[1,2],[0,1],[3,1],[4,4],[0,2],[2,4],[3,2],[0,1],[1,-1],[0,-1],[2,-2],[3,0],[3,-1],[5,0],[2,-1],[28,0],[0,-1],[1,-1],[-2,-1],[-6,0],[-3,1],[-2,-1],[-1,-1],[-1,0],[0,1],[-2,0],[-1,-1],[-2,1],[-7,0],[0,1],[1,0],[-2,-1],[0,-1],[-1,0]],[[739,916],[-1,1],[0,0],[-3,0],[-1,-1],[-2,0],[-1,-1],[0,-1],[1,-1],[-4,0],[-2,-1],[-1,0],[0,-1],[-1,0],[-1,1],[-8,0],[-2,-1],[0,-2],[1,-1],[0,-1],[-4,0],[1,-1],[0,-1],[-1,-1],[0,-1],[-2,0],[-1,-1],[1,-1],[1,-2],[0,-1],[-1,0],[1,-1],[2,-1],[1,-1],[6,0],[0,1],[-3,0],[-2,1],[0,1],[-1,1],[2,2],[1,0],[4,1],[1,0],[0,2],[-1,1],[0,1],[7,0],[0,2],[1,0],[0,1],[1,0],[-1,1],[-1,0],[2,1],[3,0],[0,-2],[2,0],[0,1],[1,1],[1,0],[3,1],[3,2],[-1,1],[3,1],[2,0],[0,-1],[-2,0],[0,-2],[-1,-1],[0,-1],[0,0],[1,1],[1,2],[1,1],[1,-1],[0,-3],[2,0],[1,1],[1,-1],[2,0],[0,3],[1,0],[0,-2],[1,0],[1,-1],[1,-2],[0,-1],[4,0],[1,1],[3,1],[0,3],[2,1],[0,1],[3,1],[1,1],[2,0],[0,1],[4,0],[1,1],[0,1],[2,0],[0,-1],[1,0],[0,-1],[-1,-1],[0,-1],[1,-2],[2,-2],[4,0],[1,-2],[-2,-2],[1,-3],[2,-1],[1,-1],[0,-1],[-1,-1],[0,-1],[3,-2],[2,0],[2,1],[1,-1],[-2,0],[0,-1],[-1,0],[-1,-1],[2,1],[4,0],[2,-2],[0,-1],[8,0],[1,-2],[1,-1],[0,-1],[2,-2],[0,-1],[2,0],[-1,-1],[0,-1],[3,0],[2,1],[2,-1]],[[915,826],[-2,-1],[0,1],[2,0]],[[860,868],[1,1]],[[861,869],[1,-1],[0,1],[1,1],[0,1],[1,1],[1,2],[0,3],[-4,2],[0,1],[-2,1],[0,4],[3,1],[3,0],[1,-2],[1,-3],[3,-3],[5,-3],[6,-3],[2,0],[2,-1],[1,0],[2,-2],[6,-4],[4,-2],[1,-1],[7,-5],[4,-3],[-2,-1],[-2,0],[0,-1],[2,0],[0,-1],[1,0],[0,-5],[-3,1],[-18,0],[-3,-3],[-5,0],[-1,-1],[-1,1],[-1,0],[-1,-1],[-6,0],[-1,1],[-2,0],[-1,1],[1,0],[1,2],[3,0],[1,1],[2,0],[1,1],[2,0],[2,3],[-1,3],[-1,2],[-2,2],[0,3],[4,1],[3,-1],[0,-2],[-1,-2],[0,-2],[1,1],[0,1],[2,0],[1,1],[1,-1],[1,0],[0,-1],[2,-1],[0,0],[1,0],[0,2],[1,3],[0,2],[-1,2],[-1,0],[0,1],[-2,-1],[-1,0],[-1,3],[0,1],[-2,1],[0,1],[-6,0],[-1,1],[0,-3],[1,0],[0,-1],[-2,-3],[-3,-1],[-2,0],[0,1],[1,1],[0,2],[1,0],[0,1],[-1,0],[-1,1],[-3,-1],[-3,-3],[-4,0],[0,2]],[[889,857],[0,0]],[[888,858],[0,0]],[[878,866],[-1,-1],[0,1],[-1,0],[2,1],[0,-1]],[[877,895],[-1,0],[1,1],[0,-1]],[[861,890],[0,-1],[-1,0],[1,1]],[[819,947],[-1,-1],[0,-3],[1,-1],[1,-2],[3,-2],[4,-1],[7,0],[2,1],[11,0],[2,-1],[2,-2],[-1,0],[1,-1],[0,-2],[-1,-2],[-3,-1],[-1,0],[-3,-2],[-1,-1],[0,-1],[-1,0],[0,1],[-2,-1],[0,-3],[1,-2],[0,-1],[4,-4],[6,0],[6,-6],[3,-2],[-1,-1],[-1,0],[-1,-1],[0,-1],[-1,-1],[0,-4],[-1,-1],[-3,2],[1,0],[1,-1],[1,1],[-1,1],[-2,0],[-2,-1],[-2,1],[1,1],[3,1],[2,1],[0,1],[-2,0],[-1,1],[-3,-1],[-1,0],[-2,-1],[0,0],[2,1],[1,0],[3,2],[1,1],[-5,0],[0,-1],[-2,-1],[-1,1],[-1,0],[0,1],[-1,0],[-2,1],[0,-1],[-1,0],[-1,-1],[-5,0],[-4,-1],[-1,-1],[0,-1],[-2,-1],[-3,-1],[0,-1],[-3,-3],[0,1],[-1,0],[-1,-1],[-2,0],[0,-2],[1,0],[0,1],[1,0],[1,-1],[1,1],[2,0],[1,-1],[1,-2],[-3,-2],[-2,1],[-1,0],[-5,1],[-1,1],[1,0],[0,3],[1,1],[-2,-1],[0,-1],[-3,0],[-2,-1],[-4,2],[-3,0],[-1,1],[0,1],[1,1],[-1,0],[-2,-1],[-4,0],[0,1],[1,1],[3,0],[-1,1],[-3,1],[-1,0],[0,1],[-1,1],[-1,0],[0,1],[1,1],[0,3],[5,0],[3,1],[2,-1],[2,0],[1,1],[2,0],[0,1],[-2,0],[-1,1],[0,1],[1,0],[-2,2],[-2,1],[-6,0],[1,1],[0,1],[1,1],[-2,0],[-2,-1],[-1,1],[3,4],[2,1],[1,1],[5,-2],[0,-1],[-1,-1],[-3,0],[0,-1],[2,-1],[0,1],[1,0],[1,1],[1,0],[1,1],[1,0],[2,1],[-1,0],[-1,1],[-2,-1],[0,3],[-1,1],[-1,-1],[-4,0],[-1,1],[0,-1],[-1,0],[0,5],[-1,0],[7,1],[2,0],[1,1],[1,-1],[3,-1],[1,0],[1,-1],[-1,0],[0,-2],[2,-1],[0,1],[1,0],[-1,1],[0,2],[-1,1],[1,0],[1,1],[3,2],[1,1],[2,0],[0,-1],[-1,-2],[-1,0],[0,-1],[1,0],[0,1],[2,0],[0,-1],[2,-1],[0,-1],[2,-2],[-1,-1],[0,-1],[1,-1],[2,-1],[1,0],[1,-2],[1,1],[4,0],[-2,-1],[-1,-2],[0,-1],[4,0],[-1,-1],[2,0],[-1,-1],[-3,0],[0,-1],[1,-1],[2,1],[0,-1],[4,0],[0,1],[-1,0],[-1,1],[2,0],[1,1],[0,1],[-3,0],[1,1],[1,0],[0,2],[-2,1],[-2,0],[-1,2],[2,2],[-1,3],[-1,2],[-6,0],[-2,2],[-2,1],[-1,0],[-1,1],[0,2],[-2,2],[-2,0],[0,-2],[-2,0],[0,-2],[-2,0],[-1,-1],[-2,0],[-1,-1],[-2,0],[-1,-1],[-1,0],[3,6],[2,2],[0,3],[-3,0],[0,-1],[-3,-1],[0,-4],[-2,-2],[-2,-1],[-2,-2],[-2,0],[0,1],[1,0],[0,1],[3,1],[2,2],[1,2],[0,3],[1,1],[4,3],[2,1],[6,0],[2,1],[7,0],[1,-1],[-1,-2],[-1,-1],[-3,0]],[[836,905],[-2,-1],[1,1],[0,1],[1,-1]],[[834,904],[0,-1],[-1,0],[0,1],[1,0]],[[821,885],[-1,0]],[[820,885],[0,2],[2,-1],[1,-1],[-2,0]],[[817,887],[0,0]],[[810,896],[-1,-1],[0,1],[1,0]],[[801,915],[-1,-1],[-1,1],[2,0]],[[799,923],[0,-1],[-1,0],[1,1]],[[794,937],[-1,0],[1,1],[0,-1]],[[793,941],[0,-3],[-1,0],[0,2],[-2,-1],[0,-1],[-1,0],[0,-4],[1,0],[0,-1],[-1,-1],[-2,-1],[-2,-4],[0,-3],[-1,-1],[-1,2],[1,1],[2,5],[1,3],[0,1],[1,2],[0,2],[2,2],[3,0]],[[791,903],[-1,-1],[-1,1],[1,1],[1,-1]],[[790,918],[-1,0],[1,1],[0,-1]],[[777,919],[-2,0],[2,2],[3,0],[2,1],[1,0],[-2,-2],[-2,0],[-2,-1]],[[772,920],[1,0],[-1,-1],[0,1],[-2,0],[-1,-1],[0,1],[3,0]],[[748,916],[-1,-1],[-1,1],[2,0]],[[739,916],[1,0]],[[740,916],[0,-1],[-1,0],[0,1]],[[732,912],[-1,-1],[0,1],[1,0]],[[726,908],[-1,0],[1,1],[0,-1]],[[725,910],[0,0]],[[679,885],[1,-1],[-1,0],[0,1]],[[615,870],[0,-1],[-1,1],[1,0],[0,0]],[[612,863],[-1,-2],[-3,-3],[-1,1],[0,4],[-1,-1],[0,-2],[-1,-1],[-3,0],[0,1],[-1,0],[-1,1],[0,1],[3,2],[2,1],[3,1],[2,0],[2,1],[1,-1],[0,-2],[-1,0],[0,-1]],[[606,856],[-1,-1],[0,1],[1,0]],[[771,120],[-2,1],[-3,2],[-1,1],[0,1],[1,1],[0,1],[-1,1],[-1,0],[-1,1],[-1,0],[-2,2],[-2,1],[0,1],[-1,1],[-1,0],[0,1],[-1,0],[-2,1],[-1,-1],[-4,0],[-1,1],[-3,0],[-1,1],[0,1],[-2,-1],[-1,-1],[-2,1],[-1,1],[-1,0],[-1,1],[0,-1],[-1,1],[0,1],[-1,1],[0,1],[-1,0],[0,1],[-1,0],[0,-1],[-1,2],[-2,2],[0,-1],[-1,0],[-1,1],[0,1],[1,0],[0,1],[-2,-1],[-1,1],[-3,1],[-1,-1],[-1,0],[0,-1],[-1,0],[-1,-1],[-1,1],[-1,0],[0,-1],[1,-1],[-1,-1],[0,-1],[-1,0],[1,-1],[-1,-1],[-1,0],[0,-1],[-3,0],[-1,-2],[-2,0],[0,-2],[-1,0],[-1,1],[-2,0],[0,-1]],[[703,136],[1,0],[0,-1],[-1,1]],[[703,136],[0,-1],[-2,-1],[0,2],[-2,0],[0,-1],[-1,0],[0,1],[-2,0],[-1,-1],[-2,1],[0,3],[-1,0],[-1,1],[-2,0],[-1,1],[1,1],[0,1],[-1,0],[0,1],[-2,1]],[[687,145],[-1,0]],[[686,145],[0,3],[-3,0],[-1,-1],[0,1],[-5,0],[-1,1],[-1,-1],[-2,0],[-1,-1],[-2,0],[0,2],[-1,1],[0,1],[-2,0],[0,2],[1,0],[0,1],[1,2],[0,1],[-4,0],[-2,1],[1,1],[1,0],[0,1],[-1,2],[0,2],[1,0],[-2,2],[1,0],[0,2],[-1,0],[-1,-1],[-1,0],[-3,2],[-2,0]],[[656,168],[0,1]],[[656,169],[-1,0],[0,-1],[-2,0],[0,1],[-2,0],[0,1],[-3,0],[0,1],[-1,0],[-1,1],[-2,0],[0,-1],[-3,0],[-5,2],[-1,0],[0,1],[-1,0],[1,1],[1,0],[1,2],[-1,0],[-2,2],[0,2],[1,0],[-2,1],[-1,0],[-2,1],[0,1],[2,2],[0,1],[-1,0],[-1,2],[2,1],[4,0],[1,1],[-1,0],[-1,1],[0,2],[2,0],[2,1],[0,2],[-1,1]],[[639,198],[-1,0]],[[638,198],[-2,0],[0,1],[-1,2],[2,0],[0,4],[2,0],[1,1],[-1,1],[0,1],[-1,0],[-1,1],[1,2],[0,2],[-1,0],[0,-1],[-1,-1],[-2,1],[0,1],[-1,0],[-1,-1],[-2,2],[0,-1],[-2,0],[0,2],[-1,0],[-3,1]],[[795,244],[1,-1],[0,-2],[-1,-1],[4,-2],[3,-1],[5,0],[3,-1],[1,-1],[3,-2],[4,-4],[2,0],[0,-2],[1,-2],[-1,-1],[1,-2],[0,-2],[2,-2],[2,0],[1,-1],[1,0],[0,-1],[2,0],[0,-1],[1,0],[1,-1],[1,0],[0,4],[3,1],[2,-1],[3,0],[1,-1],[0,-1],[2,-2],[0,1],[2,0],[0,-1],[1,-2],[1,-1],[1,-3],[1,0],[1,-1],[4,0],[1,-1],[0,1],[2,0],[0,-1],[2,-2],[1,-3],[2,-1],[1,0],[0,-1],[3,-3],[-1,-1],[0,-1],[0,0],[0,-1],[3,0],[0,-1],[-2,-2],[0,-2],[-3,-3],[2,0],[0,-1],[1,-1],[2,0],[0,-1],[-1,1],[-1,0],[-1,-1],[0,-1],[1,-1],[0,-2],[-1,-1],[2,-2],[0,-2],[-1,0],[0,-1],[-2,-2],[1,-1],[-1,-2],[-1,0],[-2,-2],[-1,0],[0,1],[-1,0],[-1,-1],[1,-1],[-1,0],[0,-2],[-1,-1],[-1,-2],[-1,1],[-1,0],[-4,2],[-1,0],[-1,2],[-1,1],[-2,0],[-3,2],[-1,0],[-1,-2],[-2,1],[-1,1],[-3,2],[-2,0],[-1,-1],[1,0],[0,-1],[-2,-1],[-1,0],[0,-1],[-2,0],[-1,1],[-2,-2],[2,-1],[-1,-1],[0,-1],[2,-2],[-2,-2],[0,-2],[-1,-1],[-1,-2],[1,-1],[1,-2],[-1,-1],[0,-1],[-1,0],[0,-2],[-1,-1],[0,-1],[-1,-2],[-1,0],[-3,-2],[-3,-3],[-3,-2],[-7,-3],[-5,0],[-1,1],[-2,-1],[-4,-1],[-2,-1],[-4,0],[-2,-1],[-5,-1],[-1,-1],[0,-1],[-1,-1],[-5,-4],[-1,0]],[[459,292],[1,-1],[0,-1],[-1,0],[0,-2],[2,0],[2,-1],[-2,-1],[0,-2],[2,-1],[0,-2],[-1,0],[-2,-2],[3,0],[1,-1],[1,-2],[1,-1],[1,-2],[0,-1],[-1,-1],[-2,1],[-2,-1],[1,-1],[0,-1],[-1,-1],[1,0],[0,-1],[-1,0],[-1,-1],[1,-1],[2,-1],[1,0],[1,-1],[-2,-2],[3,-3],[-1,0],[0,-2],[-2,0],[0,1],[-1,-1],[0,-1]],[[462,255],[1,0]],[[463,255],[1,0],[0,-1],[-1,0],[0,-1],[1,0],[0,-2],[1,-2],[-1,0],[0,-2],[1,1],[0,-1],[2,0],[0,-1],[1,-1],[2,0],[-1,-1],[2,0],[0,-1],[1,-1],[1,1],[1,0],[2,-2],[1,0],[1,-1],[-1,-1],[1,-1],[-1,0],[-2,-1],[0,-1],[-2,0],[0,-1],[-1,0],[1,-1],[4,0],[0,-2],[-1,0],[1,-1],[1,0],[1,-1],[-1,0],[0,-3],[1,1],[1,-1],[3,0],[0,-1],[2,0],[0,-1],[1,0],[0,1],[1,0],[0,-1],[1,0],[0,-1],[1,0],[0,-1],[2,-1],[1,0],[0,-1]],[[492,220],[0,1]],[[492,221],[1,0],[2,-2]],[[495,219],[-1,0],[0,-1],[2,0],[0,-1],[1,-1],[0,-1],[1,0],[1,-1],[-1,-1],[1,-1],[1,0],[-2,-2],[-2,0],[0,-1],[2,0],[1,-1],[0,-5],[-1,0],[-2,-2],[1,0],[2,-1],[0,-2],[-2,-2],[-1,0],[1,-1],[0,-3],[-1,1],[-1,0],[1,-2],[1,0],[-1,-1],[0,-1],[2,-1],[1,-1],[0,1],[2,0],[-1,-1],[1,-1],[0,-1],[1,0],[0,-2],[1,0],[1,-1],[-1,0],[-2,-2],[-1,0],[-1,-1],[-4,0]],[[495,178],[0,1]],[[495,179],[1,1],[0,2],[2,0],[-1,1],[-2,0],[-2,-1],[0,-1],[-1,-1],[0,-1],[-2,0],[0,-1],[-1,-1],[-1,1],[0,3],[-1,1],[-2,0],[-1,-1],[-3,3],[-1,0],[-1,-1],[1,-1],[-1,-1],[-1,0],[0,-1],[1,0],[-1,-1],[1,-1],[-1,0],[1,-1],[1,0],[1,-1],[0,-1],[1,0],[1,-1],[0,-1],[2,-1],[0,-1],[-3,0],[0,-2],[1,0],[0,-1],[1,-3],[0,-1],[-1,0],[0,-2],[1,-1],[-2,-1],[-4,0],[-1,-1],[-2,0]],[[475,159],[-1,1],[0,2],[-2,0],[0,1],[-1,0],[-1,1]],[[470,165],[0,-1]],[[470,164],[-1,0],[-1,1],[-1,0],[0,-1],[-1,1],[-4,0],[0,2],[-1,0],[-1,1],[-2,1],[-2,0],[0,1],[-1,0],[0,1],[-6,0],[0,-1],[-3,0],[0,1],[1,1],[-1,1],[-1,0],[0,1],[-1,0],[0,1],[-2,-1],[-1,0],[-2,-1],[-1,0],[1,-1],[-1,0],[-1,-1],[-1,-2],[-3,0],[-1,-1],[0,-1],[-1,-1],[-1,0],[0,-1],[-2,0],[-1,1],[-6,0],[-1,-1],[0,-1],[-2,0],[0,-1],[-1,0],[0,-1],[-1,-1],[0,-1],[-1,1],[-2,0],[0,-1],[-1,1],[-1,0],[-1,2],[-5,0]],[[405,162],[0,1]],[[405,163],[-2,0],[-4,-2],[0,-1],[-1,0],[-1,1],[-1,-1],[-4,0],[2,1],[0,1],[-4,2],[0,-1],[-3,0],[0,-1],[-1,1],[-2,-1],[-3,0],[0,1],[-1,0],[-2,1],[0,-1],[-1,0],[-1,1],[-1,0],[1,1],[0,1],[-1,0],[1,1],[0,1],[-2,0],[-1,-1],[0,-1],[-4,1],[-1,0],[-1,1],[0,-1],[-1,-1],[-2,1],[0,1],[-1,1],[0,1],[1,0],[-1,1],[-1,-1],[-1,1],[-1,0]],[[359,171],[-6,0],[1,1],[-1,1],[-1,0],[-1,-1],[-1,0],[1,-1],[-1,0],[0,-2],[-1,0],[0,1],[-2,0],[-2,-2],[-2,0],[-1,1],[-6,0],[-1,-1],[-1,0],[1,-1],[0,-1],[-2,0],[0,1],[-2,0],[-1,-1],[-1,0],[0,-3],[-4,0],[0,-1],[1,-1],[-1,0],[1,-1],[-1,-1]],[[324,159],[1,0]],[[325,159],[0,-1],[-2,0],[-4,1],[0,1],[-1,0],[-2,1]],[[386,307],[-1,1],[1,1],[-1,0],[1,1],[1,0],[0,3],[-1,1],[-1,0],[0,1],[-2,1],[0,-3],[-1,-1],[-2,0],[-1,2],[1,1],[1,0],[-2,1],[-3,0],[-3,1],[3,0],[0,2],[-1,1],[3,0],[1,1],[2,0],[0,1],[1,0],[1,-1],[1,0],[1,1],[1,0],[1,1],[1,0],[2,-2],[2,0],[0,1],[1,1],[3,0],[1,-1],[0,-2],[4,0],[0,-1],[1,-1],[1,0],[-1,1],[0,3],[7,0],[3,1],[0,-1],[-1,0],[0,-1],[1,-1],[-1,-1],[0,-3],[-1,0],[1,-1],[0,-1],[-1,0],[-1,-2],[1,-1],[2,-1],[1,0],[2,1],[0,3],[3,0],[0,1],[1,0],[0,-2],[1,-1],[0,-2],[2,0],[1,1],[0,2],[2,1],[1,0],[1,1],[0,1],[1,0],[0,-2],[2,-1],[1,0],[0,-1],[1,0],[0,-3],[-1,-1],[0,-1],[1,0],[0,-2],[1,0],[1,-1],[2,-4],[-1,0],[0,-1],[-1,0],[-1,-1],[0,-2],[-2,-2],[-1,0],[0,-1],[1,0],[4,-1],[0,3],[1,0],[0,1],[1,0],[2,1],[1,0],[1,-1],[-1,0],[-1,-1],[0,-1],[3,0],[0,-1]],[[441,293],[1,0]],[[442,293],[0,-1],[-1,0],[1,-1],[0,-2],[-1,0],[0,-1],[1,-1],[-1,-1],[0,-1],[1,-1],[10,0],[0,1],[1,1],[2,1],[1,1],[0,1],[-1,0],[0,1],[1,1],[1,0],[0,1],[2,0]],[[476,158],[0,0]],[[360,171],[0,-1],[-1,1]],[[359,171],[1,0]],[[533,709],[-1,-1],[1,-1],[1,-2],[2,-2],[0,-2],[1,-2],[3,0],[1,-1],[0,-1],[1,-1],[2,-3],[1,0],[1,-1],[0,-2],[1,0],[1,-1],[0,-1],[3,-3],[2,1],[3,1],[0,-3],[-1,0],[-2,-2],[0,-1],[-1,-2],[1,-1],[1,-2],[1,-1],[5,-4],[-6,0],[-1,-1],[0,-2],[-1,0],[0,-2],[4,-4],[1,0],[1,-2],[1,0],[2,-2],[0,-1],[2,0],[1,-1],[2,-1],[0,-2],[-1,-1],[-2,-1],[-6,0],[0,-1],[2,0],[0,-1],[2,0],[2,-3],[0,-1],[-1,0],[-2,-1],[2,-3],[1,1],[1,0],[0,-1],[1,-1],[0,-2],[2,0],[1,-2],[-1,-1],[-2,0],[-1,-1],[-2,0],[-1,-1],[0,-1],[-1,-2],[1,0],[2,-1],[3,0],[0,-1],[-1,-1],[0,-1],[-1,-1],[0,-1],[-2,0],[-2,-2],[-4,-2],[-3,0],[0,-1],[2,-1],[1,0],[0,-2],[-1,-2],[-10,0],[-2,-1],[-20,0],[-1,-1],[-1,0],[0,-2],[-1,0],[0,-1],[-1,0],[-3,-1],[-1,0],[0,1],[-1,-1],[-2,0],[-1,-1],[3,-2],[0,-1],[2,0],[0,-1],[1,0],[0,-1],[1,-1],[1,1],[1,0],[1,-1],[-1,0],[-1,-1],[-1,0],[-1,-1],[0,-2],[1,-1],[1,0],[2,-2],[0,-1],[-2,-2],[-2,-1],[-2,-2],[-1,0],[-1,-1],[0,-1],[1,0],[-1,-1],[0,-3],[1,-1],[0,-2],[-1,0],[3,-3],[2,0],[1,-1],[0,-2],[2,-2],[1,0],[1,-1],[0,-2],[-1,-1],[1,-1],[0,-2],[3,-3]],[[526,561],[-2,-1],[0,-1],[-2,0],[-2,-1],[0,-2],[-1,0],[1,-2],[0,-1],[3,0],[-1,-2],[0,-1],[-1,0],[-2,1],[-1,0],[0,1],[-2,1],[-1,-1],[-1,0],[0,-1],[-3,-1],[-5,0],[-2,2],[-1,0],[-6,2],[-6,0],[0,-3],[-1,-1],[0,-2],[-1,0],[-1,-1],[0,-1],[-1,-1],[-3,0],[-1,-2],[0,-1],[-2,0],[-1,-1],[-3,0],[-1,-2],[-2,0],[0,1],[-1,0],[-1,1],[-1,-1],[-1,-2],[0,-1],[-1,0],[0,-1],[-3,0],[-1,-1],[1,0],[0,-1]],[[467,534],[-1,0]],[[466,534],[-7,0],[0,-1],[-1,-1],[-1,0],[0,2],[-1,0]],[[455,534],[1,0]],[[456,534],[-1,-1],[-2,-1],[-2,0],[0,-1],[-1,-1],[-1,0],[-1,-1],[-2,0],[-1,-1],[-1,0],[0,-1],[-2,0]],[[442,527],[0,3],[-1,0],[-1,1],[0,1],[-3,0],[0,-2],[-1,1],[-2,1],[0,-3],[1,0],[-1,-1],[1,-1],[1,0],[-1,-1],[-1,0],[-1,2],[0,2],[-2,1],[-3,0],[0,-3],[-3,0],[-2,-1],[-1,-1],[-2,0],[-2,-1],[0,-1],[2,-1],[0,-1],[2,-2],[1,0],[2,2],[0,-4],[-4,-2],[-1,1],[-2,1],[-3,0],[0,1],[-5,0],[0,1],[-3,0],[-1,1],[-2,1],[-1,0],[-1,2],[-1,1],[2,0],[1,1],[-1,0],[-1,1],[1,1],[0,1],[1,0],[0,1],[3,0],[1,1],[1,0],[2,1],[-1,1],[0,5],[1,0],[0,1],[-1,0],[-1,1],[-4,5],[0,1],[1,-1],[1,0],[1,1],[1,2],[-1,1],[0,1],[1,-1],[3,0],[-1,1],[-1,0],[0,1],[-1,1],[1,1],[1,0],[3,-2],[2,0],[0,2],[-1,1],[-1,0],[-2,2],[-1,0],[0,1],[-1,1],[0,2],[-2,0],[-2,-1],[-3,0],[-1,1],[-1,0],[0,1],[-1,-1],[-2,-1],[-3,0],[0,4],[-2,-1],[-1,0],[-1,-1],[-2,1]],[[387,562],[2,0]],[[389,562],[0,1],[-1,0],[-1,2],[2,0],[0,3],[1,0],[2,1],[1,1],[2,1],[0,1],[2,0],[3,1],[1,0],[2,2],[-1,1],[2,2],[0,2],[4,3],[3,0]],[[411,584],[0,-1]],[[411,583],[1,1],[-1,0]],[[411,584],[0,1],[1,1],[1,0],[0,-1],[2,1],[1,1],[0,2],[2,1],[0,1],[1,0],[1,1],[1,-1],[1,0],[1,-1],[1,0],[3,-1],[1,1],[0,1],[1,1],[2,0],[2,1],[1,0],[0,1],[3,0],[-1,1],[2,0],[0,-1],[1,1],[2,1],[1,-1],[0,-1],[2,1],[0,1],[1,-1],[2,-1],[4,1],[0,1],[-1,2],[-1,0],[0,1],[4,0],[0,1],[1,0],[3,-3],[1,1],[0,1],[1,2],[2,1],[2,-1],[1,1],[2,-1],[5,0],[1,2],[-1,2],[1,1],[-1,1],[1,1],[0,3],[-1,1],[0,1],[1,0],[0,1]],[[472,614],[-1,1],[1,0]],[[472,615],[0,-1]],[[472,614],[0,3],[-1,0],[0,1],[-1,0],[0,2],[-1,1],[1,1],[2,0],[0,1],[-1,0],[0,1],[-1,0],[0,2],[1,2],[2,2],[2,0],[0,-1],[3,0],[0,2],[1,0],[-2,2],[0,1],[-1,0],[-2,1],[-1,1],[-3,1],[-1,-1],[-3,0],[0,1],[-7,-1],[-1,0],[-1,-1],[-1,1],[-6,0],[0,4],[2,0],[1,1],[1,2],[0,1],[2,1],[1,0],[0,1],[1,-1],[1,1],[0,4],[1,1],[2,-2],[1,0],[0,-1],[1,1],[0,1],[1,1],[0,1],[1,1],[0,2],[-1,0],[-1,1],[0,1],[2,1],[4,0],[1,1],[1,2],[1,1],[2,0],[1,-1],[2,0],[0,2],[3,1],[1,0],[-1,1],[0,1],[1,0]],[[482,666],[1,-1],[0,1],[-1,0]],[[482,666],[0,1],[-2,2],[1,1],[0,2],[-1,0]],[[480,672],[-1,1],[2,0],[0,1],[2,0],[1,1],[-1,0],[2,1],[2,0],[0,1],[1,0],[0,2],[1,-1],[2,0],[0,-1],[1,0],[0,1],[-1,1],[2,-1],[1,0],[-1,1],[2,0],[0,1],[-3,0],[0,1],[2,2],[1,2],[-1,1],[-2,1],[0,1],[-1,0],[3,3],[-2,3],[0,1],[-1,0],[0,3],[-1,0],[0,2],[1,1],[1,0],[2,3],[-1,1],[0,1],[3,2],[0,2],[1,0],[1,1],[2,0],[3,1],[4,1],[1,0],[1,1],[1,-1],[2,-1],[3,-3],[1,0],[3,-3],[4,-1],[1,1],[2,1],[3,0],[2,1],[1,1],[1,0]],[[478,673],[0,0]],[[795,244],[-1,-2],[0,-1],[1,0],[-1,-1],[-2,-1],[0,-1],[-1,-1],[0,-1],[-2,1],[-1,0],[-4,2],[0,2],[-2,1],[-4,0],[-1,1],[0,-1],[-1,0],[-2,1],[-3,-3],[-2,0],[-1,1],[-1,-1],[1,0],[0,-1],[-3,-1],[0,1],[-7,0],[0,-1],[-4,0],[-1,1],[0,-1],[-2,0],[0,-1],[1,0],[-1,-1],[-2,0],[-1,1],[-1,0],[-1,-1],[-1,0],[-1,-1],[-1,0],[-3,1],[-1,0],[-1,-1],[-2,0],[-1,-1],[-1,1],[-2,0],[0,-1],[-2,0],[0,-1],[-3,0],[-1,-1],[0,-2],[-1,-1],[-2,0],[0,1],[-1,0],[0,-1],[-2,-1],[0,-1],[-1,0],[1,-1],[0,-1],[1,0],[0,-6],[-3,0],[-1,1],[-1,0],[0,-2],[1,0],[0,-1],[-1,-1]],[[716,217],[0,-1]],[[716,216],[0,-3],[1,-1],[1,0],[-2,-1],[-1,-2],[-1,0],[0,-2],[1,0],[0,-1],[-2,0],[-1,-1],[0,-1],[-2,0],[0,-1],[-2,-1],[-1,0],[-2,2],[0,-1],[-1,0],[0,1],[-2,0],[-1,-1],[0,-1],[-1,0],[0,-1],[-1,1],[-2,0],[0,1],[-1,1],[-1,-1],[1,0],[0,-2],[-1,0],[0,-1],[-1,1],[-1,0],[0,-3],[-2,-1],[-2,0],[0,-1],[-2,0],[-1,-1],[-2,-1],[-2,0],[0,-1],[1,-1],[-4,0],[-1,1],[1,1],[0,2],[1,1],[0,1],[-1,1],[0,4],[1,1],[1,0],[0,1],[1,-1],[0,3],[-1,0],[0,2],[-1,0],[-1,1],[-2,0],[0,1],[1,1],[-1,0],[-1,1],[1,1],[-1,0],[-1,1],[-2,0],[-1,1],[-1,0],[0,1],[-1,0],[0,-1],[-3,0]],[[667,215],[0,1]],[[667,216],[0,1],[-3,0],[0,-1],[-2,0],[0,-1],[-2,0],[-1,1],[1,0],[0,1],[-1,1],[-1,0],[-1,1],[1,0],[1,1],[-1,1],[-2,0],[1,1],[-1,0],[0,1],[-2,0],[-1,1],[1,0],[0,1],[-5,0],[-4,-2],[0,-1],[-1,-1],[0,-1],[-2,0],[-2,1],[0,1],[-2,-1],[0,2],[-1,0],[0,1],[-2,0],[-1,1],[-1,-1],[-2,0],[-2,-1],[-3,0],[0,-3],[1,0],[-1,-1],[-1,-2],[-1,0],[0,-1]],[[624,216],[-2,3],[0,1],[-2,1],[-1,0],[0,1],[-1,1]],[[617,223],[1,0]],[[618,223],[0,2],[-1,1],[-2,0],[0,1],[2,0],[0,2],[1,0],[0,1],[-1,1],[-3,0],[0,1],[-2,-2],[-3,0],[-4,1],[-3,1]],[[602,233],[0,-1]],[[602,232],[-1,0]],[[601,232],[-1,1],[-1,0],[-1,1],[1,1],[-2,2],[-3,0],[0,3],[1,0],[-1,2],[-1,0],[0,3],[-3,0],[0,1],[-2,0],[0,3],[3,0],[3,-1],[0,1],[-2,1],[-1,2],[0,1],[1,0],[-2,2],[-1,0],[0,1],[1,0],[-1,1],[-7,0],[-1,1],[1,0],[0,1],[-1,0],[-2,1],[1,1],[1,0],[2,1],[1,0],[1,-1],[1,0],[0,2],[-1,0],[1,1],[3,-1],[0,-1],[2,0],[0,1],[1,-1],[2,-1],[1,0],[2,2],[2,0],[0,1],[1,0]],[[601,264],[-1,0]],[[600,264],[1,2],[-1,1],[0,1],[2,0],[1,1],[-1,0],[1,1],[2,0],[0,2],[2,1],[0,1],[1,0],[1,1],[-1,0],[0,2],[1,0],[0,-1],[1,0],[1,1],[1,-1],[5,-1],[3,0],[0,2],[1,2],[1,1],[2,3],[-1,0],[0,1],[-1,0],[-2,2],[0,1],[-3,0],[0,1],[1,0],[1,1],[-1,0],[0,2],[1,0],[0,1],[-3,0],[-1,1],[2,1],[2,0],[0,1],[1,1],[1,0],[-1,1],[1,1],[-1,0],[0,1],[-1,0],[0,1],[1,0],[0,1],[3,0],[1,1],[-1,2],[-2,0],[0,1],[-1,1],[1,1],[0,2],[-1,0]],[[620,309],[0,1]],[[620,310],[-1,1],[1,0],[0,1]],[[620,312],[0,2]],[[620,314],[0,1],[-1,1],[1,0],[2,-1],[1,0],[1,2],[0,2],[4,1],[0,2],[1,2],[-1,1],[1,1],[1,-1],[1,0],[1,1],[1,-1],[2,0],[0,2],[3,0],[0,1],[1,1]],[[640,329],[-1,0]],[[639,329],[0,1],[2,0],[1,-1],[1,1],[2,-1],[2,2],[1,-1],[2,0],[0,1],[3,0],[-2,1],[0,2],[-1,1],[1,0],[1,1],[-1,0],[0,1],[-1,0],[-1,1],[1,0],[0,1],[-1,3],[-1,0]],[[648,341],[0,1]],[[648,342],[0,1],[-1,2],[7,0],[0,1],[3,0],[0,2],[1,-1],[3,0],[3,1],[5,0],[1,1],[1,-1],[0,1],[2,-1],[1,1],[2,1],[0,-2],[2,-1],[2,0],[0,1],[2,1],[2,0],[3,1],[2,0],[0,1],[1,1],[0,1],[-1,1],[4,1],[1,0],[2,2],[0,1]],[[696,358],[2,0],[0,-1],[1,0],[1,1],[2,-1],[0,-1],[1,-2],[1,1],[1,0],[2,-2],[2,0],[0,-1],[2,0],[0,-1],[1,0],[2,-1],[1,0],[0,-1],[-1,0],[1,-1],[2,1],[2,0],[1,-1],[1,0],[1,-1],[0,-1],[-1,-1],[-1,0],[-1,-1],[0,-1],[1,-1],[1,0],[2,-1],[3,0],[1,-1],[1,-2],[-1,-2],[-2,-1],[-1,-2],[-1,-1],[-1,0],[0,-3],[-1,1],[-1,-1],[-1,-2],[0,-4],[-7,-3],[0,-3],[4,-4],[0,-1],[3,-1],[1,0],[1,-1],[4,0],[0,-4],[-1,-1],[1,-1],[0,-2],[0,0],[1,-1],[1,1],[2,-1],[0,-3],[1,0],[1,-1],[-1,-1],[0,-2],[3,-3],[-1,0],[1,-1],[3,-1],[0,1],[1,0],[1,-1],[0,-5],[-1,-1],[2,-1],[0,-4],[3,-1],[2,-1],[1,0],[1,-1],[2,0],[2,-2],[1,-2],[0,-2],[1,0],[1,-1],[0,-2],[7,0],[1,-1],[4,0],[-1,1],[0,1],[2,0],[1,-1],[4,0],[1,-1],[2,0],[0,-1],[1,-1],[3,-2],[2,0],[0,-5],[3,0],[0,-2],[3,0],[0,-3],[1,0],[2,-1],[0,-2],[1,0],[2,-2],[1,0],[1,-2],[1,0]],[[647,344],[0,0]],[[405,272],[1,0]],[[406,272],[-2,0],[0,-2],[-3,0],[-2,1],[-1,0],[-1,-1],[-2,1],[-2,0],[-1,1],[0,1],[-2,-1],[0,-2],[-1,0],[0,-1],[-1,-1],[-2,0],[-1,1],[-5,0],[0,1],[-2,1],[-1,1],[-2,-2],[0,-3],[-2,-1],[0,-1],[-1,-1],[-2,0],[0,-1],[-1,-2],[-1,-1],[-1,0],[-1,2],[-1,0],[-1,1],[-1,0],[-1,1],[-1,0],[-1,-1],[0,1],[-1,0],[-1,-2],[0,-2],[-2,0],[-1,-1],[2,0],[1,-1],[0,-1],[-4,0],[0,1],[-6,0],[-2,2],[-3,0],[1,-1],[1,0],[1,-1],[-2,-2],[-1,0],[0,-1],[-1,0],[-1,1],[0,-2],[1,0],[0,-1],[-2,0],[-1,-1],[-2,-1],[0,-1],[-1,-1],[-3,0],[-4,-1],[0,-1],[1,-1],[0,-1],[-4,-1],[-1,1],[-3,2],[-1,0],[1,-1],[-1,-2],[0,-2],[1,0],[1,1],[1,-2],[-1,0],[0,-1],[-1,-1],[1,0],[-1,-1],[4,0],[1,1],[1,-1],[0,-1],[1,-1],[1,-2],[-2,-2],[-1,0],[0,-1],[1,0],[0,-2],[-1,-1],[0,-1],[1,-1],[1,0],[2,-1],[1,-2],[0,-1],[1,0],[1,-1],[-1,0],[0,-1],[1,-1],[1,-2],[0,-3],[-3,0],[-1,1],[0,-3],[2,0],[0,-1],[-1,0],[-1,-1],[1,0],[0,-3],[1,-2],[-2,-1],[-1,-1],[0,-1],[-2,-1]],[[327,201],[1,0]],[[328,201],[1,-1],[-1,0],[0,-1],[2,0],[0,-1],[-1,-1],[1,0],[0,-1],[-1,0],[-2,-1],[-2,0],[0,1],[-2,0],[-2,-1],[-1,-2],[3,-3],[0,-2],[2,0],[3,-2],[-1,0],[-2,-2],[1,0],[0,-1],[-2,-2],[-1,0],[-1,-1],[-1,0],[0,-1],[-1,0],[-1,-1],[0,-2],[-1,0],[1,-1],[-1,-1],[1,0],[0,-4],[-2,0],[-2,1],[-1,0],[0,-4],[1,0],[0,-2],[1,0],[0,-1],[-1,-1],[0,-2],[1,0]],[[316,161],[0,-1],[-1,-1],[0,-1],[1,0],[0,-1],[1,-1],[2,0],[3,-2],[0,-1],[-1,0],[-1,-1],[-3,-1],[0,-1],[-1,0],[0,-2],[1,0],[-1,-1]],[[317,147],[-1,0]],[[316,147],[0,-1],[-1,-2],[-1,0],[0,-1],[1,0],[-2,-1]],[[313,142],[-3,0],[-1,1],[-2,0],[0,1],[-1,1],[-1,0],[-2,-1],[0,1],[-4,0],[-1,-1],[0,1],[-1,1],[-2,0],[-1,-1],[-2,0],[0,1],[-3,-1]],[[289,145],[-1,1],[0,-1],[1,0]],[[289,145],[0,-2],[-2,0],[-2,-1],[0,-1],[1,0],[0,-1],[1,0],[-1,-1],[-1,0],[-2,-1],[2,-1],[0,-1],[2,0],[-1,-2],[-4,0],[-1,-1],[0,-1],[-1,1],[0,1],[-1,1],[-3,0],[-4,2],[-1,1],[0,4],[-2,1],[-1,0],[-1,-2],[0,-1],[-2,-2],[-2,2],[-1,0],[-1,1],[-1,-1],[0,2],[1,0],[-1,1],[-1,0],[0,1],[-1,1],[0,1],[1,1],[1,0],[0,2],[1,0],[0,4],[1,2],[-1,2],[-2,0],[-2,1],[-1,1],[0,1],[-1,1],[1,1],[0,3],[-1,0],[1,1],[1,0],[1,2],[-1,0],[-1,1],[0,1],[-1,1],[4,0],[0,1],[-1,0],[0,1],[1,1],[-1,0],[-1,1],[0,-1],[-3,0],[-2,2],[-2,0],[-3,2],[-1,0],[0,-1],[-1,0],[-1,1],[-3,1],[0,1],[-5,0],[0,1],[-2,0]],[[234,182],[0,-1]],[[234,181],[-1,0],[0,1],[-4,0],[2,2],[-1,1],[-2,1]],[[228,186],[1,1],[0,4],[5,0],[1,1],[0,2],[1,1],[3,0],[2,1],[2,2],[1,2],[0,2],[1,1],[0,2],[3,4],[2,3],[1,0],[2,3],[0,1],[1,0],[0,1],[3,0],[1,1]],[[258,218],[3,1],[1,1],[0,1],[1,0],[1,1],[0,1],[1,1],[0,3],[1,1],[0,1],[5,5],[0,1],[1,1],[0,3],[1,2],[0,2],[-1,0],[1,2],[1,1],[0,1],[2,2],[0,2],[-1,0],[-1,-1],[1,2],[2,2],[4,2],[0,1],[1,0],[0,1],[1,0],[2,1],[0,2],[-1,0],[-2,1],[-1,1],[0,1],[1,1],[1,0],[2,2],[1,0],[0,1],[1,2],[0,2],[-2,-2],[-2,0],[0,2],[1,0],[2,2],[0,1],[1,2],[0,1],[-1,1],[-4,0],[-2,1],[2,2],[1,0],[-2,3],[-4,8],[1,3],[0,1]],[[278,297],[2,0],[1,1],[2,0],[6,-6],[1,-2],[3,-1],[4,0],[3,3],[-1,2],[-1,4],[-1,0],[-1,1],[1,1],[9,2],[2,0],[0,-1],[-1,-1]],[[307,300],[-1,1],[0,-1],[1,-1],[0,1]],[[307,300],[1,-1],[0,-1],[-1,0],[0,-3],[1,-1],[0,-2],[1,0],[0,-1],[2,-1],[1,-1],[1,0],[3,-1],[3,0],[1,1],[1,0],[1,-1],[-1,-1],[2,-2],[1,0],[0,1],[2,0],[1,1],[2,0],[0,-1],[1,0]],[[330,287],[0,-1]],[[330,286],[0,-2],[-2,-2],[-2,0],[0,1],[-1,1],[-3,-2],[0,-1],[1,0],[0,-4],[-1,-1],[-2,0],[0,-2],[1,-1],[1,0],[0,1],[1,0],[1,-1],[2,0],[1,2],[1,0],[2,1],[0,3],[1,0],[1,-1],[1,1],[0,1],[3,0],[-2,2],[1,2],[1,0],[0,3],[1,0],[1,-1],[1,1],[3,0],[1,-1],[2,0],[1,2],[2,2],[2,-1],[2,0],[1,-2],[1,1],[1,0],[0,1],[-1,1],[-3,2],[-2,2],[0,2],[1,-1],[0,-1],[2,0],[0,2]],[[352,296],[15,0],[1,1],[0,1],[1,0],[1,1],[0,1],[1,0],[1,1],[-1,1],[0,1],[1,1],[1,0],[1,1],[0,1],[1,0],[3,-1],[2,0],[1,1],[2,-2],[3,1],[1,1],[-1,1]],[[386,307],[1,0],[1,-1],[2,0],[0,-1],[3,-1],[1,1],[1,-1],[4,0],[0,-1],[1,1],[1,-1],[0,-2],[-1,0],[0,-1],[-1,0],[0,-1],[-2,0],[-1,-2],[0,-2],[1,-2],[0,-1],[1,0],[0,-1],[1,0],[1,-1],[-1,-2],[-2,0],[0,-1],[-1,-1],[-1,0],[0,-1],[2,-2],[0,-2],[-1,-1],[1,-1]],[[397,278],[0,1]],[[397,279],[2,0],[1,1],[5,-2],[2,-1],[-4,-2],[2,-2],[0,-1]],[[311,289],[0,-1],[1,1],[-1,0]],[[305,301],[2,0],[-1,1],[-1,-1]],[[237,183],[1,0],[2,2],[-1,0],[0,-1],[-1,0],[-1,-1]],[[235,182],[0,1],[-1,0],[1,-1]],[[400,299],[-1,0],[1,1],[0,-1]]]}