{"type":"Topology","objects":{"data":{"geometries":[{"properties":{"index":741,"nuts_3_code":"HU213","nuts_3_name":"Veszpr\u00e9m"},"type":"Polygon","arcs":[[-34,-32,-24,-15,-7,-6,5,-5,-4,-3,-1]],"id":0},{"properties":{"index":744,"nuts_3_code":"HU221","nuts_3_name":"Gy\u0151r-Moson-Sopron"},"type":"Polygon","arcs":[[-35,0,-9,1]],"id":1},{"properties":{"index":746,"nuts_3_code":"HU222","nuts_3_name":"Vas"},"type":"Polygon","arcs":[[2,3,4,-6,5,6,-14,-13,-12,-11,7,8]],"id":2},{"properties":{"index":749,"nuts_3_code":"HU223","nuts_3_name":"Zala"},"type":"Polygon","arcs":[[-23,9,10,11,12,13,14]],"id":3},{"properties":{"index":753,"nuts_3_code":"HU233","nuts_3_name":"Tolna"},"type":"Polygon","arcs":[[-19,-18,17,-17,-20,-30,-29,28,-28,-62]],"id":4},{"properties":{"index":756,"nuts_3_code":"HU231","nuts_3_name":"Baranya"},"type":"Polygon","arcs":[[-61,15,-21,16,-18,17,18]],"id":5},{"properties":{"index":759,"nuts_3_code":"HU232","nuts_3_name":"Somogy"},"type":"Polygon","arcs":[[19,20,21,22,23,-31]],"id":6},{"properties":{"index":783,"nuts_3_code":"HU110","nuts_3_name":"Budapest"},"type":"Polygon","arcs":[[25]],"id":7},{"properties":{"index":789,"nuts_3_code":"HU120","nuts_3_name":"Pest"},"type":"Polygon","arcs":[[-48,-42,-53,-64,-27,-37,24],[25]],"id":8},{"properties":{"index":790,"nuts_3_code":"HU211","nuts_3_name":"Fej\u00e9r"},"type":"Polygon","arcs":[[26,-63,27,-29,28,29,30,31,-33]],"id":9},{"properties":{"index":794,"nuts_3_code":"HU212","nuts_3_name":"Kom\u00e1rom-Esztergom"},"type":"Polygon","arcs":[[32,33,34,35,36]],"id":10},{"properties":{"index":948,"nuts_3_code":"HU311","nuts_3_name":"Borsod-Aba\u00faj-Zempl\u00e9n"},"type":"Polygon","arcs":[[-57,-51,-55,-43,-44,37,-40,38],[39,40]],"id":11},{"properties":{"index":949,"nuts_3_code":"HU312","nuts_3_name":"Heves"},"type":"Polygon","arcs":[[-54,41,-47,-46,-45,42]],"id":12},{"properties":{"index":952,"nuts_3_code":"HU313","nuts_3_name":"N\u00f3gr\u00e1d"},"type":"Polygon","arcs":[[43,44,45,46,47,48]],"id":13},{"properties":{"index":956,"nuts_3_code":"HU321","nuts_3_name":"Hajd\u00fa-Bihar"},"type":"Polygon","arcs":[[49,-67,-52,50,-56]],"id":14},{"properties":{"index":960,"nuts_3_code":"HU322","nuts_3_name":"J\u00e1sz-Nagykun-Szolnok"},"type":"Polygon","arcs":[[51,-66,-70,-59,52,53,54]],"id":15},{"properties":{"index":965,"nuts_3_code":"HU323","nuts_3_name":"Szabolcs-Szatm\u00e1r-Bereg"},"type":"Polygon","arcs":[[55,56,57]],"id":16},{"properties":{"index":971,"nuts_3_code":"HU331","nuts_3_name":"B\u00e1cs-Kiskun"},"type":"Polygon","arcs":[[58,-69,59,60,61,62,63]],"id":17},{"properties":{"index":975,"nuts_3_code":"HU332","nuts_3_name":"B\u00e9k\u00e9s"},"type":"Polygon","arcs":[[64,-71,65,66]],"id":18},{"properties":{"index":980,"nuts_3_code":"HU333","nuts_3_name":"Csongr\u00e1d-Csan\u00e1d"},"type":"Polygon","arcs":[[67,68,69,70]],"id":19}],"type":"GeometryCollection"}},"bbox":[16.113802175040192,45.738043617153906,22.896334235957127,48.584676835168764],"transform":{"scale":[0.006789321382299235,0.002849482700715574],"translate":[16.113802175040192,45.738043617153906]},"arcs":[[[261,580],[-1,-3],[-2,-1],[-1,0],[-4,-6],[-1,-1],[1,-2],[0,-5],[-1,-3],[-1,-2],[-2,-1],[-2,0],[0,2],[-1,-2],[-1,-3],[0,-5],[1,-2],[0,-6],[-2,-1],[-1,0],[0,2],[-1,3],[0,9],[-1,1],[-3,2],[0,3],[-2,4],[1,2],[1,3],[3,2],[2,4],[0,4],[1,-1],[1,1],[1,2],[-1,2],[0,1],[1,1],[0,1],[-1,5],[-2,6],[-1,5],[0,2],[-2,3],[-1,3],[-2,-4],[0,-1],[1,-3],[-1,0],[-1,1],[-2,-1],[0,1],[1,2],[0,2],[-1,2],[-1,0],[-2,-1],[-1,0],[0,1],[-2,-1],[0,-4],[-3,-1],[0,1],[-2,0],[0,1],[-1,2],[-3,-3],[-1,3],[-1,1],[-1,-3],[0,-3],[-3,-3],[-4,6],[-1,3],[-3,-8],[0,-4],[-3,-4],[-1,1],[-1,0],[0,1],[-1,0],[-1,-1],[-2,2],[0,7],[-1,0],[0,1],[-2,2],[-1,3],[1,2],[0,2],[-4,1],[-1,0],[0,1],[-1,-4],[0,-5],[-3,-5],[-4,-2],[-2,1],[-3,-3],[-1,0],[0,-1],[-2,0],[-1,1],[-1,0],[0,-1],[-1,1],[-1,0],[-3,1],[0,1],[-2,0],[0,-2],[-3,1],[0,1],[-1,1],[0,1],[-2,-1],[-1,-3]],[[78,600],[3,3],[0,2],[1,5],[-1,2],[-2,6],[2,3],[0,-1],[1,0],[3,2],[2,4],[0,4],[1,1],[0,1],[-1,2],[-1,1],[-1,4],[-3,0],[-1,3],[1,1],[1,3],[-1,5],[0,4],[-1,0],[-1,1],[0,4],[-3,3],[-2,0],[-1,-1],[-4,-2],[-2,0],[-2,3],[-2,2],[-5,4],[0,-1],[-1,-1],[-1,0],[-2,1],[0,1],[-1,2],[-4,2],[-2,0],[-1,2],[-2,1],[3,3],[1,4],[0,4],[1,0],[0,-1],[1,-3],[1,-1],[1,0],[0,1],[1,2],[3,5],[2,1],[1,1],[0,1],[1,0],[1,-1],[1,1],[1,3],[-1,3],[-1,2],[0,2],[1,0],[1,1],[0,2],[2,1],[1,0],[1,1],[2,1],[1,0],[0,-1],[2,1],[0,1],[1,-1],[3,0],[0,-1],[1,-3],[2,-2],[3,0],[6,-2],[1,-2],[0,-3],[2,-9],[1,-5],[1,0],[11,1],[1,2],[1,5],[2,2],[2,4],[0,-6],[1,-5],[6,-1],[3,1],[2,1],[2,0],[2,1],[2,0],[4,2],[1,0],[2,1],[3,0],[0,1],[5,0],[-2,5],[-1,3],[0,7],[-1,7],[-1,6],[-1,2],[2,3],[1,3],[-1,3],[-1,1],[0,1],[-2,2],[1,0],[0,3],[-4,5],[-2,2],[1,4],[3,-1],[1,0],[2,2],[1,0],[0,1],[2,1],[0,-1],[1,0],[3,8],[-1,2],[0,1],[1,4],[1,3],[-3,3],[2,4],[2,5],[-4,4],[10,12],[6,5],[4,-1],[2,2],[1,-4],[0,-2],[1,-2],[4,-2],[7,0],[2,-2],[4,-8],[0,-1],[5,-5],[1,-3],[0,-2],[1,-1],[2,-4],[2,-8],[1,-3],[1,-2],[2,-1],[4,-5],[4,0],[1,-3],[1,-2],[1,-3],[2,-8],[2,-2],[1,1],[1,0],[0,1],[3,0],[2,-2],[0,-2],[1,-2],[4,-4],[2,-3],[3,-4],[2,-5],[3,-2],[3,-1],[3,0],[2,-3],[3,0],[1,1],[3,-1],[4,1],[1,0],[5,-2]],[[156,595],[1,-1],[0,-2],[1,-6],[1,-4],[1,0],[1,-1],[-1,-2],[-2,-3],[3,-5],[1,-1],[1,0],[1,-2],[2,-2],[3,-2],[1,0],[4,-6],[-3,-4],[-3,1],[-3,-2],[-3,-5],[1,-3],[0,-4],[-1,-1],[-1,0]],[[161,540],[0,1]],[[161,541],[0,-2],[-1,-3],[0,-2],[1,-2],[0,-16],[1,0],[-1,-4],[0,-6],[-1,-3],[0,-1],[-1,-1],[0,-2],[1,-8],[0,-2],[1,-4],[2,-2],[-1,-2],[0,-10],[-2,-3],[-1,-2],[-1,0],[-1,2],[-2,2],[-1,-1]],[[154,468],[0,1]],[[154,469],[-1,1],[0,1],[-1,0],[-2,-2],[-6,-4],[-2,1],[0,-6]],[[38,345],[-2,-2],[-2,7],[-2,5],[-2,2],[2,8],[-3,0],[0,7],[4,2],[0,6],[1,3],[1,1],[-1,3],[0,1],[-1,1],[-1,0],[-1,1],[-1,2],[-2,2],[-2,4],[-4,0],[-3,1],[-1,0],[-2,-2],[-3,0],[-3,-2],[-1,-2],[-1,1],[-2,-2],[-3,0],[-1,1],[-2,4],[3,2],[1,3],[1,1],[2,6],[1,1],[2,0],[1,5],[1,7],[1,1],[1,-1],[0,0],[1,-2],[2,3],[1,1],[1,0],[0,4],[2,2],[1,0],[1,-1],[1,1],[0,8],[1,3],[0,3],[1,4],[1,-1],[0,-4],[1,-1],[3,2],[3,-2],[0,3],[1,1],[2,-1],[1,-2],[1,-1],[1,1],[1,0],[3,1],[1,-2],[1,-1],[1,0],[2,-1],[0,4],[1,0],[1,-1],[3,-2],[1,2],[3,0],[0,2],[-2,2],[-1,3],[-3,4],[-1,0],[-2,-3],[-1,2],[0,3],[2,1],[3,2],[2,1],[3,0],[2,3],[0,1],[-3,3],[-2,0],[0,1],[-1,1],[-1,0],[0,4],[-1,1],[0,4],[1,1],[1,0],[1,2],[1,0],[1,1],[0,4],[1,1],[3,1],[0,3],[-2,4],[-4,0],[-3,-2],[-2,0],[-1,3],[1,2],[1,1],[0,4],[-1,5],[-1,1],[-1,-1],[-2,0],[-1,3],[0,5],[2,1],[1,6],[0,7],[-1,1],[4,1],[1,0],[2,3],[0,4],[1,2],[0,2],[-4,17],[-1,2],[-1,0],[0,3],[-2,2],[2,1],[1,0],[0,2],[1,2],[-1,4],[0,3],[-1,3],[0,3],[2,3],[4,-2],[0,-5],[1,1],[1,-2],[1,2],[0,3],[2,2],[3,0],[0,-1],[1,-1],[4,0],[0,2],[1,3],[1,1],[2,1],[1,2],[2,0],[0,1],[1,4],[2,1]],[[78,600],[1,-4],[3,-3],[1,-2],[1,0],[1,-1],[0,-1],[1,-1],[1,1],[1,0],[0,-1],[1,-1],[0,2],[1,2],[4,5],[1,-1],[4,3],[0,-1],[1,-1],[0,1],[2,1],[0,-2],[1,0],[2,2],[3,2],[3,-9],[0,1],[1,-1],[0,-1],[1,0],[0,-2],[1,0],[1,1],[0,1],[1,0],[0,1],[1,-1],[0,-2],[1,0],[1,-1],[1,0],[1,-1],[0,-2],[2,-3],[0,2],[3,5],[4,4],[0,1],[2,3],[2,1],[5,8],[0,-4],[1,-1],[1,-2],[-2,-4],[0,-3],[-1,-6],[0,-1],[-1,-1],[1,-2],[0,2],[2,2],[3,1],[2,0],[1,2],[1,1],[2,0],[0,4],[2,2],[1,0],[0,1],[2,0],[0,-1],[1,0],[1,1],[0,-1]],[[112,204],[0,4],[1,2],[-1,0],[0,2],[-2,1],[1,3],[-2,-1],[-1,4],[-2,2],[0,1],[-1,-1],[-1,2],[-1,-1],[0,2],[-1,0],[-1,1],[0,2],[-1,1],[-1,-1],[0,-1],[-1,-1],[-1,1],[0,1],[-1,0],[0,-1],[-1,-1],[0,2],[-1,1],[-1,-1],[-1,3],[0,2],[-1,1],[-1,-1],[0,-2],[-1,0],[-3,9],[-2,4],[-1,5],[-1,1],[-1,0],[0,4],[-2,2],[-1,-1],[-2,0],[-1,2],[-1,-1],[-1,3],[-1,1],[-3,0],[-2,4],[-2,1],[-4,5],[0,2],[1,1],[-1,1],[0,4],[1,1],[-2,2],[0,5],[-1,2],[-1,3],[-2,0],[-2,1],[0,4],[-1,3],[-1,0],[-1,3],[-1,1],[-1,4],[-2,1],[-1,0],[0,1],[-3,6],[-1,0],[-1,1],[0,1],[-1,5],[1,3],[1,1],[0,-1],[1,-1],[2,0],[0,2],[1,1],[-1,3],[1,6],[0,1],[-1,0],[-2,1],[-3,0],[-2,2],[1,3],[-1,3]],[[38,345],[1,4],[2,4],[0,3],[-1,2],[0,1],[2,3],[1,1],[-1,1],[-2,0],[-2,-2],[-1,1],[0,3],[2,0],[0,1],[2,2],[3,-1],[2,-2],[1,0],[1,-2],[4,4],[3,4],[1,1],[2,3],[0,6],[-1,3],[3,1],[2,1],[1,0],[1,-1],[2,2],[0,4],[1,1],[0,3],[2,1],[0,2],[1,5],[4,7],[2,4],[0,2],[1,-1],[2,-1],[2,3],[1,1],[2,1],[0,1],[1,-1],[1,-2],[1,0],[4,1],[2,0],[1,-1],[2,0],[1,-1],[1,0],[1,1],[0,6],[2,1],[2,0],[0,1],[1,3],[0,5],[1,-1],[2,3],[0,-1],[1,-1],[0,-2],[3,1],[2,-1],[2,2],[2,-1],[1,0],[0,-1],[1,-3],[7,0],[3,1],[0,3]],[[129,433],[0,-1]],[[129,432],[-1,1],[0,3],[4,4],[0,1]],[[132,441],[1,1],[0,-1],[-1,5],[0,4],[-1,5],[2,3],[1,-2],[2,1],[1,-3],[0,-3],[2,2],[2,-1],[1,8]],[[142,460],[0,-1],[7,-10],[2,-1],[0,-3],[1,-2],[2,-1],[3,0],[0,1],[1,-1],[2,1],[0,1],[1,1],[0,-3],[1,0],[1,-1],[1,-3],[0,-2],[3,-3],[0,-5],[-1,-1],[0,-4],[-1,-1],[-1,-4],[0,-3],[4,-1],[2,0],[1,1],[1,0],[2,-2],[1,-3],[0,-1],[1,-2],[2,-2],[0,-4],[-1,-2],[1,-1],[1,-2],[1,-3],[-1,-1],[0,-1],[-1,-3],[1,-5],[1,-1],[2,-3],[1,-2],[0,-4],[1,-3],[5,-7],[3,-5],[0,-3]],[[399,62],[-1,-1],[-1,-3],[0,-8],[-3,-1],[-2,3],[-2,1],[-1,2],[0,1],[-3,1],[-2,1],[0,1],[-2,2],[0,2],[-2,0],[-4,-2],[-1,2],[0,-7],[-1,-2],[-2,-1],[0,-2],[1,0],[0,-1],[1,-2],[-2,-2],[-1,1],[0,1],[-1,-3],[0,-4],[-2,-1],[1,-3],[0,-2],[-3,-1],[1,-2],[-2,-3],[-3,-2],[0,-5],[-2,1],[0,-2],[-1,-1],[-1,0],[-2,-1],[-1,-1],[0,-2],[-2,1],[-1,1],[0,2],[-2,0],[-1,-5],[0,-5],[-2,0],[-2,1],[-1,-3],[0,-8],[-2,1],[-4,0],[-2,2],[1,0],[0,3],[-1,0],[-1,3],[-1,0],[-3,3],[1,-2],[-2,0],[-1,-4],[-1,-3],[-1,1],[0,1],[-1,1],[-4,2],[-2,-1],[-1,0],[-1,-1],[-1,2],[-3,0],[-2,4],[0,2],[-3,1],[-1,0],[0,1],[-1,1],[-2,0],[-2,-4],[-1,2],[-2,2],[-4,1],[-1,-2],[0,-2],[-1,-2],[0,-1],[-2,-1],[-1,0],[0,-1],[-3,2],[-6,3],[-2,2],[-2,3],[-2,1],[-1,-1],[0,-1],[-2,0],[-2,1],[-1,0],[-2,-2],[-1,0],[-2,2],[-2,0],[-4,-5],[0,-1],[-1,-2],[0,-1],[-2,2],[0,4],[-2,1],[-1,1],[0,4],[-1,3],[-1,0],[0,-2],[-2,1],[-1,1],[-1,2],[-2,1],[-2,-1],[-1,-1],[-1,3],[-1,2],[-1,1],[-3,1],[-1,0],[-3,2],[-2,-1],[-2,2],[-1,0],[-1,3]],[[286,196],[0,-2],[1,1],[2,0],[1,2],[3,1],[2,-6],[0,-1],[1,0],[1,3],[-1,0],[-1,1],[0,2],[-1,4],[1,3],[2,1],[2,-2],[2,1]],[[300,206],[1,-2]],[[301,204],[1,0],[1,2],[1,3],[1,0],[2,-1],[1,8],[-2,2],[0,3],[-1,4],[0,6],[5,3],[2,0],[1,-1],[0,1],[1,1],[0,-1],[1,0],[0,-1],[2,0],[1,2],[2,0],[4,3],[3,-3],[1,0],[1,-4],[-1,-1],[0,-5],[1,-6],[1,-1],[1,0],[2,-1],[0,-1],[1,-1],[1,0],[0,-5],[-1,-1],[-1,-2],[0,-12],[3,-2],[1,0],[2,1],[1,-4],[0,-1],[-2,-3],[0,-5],[-1,-3],[0,-1],[-1,-2],[-3,-2],[-2,-1],[0,-1],[1,-2],[2,-1],[4,4],[1,2],[3,3],[1,2],[0,2],[3,0],[0,4],[2,2],[1,5],[-1,5],[1,-2],[3,-1],[2,-2],[0,-4],[1,-2],[1,1],[0,2],[2,-1],[-1,-2],[0,-10],[-1,-3],[3,-4],[1,1],[2,0],[0,-2],[-1,-1],[0,-1],[1,-3],[0,-1],[2,-2],[1,-4],[2,1],[1,2],[1,-3],[0,-1],[1,-1],[2,-3],[4,-8],[2,-2],[0,-2],[1,-3],[1,1],[0,2],[2,-3],[2,-2],[1,0],[3,-3],[1,0],[3,1],[1,-1],[0,-1],[3,0]],[[309,365],[-2,0],[-1,-1],[-1,-2],[-1,0],[-1,1],[-1,-2],[1,-3],[0,-5],[-2,0],[-1,1],[0,1],[-2,-3],[0,-2],[-2,-2],[-1,0],[2,-8],[2,0],[0,-2],[-1,0],[0,-3],[-1,0],[0,-5],[-3,-3],[0,-3],[-1,-1],[0,-1],[1,-2],[-3,-3],[0,-4],[-3,-3],[2,-6],[1,-2],[-1,-6],[-3,-9],[-2,-1],[-1,1],[-1,2],[0,-3],[1,-2],[-1,-1],[0,-15],[-1,0],[1,-2],[1,-1],[1,-7],[1,-4],[2,-9],[-1,-1],[0,-2],[1,-2],[-3,0],[0,-2],[-1,0],[-3,-3],[0,-1],[-1,0],[-2,-2],[2,-6],[2,2],[1,-1],[2,2],[1,-4],[1,-1],[0,-4],[1,0],[2,1],[0,-4],[1,-10],[-1,-1],[-1,-3],[0,-3],[-3,-4]],[[286,196],[-2,-1],[-3,3],[-1,-1],[-1,0],[-1,1],[0,2],[-4,0],[-3,-2],[-1,0],[-2,-6],[0,-5],[-1,-5],[0,-1],[1,-3],[0,-1],[-2,-6],[-1,0],[-1,1],[-1,-1],[0,-2],[-1,1],[-2,1],[-1,-3],[-2,1],[-1,-2],[-1,1],[0,-2],[-1,-1],[-3,1],[-1,2],[0,2],[-2,0],[-1,1],[-1,-1],[0,-3],[-1,-4],[-2,0],[-2,2],[-2,6],[0,1],[-1,2],[-2,-4],[1,-1],[0,-1],[1,-3],[-2,-3],[-2,-2],[0,-5],[-2,-7],[-1,-15],[0,-1],[1,-2],[-4,-2],[2,-4],[0,-6],[-1,-1],[0,-3],[-1,0],[0,-1],[-1,0],[0,-2],[-2,-1],[-1,-1],[-1,-2],[2,-9],[2,-4],[0,-5],[-2,-1],[-2,0],[0,-1],[1,-6],[0,-2],[1,-3],[0,-3],[1,-4],[1,1],[0,5],[1,-2],[2,-1],[1,0],[1,-1],[-2,-2],[0,-1],[1,-2],[1,-1],[1,0],[2,-1],[1,0],[1,-2],[0,-4],[1,-2],[0,-6],[1,-1],[-1,-1],[0,-3],[-4,0],[-1,-2],[0,3],[-1,1],[-3,-2],[0,-6],[-3,0]],[[226,39],[0,6],[-2,6],[-2,8],[-4,5],[-1,2],[-1,1],[-1,2],[-2,1],[-2,0],[-3,-1],[-1,1],[-7,2],[-3,2],[-3,0],[0,-3],[1,-3],[-1,-1],[-3,0],[0,4],[-2,-3],[-1,0],[-1,2],[0,1],[1,1],[-2,2],[-2,-2],[-2,-1],[-1,1],[0,6],[1,0],[0,-1],[1,-1],[1,1],[3,0],[1,1],[-1,2],[-2,-2],[-1,1],[0,2],[1,0],[1,1],[-1,1],[0,1],[1,2],[-1,3],[-1,0],[0,-3],[-1,-2],[0,-1],[-2,3],[0,2],[-1,2],[-1,-1],[0,-1],[1,-1],[0,-2],[-1,-3],[-1,-2],[-1,0],[-1,1],[1,2],[1,4],[0,1],[-1,0],[-1,-1],[0,-1],[-1,0],[-1,2],[0,1],[1,2],[0,2],[-1,0],[-2,-1],[-3,4],[2,3],[2,1],[1,2],[-1,1],[-2,1],[-2,0],[0,5],[1,2],[0,1],[-1,0],[-4,2],[1,1],[0,2],[-1,3],[-1,0],[-3,-1],[-1,1],[1,1],[2,0],[0,4],[2,1],[-1,1],[-2,0],[0,1],[1,2],[-1,2],[-1,-1],[-2,0],[-2,-2],[0,1],[-1,1],[1,3],[-1,3],[2,2],[-1,2],[0,4],[-2,1],[-1,1],[0,4],[-3,1],[-1,-1],[-1,0],[0,4],[-1,0],[-1,-1],[-1,2],[-2,2],[-1,-1],[-1,1],[-1,3],[-1,0],[0,2],[-2,0],[-7,7],[-1,0],[-1,1],[-2,0],[0,4],[-1,2],[-3,0],[-3,6],[-2,0],[-1,2],[-1,3],[-2,2],[0,7],[-1,0],[0,1],[-1,2],[0,4]],[[112,204],[1,2],[1,-2],[2,-2],[3,1],[2,0],[0,-8],[2,-1],[2,4],[1,1],[1,0],[1,4],[3,-2],[1,-1],[0,-1],[4,4],[0,4],[1,4],[2,0],[0,5],[-1,4],[1,1],[-2,1],[0,6],[-2,2],[0,1],[1,7],[2,0],[1,-3],[2,-2],[1,1],[0,4],[1,2],[4,-3],[1,-2],[3,0],[0,7],[3,1],[1,0],[2,1],[1,-2],[1,6],[0,9],[-1,1],[1,4],[1,0],[1,3],[2,2],[0,2],[1,2],[0,6],[-1,1],[0,19],[-1,4],[0,7],[1,4],[0,16],[3,2],[1,0],[0,2],[2,2],[0,4],[1,11],[1,0],[2,1],[1,0],[2,-1],[8,0],[2,2],[1,2],[2,2],[3,0]],[[192,355],[3,0],[1,-1],[1,1],[2,1],[4,0],[3,2],[0,1],[2,2],[1,2],[3,2],[5,4],[2,2],[4,2],[2,2],[4,2],[4,6],[3,2],[2,2],[2,1],[3,1],[4,2],[2,2],[4,6],[3,3],[2,-1],[1,0],[1,-1],[4,4],[1,2],[0,5],[-1,2],[3,2],[1,1],[2,1],[3,2],[1,0],[0,1],[5,3],[6,6],[2,3],[1,0],[14,10],[2,-3],[2,0],[2,-6]],[[403,730],[0,3],[-1,1],[-2,1],[-1,3],[0,4],[-1,1],[-2,0],[0,1],[-3,3],[-2,1],[-1,1],[0,4],[-1,5],[1,4],[0,5],[1,2],[1,3],[0,7],[-2,3],[-1,3],[2,3],[3,1],[2,0],[1,1],[0,1],[1,1],[1,4],[-1,4],[0,2],[1,0],[0,7],[1,0],[0,0],[1,2],[0,-1],[1,2],[1,-1],[2,0],[2,-1],[1,2],[0,2],[1,-1],[1,0],[2,-1],[3,2]],[[446,566],[1,1],[0,1],[2,1],[1,0],[2,1],[1,4],[2,5],[0,2],[1,1],[2,4],[0,1],[-1,1],[2,3],[1,1],[0,-1],[1,-1],[2,3],[1,2],[0,1],[2,0],[1,2],[1,3],[1,2],[4,1],[1,0],[0,1],[-1,6],[-1,3],[-1,2],[0,3],[1,1],[0,4],[-1,-1],[-2,0],[0,-1],[-4,0],[-1,-1],[0,1],[-2,6],[0,1],[-1,2],[-1,0],[-2,-1],[-2,2],[-3,0],[-2,2],[0,2],[-1,1],[-1,2],[2,2],[-3,4],[-1,0],[0,2],[1,1],[-2,3],[0,1],[-1,1],[-1,0],[-2,3],[-2,2],[-3,-6],[0,-1],[-1,-2],[0,7],[-4,1],[-3,-1],[0,-3],[1,-2],[0,-2],[-3,-1],[-2,0],[-3,1],[1,-2],[-1,0],[-1,-3],[-4,2],[-2,-2],[0,-4],[1,-3],[0,-2],[-1,-1],[0,-8],[1,-1],[0,-5],[1,-2],[-1,-1],[0,-2],[1,-3],[1,1],[2,-1],[1,-3],[1,-1],[0,-5],[-1,-2],[1,-1],[0,-6],[-2,-2],[-1,-2],[0,-7],[-1,-1],[0,-6],[2,-2],[1,2],[3,3],[3,1],[2,-1],[3,-1],[1,2],[0,1],[1,0],[0,2],[1,1],[2,1],[2,-5],[1,-1],[0,-2],[-1,-1],[1,0],[0,-1],[1,-1],[2,-4],[1,-1],[2,-3]],[[379,645],[2,-5],[-1,-3],[0,-7],[5,-13],[-1,0],[3,-2],[2,0],[0,-2],[2,-4],[2,-2],[0,-3],[1,-12],[-4,-4],[-1,-4],[2,-3],[2,-2],[0,-1],[2,-5],[2,-6],[3,-4],[2,-2],[1,-2],[1,-1],[2,-5],[-1,-2],[-1,-1],[2,-1],[1,0],[0,-6],[1,-2],[4,-2],[1,0],[0,-4],[-2,-13],[-1,-4],[-2,-5],[-2,-13],[0,-7],[1,0],[0,-4],[1,-2],[0,-7],[1,-4],[0,-1],[1,-3],[0,-2],[1,-2],[2,-3],[4,-5],[3,-7]],[[414,393],[-1,0],[-4,-1],[-4,-2],[1,-3],[0,-3],[-1,0],[0,-4],[-2,-2],[-2,-4],[-1,0],[0,-1],[-2,-2],[-2,-1],[-1,-2],[0,-6],[-2,0],[-5,-1],[-1,-2],[-4,-2],[1,-4],[1,-6],[-1,-3],[-2,0],[-1,-3],[-1,-2],[-3,-3],[-5,-3],[-2,3],[1,1],[0,1],[-1,1],[1,1],[-1,3],[-1,2],[1,1],[-1,2],[-1,6],[-2,0],[-2,3],[-2,1],[-1,4],[-1,5],[-8,-7],[1,-3],[0,-4],[-1,1],[-1,0],[-1,-1],[-2,2],[-1,-3],[-1,0],[-2,1],[-1,0],[-3,3],[0,14],[-2,3]],[[338,374],[0,-1]],[[338,373],[-1,-5],[0,-6],[-1,1],[0,4],[-1,0],[-1,2],[-1,-1],[-1,-2],[0,-2],[-3,2],[-1,2],[-1,1],[-2,0],[-2,4],[0,6],[-5,-6],[-1,-1],[-1,-2],[-1,-1],[0,-2],[-6,-2]],[[309,365],[-1,4],[0,4],[-1,6],[0,2],[1,5],[-1,8],[0,1],[1,1],[-1,1],[0,1],[-1,0],[1,3],[2,3],[-1,3],[-2,9],[0,2],[-3,6],[5,9]],[[308,433],[0,4],[1,6],[1,0],[1,1],[2,4],[1,0],[2,2],[0,1],[-2,0],[-1,-1],[-1,4],[-3,6],[-1,11],[2,3],[2,2],[0,2],[-1,0],[0,8],[-1,2],[0,5],[-1,2],[0,5],[1,1],[0,3],[1,0],[0,1],[-1,2],[1,6],[0,5],[-1,4],[-2,-1],[-1,0],[-4,6],[0,5],[-2,3],[-2,1],[-3,-4],[-3,-2],[-1,3],[-2,5],[0,1],[-1,2],[-3,0],[-1,8],[2,6],[-1,0],[-2,1],[-1,4]],[[379,645],[-1,0],[-2,-2],[-2,1],[-1,0],[-3,-1],[-1,-1],[0,-1],[-2,1],[-3,2],[-2,0],[-2,-2],[-1,1],[-2,-4],[0,-2],[-2,1],[-5,0],[-1,-3],[1,-1],[1,-3],[0,-4],[3,-6],[0,-2],[2,0],[0,-4],[1,-2],[1,-1],[-2,1],[-4,4],[-2,-1],[-1,-2],[0,-4],[-2,-1],[-1,2],[-1,3],[-1,-1],[-1,2],[-2,-2],[-1,-2],[0,-3],[-3,-6],[-2,-1],[-1,2],[-1,1],[-1,-1],[-2,-6],[0,-1],[1,-3],[1,-1],[1,-3],[-5,-2],[-1,1],[-1,-3],[-1,0],[-1,-2],[-4,5],[-2,4],[-2,1],[-1,1],[-2,4],[0,6],[-2,1],[-2,2],[-2,3],[-1,0],[0,-9],[-2,-2],[-1,1],[-3,-3],[-2,4],[-3,-2],[0,-6],[-1,-2],[-1,-1],[1,-2],[0,-2],[-1,-4],[-2,-2],[0,-2],[-1,-2],[0,-6],[1,-1],[-1,-1],[-1,0],[0,-1],[-2,0],[-2,-2],[-1,-2],[-1,0],[0,-3]],[[283,560],[-1,0],[-1,2],[-3,-1],[-1,-1],[-1,1],[-3,1],[0,-1],[-1,-1],[0,5],[-2,4],[-3,1],[3,2],[1,1],[-1,3],[-2,3],[-3,0],[0,-1],[-2,-1],[-2,3]],[[261,580],[-1,1],[0,6],[2,7],[-1,6],[-2,2],[0,2],[1,1],[-1,2],[0,3],[1,0],[1,1],[0,3],[2,3],[1,1],[1,2],[-2,6],[-1,2],[-1,0],[0,8],[1,-1],[0,-1],[1,0],[1,-1],[2,1],[1,0],[1,2],[-1,2],[-1,-1],[-2,2],[1,3],[1,5],[-1,1],[1,1],[0,2],[1,3],[0,3],[1,2],[-3,2],[-2,1],[-1,2],[-1,3],[2,8],[0,6],[-1,1],[0,1],[1,5],[0,9],[-1,5]],[[262,702],[3,2],[5,0],[3,3],[0,1],[3,-1],[2,-2],[1,1],[1,0],[1,1],[2,1],[8,0],[2,-1],[13,-4],[3,0],[6,-1],[4,-2],[2,0],[6,2],[1,0],[7,4],[2,1],[4,1],[3,3],[2,0],[4,-4],[3,1],[1,0],[3,3],[3,1],[2,-1],[5,-2],[7,1],[3,1],[3,4],[5,5],[0,2],[1,5],[2,2],[2,1],[3,1],[2,1],[4,-2],[4,0]],[[403,730],[0,-1],[2,-1],[3,-1],[2,-2],[1,-2],[0,-5],[1,-5],[2,-1],[0,-7],[-1,-2],[3,-6],[-1,-3],[-2,-2],[-1,2],[-1,1],[-2,1],[-1,-1],[0,-1],[-2,0],[-2,-1],[0,-6],[-1,0],[-1,-1],[1,-2],[1,-3],[1,-9],[0,-1],[-1,1],[-1,0],[-1,1],[-1,0],[-1,-1],[-1,1],[-1,0],[-2,2],[0,1],[-1,1],[-1,0],[-1,1],[0,-3],[-5,0],[3,-4],[1,-1],[0,-3],[-5,-5],[-1,-4],[-2,-2],[0,-5],[-1,0],[-2,-3],[-1,-1],[-1,-2]],[[580,853],[1,3],[2,1],[1,1],[-2,2],[2,2],[0,1],[2,0],[0,2],[1,1],[1,2],[4,4],[0,2],[1,5],[-1,1],[0,3],[2,0],[1,-1],[3,0],[2,-1],[3,1],[0,3],[1,0],[2,1],[1,2],[0,1],[-1,1],[0,1],[2,1],[3,-2],[2,-3],[2,-1],[3,1],[0,2],[1,1],[1,0],[1,3],[0,2],[1,0],[-1,1],[1,3],[3,3],[3,7],[-1,0],[0,1],[2,6],[0,1],[2,2],[2,5],[0,1],[-1,3],[0,1],[1,2],[1,1],[0,9],[5,10],[2,1],[1,1],[-1,2],[0,2],[2,2],[1,2],[1,3],[2,2],[0,9],[-1,2],[1,2],[0,2],[2,1],[0,-1],[2,-2],[2,6],[3,-2],[1,0],[2,-1],[2,2],[1,0],[1,1],[1,2],[4,1],[0,2],[1,1],[3,0],[0,-1],[3,3],[2,1],[2,0],[0,-2],[2,2],[3,0],[6,2],[1,0],[3,1],[2,1],[0,-2],[1,1],[0,-4],[1,0],[2,-4],[0,-1],[3,0],[2,1],[1,0],[1,1],[2,-1],[0,-2],[1,-4],[1,1],[0,-2],[1,-1],[1,0],[0,-2],[1,-2],[2,1],[1,-2],[1,3],[2,0],[1,1],[3,0],[0,-1],[1,0],[3,-1],[0,-1],[1,1],[4,-3],[1,-2],[0,-4],[1,-2],[2,-1],[2,1],[1,3],[0,1],[1,2],[3,4],[0,-1],[3,0],[1,2],[2,1],[1,2],[1,0],[0,1],[2,0],[0,1],[1,0],[4,-4],[3,-1],[2,-1],[1,2],[1,1],[0,2],[-1,1],[1,0],[0,1],[1,1],[0,1],[-1,1],[1,1],[0,3],[1,-1],[5,1],[1,-1],[2,0],[2,2],[2,-2],[1,0],[1,2],[0,5],[2,2],[1,-2],[2,-2],[1,0],[1,-1],[3,-4],[1,0],[0,-1],[1,0],[2,-2],[0,-3],[1,-7],[2,-3],[1,-2],[2,1],[1,-2],[2,0],[1,2],[1,1],[2,-2],[1,1],[0,-4],[1,0],[0,-11],[1,-2],[1,-1],[0,-3],[1,-3],[1,0],[0,-1],[3,-9],[0,-8],[2,0],[3,-4],[1,-1],[-1,-1],[0,-1],[1,-1],[0,-1],[1,0],[0,-3],[1,-2],[2,-1],[2,0],[2,-3],[4,0],[1,1],[2,-1],[1,-1],[0,-1],[3,0],[0,10],[2,1],[1,0],[0,-2],[1,-1],[0,1],[1,-1],[1,0]],[[850,921],[0,2],[1,-1],[0,-1],[1,1],[0,2],[1,-2],[1,1],[2,-2],[1,0],[0,2],[-1,1],[2,1],[1,0],[0,1],[1,1],[1,0],[3,-1],[1,0],[2,1],[3,3],[0,2],[3,-3],[1,0],[0,-1],[1,-1],[0,-1],[1,1],[0,1],[2,1],[1,-1],[0,-2],[1,-1],[1,1],[1,0],[1,1],[2,0]],[[850,921],[-1,-2]],[[849,919],[1,0],[0,2]],[[523,649],[-1,2],[0,8],[-1,2],[-1,3],[-1,2],[0,1],[1,1],[0,2],[-1,0],[-2,1],[-2,2],[0,4],[-2,3],[-1,4],[1,1],[0,4],[1,0],[0,4],[-1,3],[-4,5]],[[586,844],[1,-2],[3,1],[0,1],[3,0],[2,-3],[2,0],[0,-4],[1,-2],[1,-1],[3,-2],[0,-3],[1,-1],[3,-2],[1,0],[1,1],[1,-1],[0,-1],[1,2],[1,1],[1,0],[1,-1],[1,1],[0,3],[-1,1],[1,2],[1,3],[1,0],[0,-1],[2,0],[1,1],[1,-1],[0,-2],[2,-3],[1,-1],[1,-3],[1,-1],[1,0],[0,7],[2,6],[3,3],[-2,4],[1,1],[2,1],[2,-2],[4,1],[1,-1],[0,-1],[1,-1],[1,-2],[0,-2],[1,0],[1,-2],[0,-3],[1,-1],[0,-1],[-1,-2],[1,-1],[0,-3],[1,-3],[1,-6],[0,-3],[-2,0],[-1,-1],[2,-6],[0,-6],[-1,-2],[-1,-4],[0,-4],[-1,-1],[0,-1],[-2,-5],[-1,-2],[6,-8],[1,-2],[2,0],[1,-4],[-2,-2],[-2,-1],[0,-2],[1,-1],[0,-2],[-3,-1],[0,1],[-1,1],[-3,-3],[0,-4],[1,-4],[2,-2],[3,-2],[1,-1],[1,-3],[1,-7],[0,-3],[-1,0],[-1,-3],[0,-2],[1,-5],[2,-2],[1,-3],[0,-2],[1,-2],[1,0],[1,-2],[4,-5],[3,-4],[-2,-6],[-2,-2],[2,-2],[1,0],[1,-3],[1,-1],[0,-1],[1,-1],[2,0],[2,-2],[0,-1],[1,0],[1,-1],[0,1],[3,0],[1,3],[1,-3],[2,0],[1,1],[1,-1],[3,-4],[2,-3],[1,0],[1,-1],[1,-2],[1,-1]],[[580,853],[1,-1],[1,-4],[3,-1],[1,-3]],[[586,844],[-2,-3],[0,-3],[-1,-2],[-2,1],[-2,0],[0,-4],[-1,-2],[-1,0],[-4,-1],[-3,-3],[-1,0],[-1,-2],[0,-4],[1,0],[1,-1],[0,-1],[2,-3],[0,-1],[3,-2],[-1,-1],[1,-7],[0,-1],[-1,-1],[1,-3],[1,-1],[1,-3],[-5,0],[-1,-2],[-1,-1],[-1,-2],[1,-3],[0,-1],[-1,-2],[-2,-2],[0,-2],[1,-2],[0,-2],[-1,-1],[-3,-2],[-1,-4],[0,-2],[-2,-2]],[[561,766],[0,-1]],[[561,765],[0,2],[-1,-2],[-3,0],[-2,3],[-1,1],[-8,-1],[-2,-1],[1,-7],[2,-2],[1,0],[1,1],[2,-4],[-1,0],[0,-2],[-1,-3],[-2,0],[-2,3],[-2,1],[-3,6],[-2,0],[-1,-5],[1,-1],[-1,-7],[-3,-6],[-2,-3],[-1,-3],[0,-5],[-2,-1],[-1,1],[-2,1],[0,-3],[-1,-1],[-2,0],[0,-3],[-1,2],[-1,1],[0,1],[-2,-1],[0,-1],[-1,0],[2,-7],[0,-4],[-1,-2],[1,-1],[-1,0],[0,-3],[-1,-1],[-2,1],[0,1],[-3,-4],[-1,-1],[-3,-4]],[[509,701],[-4,4],[-1,-3],[-3,-5],[-1,-1],[-2,-1],[0,-2],[-1,-2],[2,-1],[1,0],[0,-3],[-1,0],[-1,-1],[-1,0],[0,-1],[-2,-1],[-1,6],[0,3],[-1,0],[-2,2],[0,3],[-1,0],[0,2],[-1,0],[0,6],[1,1],[0,1],[1,2],[0,2],[-3,2],[-2,0],[0,2],[1,1],[1,5],[1,1],[2,1],[-3,5],[-1,1],[-6,1],[-1,-1],[-3,0],[0,1],[-4,4],[-1,0],[-6,-3],[-2,1],[-5,-1],[-1,3],[-2,3],[-4,3],[-2,-1],[-1,-1],[-4,2],[-4,0],[-1,-1],[0,-2],[-2,-1],[-2,3],[0,2],[-1,2],[-2,0],[-1,2],[0,5],[-3,4],[-2,1],[-4,8],[-3,2],[-1,5],[-2,3],[0,2],[-1,2],[3,3],[5,6],[0,1],[-1,2],[2,0],[1,1],[-1,4],[1,2],[0,1],[-1,0],[1,2],[-2,4],[-1,-1],[-2,0],[-2,1],[-4,10]],[[415,814],[6,0],[2,-1],[0,1],[1,2],[0,1],[1,1],[1,0],[0,2],[1,1],[3,-4],[2,0],[0,-1],[2,-2],[2,3],[0,1],[1,1],[2,0],[0,-1],[2,-1],[2,1],[1,1],[0,1],[1,0],[1,-1],[0,-1],[1,-1],[2,0],[3,-2],[2,1],[4,0],[0,-1],[2,-2],[2,2],[0,3],[2,2],[2,0],[1,3],[2,2],[4,1],[4,-1],[1,1],[2,-2],[2,2],[2,-2],[0,-1],[2,2],[1,0],[2,2],[1,2],[2,0],[0,-3],[1,-3],[1,1],[0,3],[1,0],[2,2],[0,2],[1,2],[-1,0],[1,4],[0,6],[1,1],[1,2],[0,1],[1,2],[-1,2],[0,4],[1,3],[1,0],[1,3],[0,4],[2,2],[1,-1],[2,2],[0,1],[2,0],[0,1],[1,2],[2,2],[1,3],[4,5],[2,-4],[3,0],[1,-2],[0,-4],[1,-4],[2,-2],[4,-1],[1,1],[1,3],[4,0],[1,-2],[0,-1],[2,-2],[1,-2],[2,0],[1,-4],[-1,-1],[-2,-4],[-1,-1],[1,-3],[1,-1],[2,0],[0,3],[2,2],[1,0],[1,-1],[0,-1],[2,0],[0,2],[1,3],[0,-1],[1,-1],[2,-1],[1,0],[0,-1],[1,-1],[0,1],[1,0],[1,-4],[0,-1],[1,0],[1,-2],[-1,-1],[0,-1],[-1,-1],[-1,-3],[1,-1],[1,1],[2,1],[2,0],[0,2],[2,5],[2,0],[1,3],[1,2],[2,-1],[0,2],[1,0],[1,1],[4,2],[2,-1],[0,-2],[1,0]],[[886,653],[0,-3],[-6,-12],[0,1],[-1,1],[-3,-3],[-1,-2],[1,-1],[0,-1],[1,-1],[0,-1],[-1,-2],[-1,2],[-1,1],[-4,-7],[-2,-12],[0,-2],[2,-8],[2,-2],[-1,-2],[0,-1],[1,-3],[0,-7],[-1,-5],[-2,-8],[-2,0],[-2,2],[0,-1],[-2,0],[-2,1],[-1,-2],[-2,-1],[0,-3],[-2,-4],[0,-2],[-1,-3],[-3,-7],[0,-2],[-1,-6],[0,-1],[-2,-3],[1,-2],[0,-5],[-1,0],[-1,-1],[-3,-8],[0,-7],[1,0],[0,-11],[-6,-6],[-2,-10],[0,-4],[-1,0],[-1,-3],[0,-5],[-3,0],[-3,-1],[-3,-3],[-2,-5],[0,-3],[-2,-2],[0,-2],[-3,-6],[-3,-2],[-2,0],[2,-6]],[[694,674],[1,0],[1,1],[1,-1],[1,0],[0,-3],[1,-2],[2,0],[1,2],[-4,4],[0,4],[1,1],[3,-1],[2,-1],[1,2],[0,1],[-2,0],[0,7],[2,-4],[3,3],[2,0],[0,3],[1,1],[2,3],[6,2],[1,2],[-1,3],[0,1],[1,1],[0,1],[-1,2],[2,2],[2,1],[1,-1],[1,-3],[1,4],[0,2],[2,4],[-1,0],[0,1],[1,0],[1,5],[0,2],[2,8],[0,4],[-2,2],[0,2],[-1,1],[1,1],[-1,1],[1,2],[1,0],[2,2],[0,9],[1,2],[1,3],[4,2],[0,3],[-3,1],[-1,-1],[-1,1],[1,2],[1,1],[1,0],[0,2],[2,9]],[[694,674],[0,-11],[3,-11],[1,0],[1,-1],[1,-2],[3,-2],[4,1],[2,2],[2,1],[1,1],[4,-4],[3,-6],[0,-14],[-1,-1],[-1,-2],[2,-8],[2,-2],[-2,-2],[0,-4],[1,-15],[3,-18],[0,-4],[1,-5],[-2,-36],[0,-1],[-3,-6]],[[586,445],[2,6],[0,1],[1,3],[-1,2],[-1,1],[-1,0],[-1,3],[-1,7],[0,3],[-1,2],[-2,6],[0,3],[-2,5],[2,6],[0,2],[1,0],[1,3],[2,3],[2,6],[-2,9],[-1,1],[0,3],[-4,4],[0,1],[-3,3],[-2,1],[-2,2],[-2,0],[0,4],[1,5],[2,4],[0,2],[1,2],[0,2],[-1,3],[-3,6],[0,5],[-3,6],[-4,5],[-1,0],[-1,1],[0,1],[-12,12],[-1,3],[-1,0],[-1,1],[0,2],[-1,1],[0,4],[-1,0],[0,1],[-1,1],[0,2],[-1,0],[0,1],[-2,2],[-1,2],[-1,0],[-1,2],[-2,2],[0,1],[-1,0],[1,2],[2,3],[1,4],[0,2],[2,4],[-1,3],[-1,-2],[-1,-1],[-1,1],[0,1],[-1,0],[-1,-1],[-1,1],[0,1],[-2,-3],[-1,-1],[-1,-3],[-1,-1],[-1,2],[-1,1],[0,1],[-1,2],[-5,5],[1,1],[0,3],[-1,1],[2,9]],[[523,649],[3,1],[2,-2],[1,0],[0,8],[3,2],[2,2],[3,1],[1,-1],[0,-1],[1,0],[1,-2],[1,0],[0,-1],[3,-3],[2,-1],[2,4],[1,1],[1,4],[1,1],[1,2],[1,0],[0,3],[1,2],[0,8],[3,-3],[2,-1],[3,1],[3,3],[2,0],[1,3],[1,-1],[3,0],[1,-5],[0,-10],[2,-4],[0,-2],[-1,-2],[-1,-5],[2,-5],[4,-3],[10,-6],[0,1],[3,3],[0,1],[-1,1],[-1,0],[0,1],[-1,0],[0,2],[-1,2],[0,1],[-1,1],[1,0],[1,1],[4,2],[5,3],[5,0],[0,-3],[1,-2],[0,-3],[1,-2],[1,-3],[0,-2],[1,-1],[3,-2],[0,-3],[4,-2],[2,-5],[1,-2],[0,-5],[-1,-3],[-1,-4],[0,-2],[1,-1],[0,-1],[1,-1],[2,-4],[0,-1],[1,-1],[0,-1],[1,-2],[1,-1],[0,-1],[5,0],[1,1],[0,-7],[2,-1],[4,0],[2,2],[2,3],[0,3],[1,2],[3,5],[1,0],[1,-1],[3,2],[1,4],[1,3],[0,5],[3,1],[5,3],[1,1],[3,5],[2,1],[4,4],[1,0],[0,1],[1,1],[1,0],[0,1],[1,0],[0,6],[3,0],[2,3],[1,3],[-2,2],[0,2],[3,3],[0,10],[2,2],[4,0],[2,5]],[[686,673],[-1,3],[0,1],[2,3],[2,2],[1,0],[2,-3],[1,0],[0,-1],[2,0],[-1,-4]],[[886,653],[-1,2],[-2,9],[-1,5],[0,5],[-2,2],[-1,0],[0,1],[-1,2],[-1,-1],[-2,-6],[-1,-5],[0,-1],[-3,-3],[0,-2],[-1,0],[0,3],[-1,0],[-1,1],[0,8],[1,3],[-2,1],[-1,2],[0,1],[-2,0],[0,2],[1,4],[0,4],[-1,0],[-2,1],[-2,3],[-1,2],[0,1],[-3,2],[0,1],[-6,-2],[0,-10],[-2,-3],[-2,-2],[0,-3],[-3,-2],[-5,2],[-1,2],[0,1],[-1,0],[-1,1],[-3,0],[0,1],[1,0],[0,5],[-6,2],[0,-1],[-1,0],[-1,4],[-2,5],[-3,-1],[0,-1],[-1,0],[-6,1],[-1,2],[0,4],[-5,9],[-2,2],[-1,0],[0,1],[-1,1],[-1,0],[-2,2],[-1,0],[1,3],[0,15],[1,1],[0,2],[1,9],[0,2],[1,2],[-1,1],[-1,0],[0,6],[1,2],[0,1],[1,5],[-7,4],[-1,-2],[-2,0],[0,-3],[-2,0],[-8,1],[0,-2],[-3,-1],[-6,-1],[-2,1],[-5,0],[-2,-1],[-1,-1],[0,-2],[-4,-1],[-1,1],[-1,4],[0,1],[-4,4],[0,2],[-5,6],[-2,0],[-2,2],[-3,0],[0,-1],[-1,-2],[-1,2],[-1,-1],[-1,1]],[[738,780],[-2,4],[-1,0],[0,3],[-2,4],[-1,3],[-1,1],[1,2],[1,1],[1,3],[1,1],[1,0],[0,2],[1,1],[1,2],[1,1],[0,2],[2,0],[0,-1],[1,-1],[1,1],[1,0],[1,-1],[0,-2],[-1,-1],[1,-2],[1,1],[2,0],[1,-1],[1,0],[2,-1],[1,1],[0,4],[2,4],[3,3],[0,-4],[1,-3],[3,-1],[1,1],[0,-3],[2,0],[1,1],[1,-2],[2,-2],[2,2],[0,2],[2,0],[2,-2],[0,3],[2,-1],[2,0],[2,1],[0,1],[-1,2],[0,3],[1,0],[0,-1],[1,-2],[1,0],[1,2],[0,7],[1,0],[3,1],[-2,3],[-2,0],[0,3],[1,-1],[1,1],[-1,3],[-1,0],[-2,4],[-1,4],[2,4],[0,1],[-1,1],[1,1],[0,3],[-1,2],[0,1],[1,2],[1,1],[0,2],[1,2],[2,1],[1,-1],[0,-3],[1,0],[1,2],[0,1],[1,1],[1,0],[2,-2],[0,1],[2,0],[1,1],[-1,1],[0,1],[2,1],[0,1],[1,2],[1,0],[4,1],[0,3],[2,0],[1,-1],[2,-3],[3,-1],[3,0],[3,-1],[6,1],[1,1],[1,-2],[0,-2],[1,2],[0,1],[-1,0],[0,3],[2,-2],[1,1],[2,1],[0,-4],[2,1],[0,2],[1,2],[1,-1],[1,2],[0,1],[1,1],[0,2],[1,0],[0,1],[1,1],[0,1],[1,3],[1,-1],[0,2],[1,1],[1,-3],[0,-3],[1,0],[0,1],[1,1],[0,3],[2,0],[1,-1],[1,1],[3,2],[2,-1],[1,-1],[2,4],[0,1],[2,1],[0,1],[-1,0],[3,3],[2,4],[1,1],[1,3],[1,2],[1,0],[1,3],[1,0],[0,2],[2,0],[0,-3],[2,2],[1,-2],[2,-2],[1,0],[0,5],[1,0],[1,-1],[1,1],[0,3],[-1,2],[1,2],[1,0],[0,-3],[1,2],[0,2],[1,2],[0,2],[1,2],[1,0],[0,2],[-1,1],[2,0],[0,2],[-1,1],[-1,0],[1,4]],[[885,927],[2,1],[0,2],[-1,1],[4,2],[0,2],[1,3],[4,2],[2,3],[1,0],[1,-2],[1,0],[2,-3],[4,0],[-1,-5],[-1,-2],[-1,-1],[1,-2],[0,-2],[1,-1],[1,-2],[0,-3],[5,-2],[3,0],[0,-7],[-1,-3],[1,-4],[1,-1],[2,-1],[0,-10],[1,-2],[2,-3],[1,-3],[0,-3],[1,-1],[2,-4],[1,2],[1,3],[3,1],[1,-1],[1,1],[3,-2],[1,-1],[4,4],[1,-2],[1,-1],[0,-2],[2,-1],[0,-4],[2,-5],[1,-1],[1,0],[1,-3],[1,0],[0,-1],[2,-1],[0,-3],[-1,0],[2,-9],[1,0],[0,-1],[2,-4],[-1,-1],[0,-1],[1,-2],[-1,-3],[1,-2],[0,-2],[-1,-2],[2,-2],[3,0],[2,-2],[5,-2],[3,3],[2,3],[2,1],[2,2],[0,1],[3,0],[1,-2],[2,-2],[0,4],[1,0],[1,-1],[1,1],[1,0],[1,-1],[-1,-1],[0,-2],[1,-1],[0,2],[1,2],[2,0],[0,-7],[1,-1],[0,-5],[1,1],[1,0],[1,-2],[1,-5],[0,-2],[1,-2],[1,1],[1,0],[0,-6],[-1,-4],[-2,-2],[0,-3],[-2,-3],[-2,-4],[1,-2],[0,-2],[1,0],[0,1],[2,-3],[1,0],[0,-2],[2,-2],[1,1],[0,-3],[1,-1],[-1,-1],[-3,-7],[0,-3],[-3,-5],[-2,0],[-6,-6],[-2,0],[-2,1],[-1,0],[0,-3],[1,-2],[0,-2],[-1,-3],[1,-1],[1,0],[0,-7],[-3,-3],[-4,1],[-1,-1],[-1,0],[0,-3],[-2,-2],[0,-4],[-2,-5],[-1,-2],[-1,-1],[-3,-2],[-5,-1],[-1,-2],[-9,0],[-1,2],[0,1],[-8,9],[-1,1],[-1,0],[-1,-2],[-3,0],[0,-2],[-1,-2],[-1,-10],[-1,-4],[0,-4],[-2,0],[0,1],[-1,1],[-3,0],[-5,1],[-1,2],[-1,1],[-2,3],[-1,0],[0,-8],[-5,-5],[-3,0],[-1,-4],[1,-1],[0,-1],[-1,-5],[-2,-1],[-2,-2],[-1,-2],[0,-8],[-3,-3],[-1,-5],[0,-4],[-1,-6],[-1,-4],[-2,-2],[-1,0],[-5,2]],[[586,445],[3,-2],[1,0],[0,-1],[1,-1],[0,-1],[2,-3],[-1,-1],[-1,-2],[1,-2],[0,-3],[-4,-2],[0,-4],[1,-2],[2,2],[3,-1],[2,-4],[0,-4],[-1,-2],[-4,-2],[0,-3],[-2,-2],[-4,-6],[1,-5],[2,-2],[1,-4],[-1,-1],[0,-1],[-1,1],[-6,0],[-1,-1],[-1,0],[-1,-2],[0,-1],[-2,-1],[-3,-2],[0,-2],[1,-3],[3,-3],[1,3],[0,2],[-1,2],[2,2],[2,-3],[0,-3]],[[528,158],[-1,-1],[-1,-2],[-1,1],[-3,2],[-1,-2],[-3,-4],[-2,0],[-2,1],[-1,0],[-4,1],[-1,-1],[0,-1],[-1,-2],[-4,-6],[-1,1],[-1,0],[-2,-3],[1,-4],[1,-1],[2,-3],[-3,-3],[-3,-2],[-1,-1],[-2,-3],[0,-5],[-1,-1],[-3,-4],[-4,-7],[-5,-3],[-1,2],[-1,3],[-2,-2],[-10,-11],[3,-8],[-1,-1],[-1,1],[-1,2],[-7,-1],[-1,2],[-4,-1],[0,-2],[-8,2],[0,4],[-2,10],[-3,0],[-1,1],[-3,-6],[-2,-5],[0,-1],[-1,-2],[1,-8],[1,-5],[-3,0],[0,1],[-4,0],[0,-1],[-3,0],[-1,-1],[-1,-5],[0,-3],[1,-5],[-2,0],[0,1],[-1,2],[-4,-2],[-6,2],[-2,1],[-2,-5],[-2,-2],[-2,1],[0,-2],[-5,-2],[-1,3]],[[399,62],[-3,4],[0,2],[4,2],[1,3],[1,0],[1,-1],[1,0],[-3,4],[-1,0],[-1,1],[2,6],[0,3],[3,7],[2,6],[-1,1],[-3,2],[0,3],[-1,1],[-3,-4],[-1,-2],[-2,1],[-1,1],[-1,-1],[-2,0],[-1,2],[-1,-1],[-2,0],[-1,6],[1,1],[0,1],[2,4],[0,2],[1,2],[0,2],[1,2],[0,3],[2,2],[1,0],[1,1],[1,2]],[[396,130],[2,0],[-1,3],[4,9],[0,8],[1,6],[1,1],[1,2],[1,1],[1,0],[0,2],[-1,2],[1,1],[0,5],[-2,-3],[-1,-2],[-3,-2],[-1,2],[1,4],[2,2],[2,3],[1,0],[1,1],[1,2],[0,1],[-1,2],[0,1],[-1,2],[0,3],[2,1],[2,-4],[2,0],[1,1],[0,4],[2,12],[-1,4],[-1,1],[0,1],[-1,1],[-1,2],[0,2],[-1,8],[0,8],[-1,3],[0,3],[1,3],[0,1],[1,3],[1,1],[0,2],[1,2],[0,1],[1,1],[0,3],[1,3],[0,6],[-1,5],[-2,4],[0,3],[-1,1],[0,16],[-1,2],[0,2],[-1,2],[0,1],[-1,1],[-1,2],[0,1],[-1,1],[0,1],[-1,3],[0,2],[1,1],[0,2],[1,1],[0,1],[1,1],[0,1],[1,3],[5,0],[5,4],[0,1],[1,-1],[2,3],[4,10],[1,3],[0,3],[-2,10],[-1,3],[-1,5],[0,3],[-1,0],[-2,6],[0,2],[-1,5],[-3,4],[0,1],[-1,3],[0,12]],[[414,393],[0,3],[1,3],[0,1],[3,6],[1,4],[1,11],[-1,7],[-1,5],[0,10],[1,1],[1,3],[0,6]],[[420,453],[2,5],[-2,2],[-1,2],[0,3],[9,-3],[1,-2],[6,-5],[4,4],[0,2],[1,5],[3,1],[1,1],[1,0],[4,8],[6,1],[0,-1],[1,-2],[2,9],[2,6],[2,1],[3,0],[2,-2],[2,-1],[2,-2],[2,-3],[1,-3],[1,-1],[1,-2],[-1,-3],[-1,-4],[-3,-3],[-1,-6],[-1,-5],[0,-1],[2,-4],[1,-3],[1,3],[0,1],[1,1],[2,1],[1,1],[3,0],[4,4],[3,5],[1,1],[0,1],[2,-1],[3,-2],[2,0],[1,2],[0,2],[1,2],[0,6],[1,3],[2,8],[3,-3],[1,0],[4,-1],[1,0],[2,2],[1,2],[1,-2],[0,-2],[1,-2],[3,-7],[0,-5],[1,-2],[0,-2],[1,-7],[3,-6],[1,-1],[0,-2],[1,-2],[1,0],[2,-4],[1,-1],[0,-1],[6,-6],[0,-1],[1,-1],[3,-4],[2,-2],[1,1],[2,1],[2,-2],[4,-2],[0,2],[3,8],[2,9],[5,-5],[3,-4],[4,0],[4,-3],[0,8],[1,1],[0,1],[1,1],[0,1],[1,1],[2,1],[1,1],[4,2],[1,0],[0,1],[2,1],[3,-4]],[[817,451],[2,-2],[2,-6],[-1,-1],[-1,-3],[0,-1],[-1,-3],[0,-2],[2,-2],[0,-1],[-1,-3],[-2,0],[-2,-4],[0,-1],[-2,-3],[-4,0],[-1,-2],[0,-6],[1,-2],[0,-2],[1,-4],[-1,0],[0,-6],[-2,-3],[-2,-1],[-3,-2],[-2,-1],[-1,-1],[-1,-2],[-2,-1],[0,-6],[1,-4],[-1,-3],[-1,-6],[-3,-3],[-1,-4],[0,-2],[4,-5],[2,-1],[1,-3],[0,-4],[-3,-3],[0,-2],[-1,-3],[-1,-1],[-1,-3],[-3,3],[-2,-2],[-1,0],[-2,2],[-1,-1],[0,-5],[1,-3],[1,-1],[2,0],[0,-2],[-2,-3],[-3,-3],[-1,-3],[0,-1],[-1,-4],[-4,2],[-2,4],[-1,-1],[-1,-2],[-4,0],[-2,-4],[-2,-9],[1,-2],[2,-2],[-3,-6],[1,-1],[-3,-6],[-1,0],[-1,-1],[0,-5],[-2,-9],[2,-9],[3,0],[1,-3],[1,-1],[1,-2],[0,-5],[-1,-2],[0,-2],[-2,-7],[0,-2],[-2,-1],[-4,2],[-4,1],[-1,-1],[0,-2],[-1,-1],[-1,0],[-1,-6],[0,-13],[-1,-1],[-1,-2],[-1,-1],[-1,-7],[1,-4],[-1,-2],[-3,-1],[-1,1],[0,2],[-3,-1],[-1,0],[-1,-8],[-1,-5],[-3,-3],[0,-1],[-2,0],[0,-2],[-1,-2],[-4,2],[0,2],[-2,4],[-1,0],[-4,-2],[-3,1],[-2,0],[0,1],[-1,1],[0,4],[-3,-1],[-1,-2],[0,-3],[-4,3],[-2,3],[0,1],[-1,1],[0,1],[-1,-1],[-2,0],[-2,-1],[-1,-1],[-2,0],[-1,-1],[-1,0],[-1,-1],[-2,0],[-1,1]],[[635,374],[-2,19],[3,6],[0,1],[2,4],[2,5],[4,-4],[2,0],[6,3],[1,2],[0,3],[3,0],[2,-1],[4,2],[3,-3],[2,-3],[1,2],[2,1],[1,1],[3,0],[2,3],[4,8],[-1,4],[-2,0],[-1,2],[1,0],[2,-1],[0,1],[-1,4],[-1,3],[0,5],[1,0],[0,2],[-1,3],[0,1],[-1,1],[1,7],[1,0],[1,-1],[0,2],[1,2],[4,3],[0,-3],[1,-2],[7,0],[-1,2],[0,1],[5,5],[1,3],[2,-2],[0,2],[-1,1],[-1,2],[0,3],[1,2],[-1,0],[0,9],[1,0],[2,1],[-1,5],[0,1],[-2,4],[7,9],[2,0],[3,4],[2,1],[1,0],[1,5],[0,2],[1,4],[2,4],[2,-2],[1,2]],[[719,524],[2,0],[1,-1],[0,-1],[1,0],[1,-4],[3,-8],[2,0],[0,6],[1,0],[1,-2],[1,-1],[3,-5],[1,-2],[2,-1],[0,-1],[3,0],[0,-1],[4,0],[6,-2],[0,-1],[3,-4],[1,0],[3,-2],[5,1],[1,1],[0,-2],[-1,-5],[1,-1],[0,-5],[1,-1],[-1,-1],[-1,-2],[0,-5],[-1,-2],[-8,-8],[0,-3],[1,-4],[-1,-4],[0,-2],[1,-2],[1,-3],[1,0],[6,-3],[7,-6],[2,-1],[2,0],[2,-1],[5,0],[0,-1],[1,-2],[2,0],[1,-3],[-1,-1],[-1,0],[-1,-5],[2,3],[1,1],[4,-2],[1,-1],[0,-1],[1,0],[1,1],[1,2],[2,1],[1,-1],[1,1],[1,-1],[1,2],[0,1],[1,0],[2,1],[0,3],[-1,3],[2,4],[0,3],[1,1],[0,-1],[1,-1],[2,0],[4,3],[0,2],[1,2],[0,1],[2,1],[0,-2],[3,2]],[[687,189],[-4,-8],[0,-4],[1,-5],[0,-8],[-2,0],[-2,1],[-1,-4],[1,-1],[0,-1],[-1,-1],[0,-1],[-1,-2],[0,-4],[-2,-3],[-2,-2],[0,-2],[-1,-1],[-1,0],[-1,1],[0,1],[-2,-1],[-1,-1],[0,-4],[-1,-2],[-1,-1],[-2,4],[-1,1],[-1,2],[-2,1],[-3,4],[-2,4],[-2,2],[-4,2],[-3,3],[-1,-3],[0,-4],[-3,-7],[-2,-3],[-2,0],[-4,2],[-3,3],[-1,-1],[-2,1],[-1,0],[0,-1],[-1,2],[-1,3],[-6,-6],[-1,1],[0,1],[-2,-2],[-1,-3],[-3,-5],[-1,-1],[-1,-3],[-1,1],[0,3],[-2,-1],[-1,1],[-3,2],[0,3],[-1,2],[-3,4],[-5,-5],[-1,0],[-5,6],[0,4],[-1,1],[-3,-6],[-1,-3],[-1,0],[0,-3],[-1,1],[0,1],[-1,-1],[-3,0],[-1,6],[0,4],[-2,1],[-11,0],[-1,-1],[0,-1],[-1,-1],[0,-1],[-1,0],[-2,-2],[-1,0],[-3,-2],[0,-1],[-1,0],[-2,-1],[-2,-3],[-3,-4],[-4,4],[-1,0],[-4,3],[-3,6],[-3,2],[0,2],[-3,4]],[[528,158],[-2,9],[-3,9],[-1,1],[-1,2],[0,2],[-2,3],[0,1],[2,4],[1,3],[2,3],[3,4],[-2,5],[0,1],[-1,2],[-1,1],[-1,6],[1,0],[4,4],[2,0],[2,1],[4,-4],[1,1],[0,1],[2,2],[1,0],[0,1],[3,3],[1,2],[3,3],[3,-3],[1,0],[1,-1],[0,-1],[2,1],[0,1],[2,2],[0,6],[2,2],[0,6],[-1,4],[0,1],[-1,2],[1,2],[0,1],[2,2],[0,3],[-1,4],[-1,3],[-4,4],[-2,4],[-1,-1],[-3,0],[-2,-1],[-2,6],[-1,1],[-1,3],[3,3],[2,3],[3,3],[1,0],[7,7],[6,-8],[2,-3],[2,4],[1,3],[3,6],[0,1],[2,2],[-1,3],[0,11],[-1,1],[0,6],[1,2],[0,1],[1,2],[2,5],[0,5],[-1,3],[-3,4],[0,1],[-2,3],[4,8],[0,1],[4,10],[2,3],[3,6]],[[581,375],[1,-2],[0,-3],[2,-2],[2,-5],[0,-3],[2,1],[0,3],[-1,1],[1,2],[2,0],[2,-4],[6,-6],[1,3],[3,6],[2,0],[1,1],[0,2],[1,3],[2,0],[2,-1],[1,-1],[2,-3],[0,-1],[1,-1],[0,-1],[1,-3],[3,0],[1,-1],[2,0],[0,-1],[2,2],[0,4],[1,2],[5,1],[3,1],[3,3],[0,2]],[[635,374],[4,3],[3,-4],[2,-3],[1,-2],[1,-3],[1,-2],[5,0],[2,1],[2,0],[1,-2],[1,-1],[2,-3],[-1,-6],[0,-4],[-1,-4],[1,-8],[0,-5],[-1,-1],[-1,0],[0,-7],[-1,-9],[1,0],[0,-15],[1,-8],[0,-2],[1,-2],[3,-7],[1,-3],[-1,-5],[0,-1],[-1,-4],[0,-7],[-1,-1],[1,-3],[0,-1],[1,-4],[-4,0],[0,-16],[-1,0],[-2,-1],[-1,-2],[0,-1],[-1,-2],[2,-2],[1,-2],[1,-3],[0,-2],[1,-2],[1,1],[1,-1],[4,-3],[1,1],[3,0],[5,-1],[0,1],[1,5],[0,4],[1,1],[6,1],[1,-2],[2,-7],[1,-5],[0,-1],[-1,-8],[-1,-6],[0,-4],[1,-3],[2,-2],[1,0]]]}