{"type":"Topology","objects":{"data":{"geometries":[{"properties":{"index":1708,"nuts_1_code":"HU1","nuts_1_name":"K\u00f6z\u00e9p-Magyarorsz\u00e1g"},"type":"Polygon","arcs":[[-5,-2,0]],"id":0},{"properties":{"index":1710,"nuts_1_code":"HU2","nuts_1_name":"Dun\u00e1nt\u00fal"},"type":"Polygon","arcs":[[1,-4,2]],"id":1},{"properties":{"index":1714,"nuts_1_code":"HU3","nuts_1_name":"Alf\u00f6ld \u00e9s \u00c9szak"},"type":"Polygon","arcs":[[3,4,5,-8,6],[7,8]],"id":2}],"type":"GeometryCollection"}},"bbox":[16.113802175040192,45.738043617153906,22.896334235957127,48.584676835168764],"transform":{"scale":[0.006789321382299235,0.002849482700715574],"translate":[16.113802175040192,45.738043617153906]},"arcs":[[[403,730],[0,3],[-1,1],[-2,1],[-1,3],[0,4],[-1,1],[-2,0],[0,1],[-3,3],[-2,1],[-1,1],[0,4],[-1,5],[1,4],[0,5],[1,2],[1,3],[0,7],[-2,3],[-1,3],[2,3],[3,1],[2,0],[1,1],[0,1],[1,1],[1,4],[-1,4],[0,2],[1,0],[0,7],[1,0],[0,0],[1,2],[0,-1],[1,2],[1,-1],[2,0],[2,-1],[1,2],[0,2],[1,-1],[1,0],[2,-1],[3,2]],[[403,730],[0,-1],[2,-1],[3,-1],[2,-2],[1,-2],[0,-5],[1,-5],[2,-1],[0,-7],[-1,-2],[3,-6],[-1,-3],[-2,-2],[-1,2],[-1,1],[-2,1],[-1,-1],[0,-1],[-2,0],[-2,-1],[0,-6],[-1,0],[-1,-1],[1,-2],[1,-3],[1,-9],[0,-1],[-1,1],[-1,0],[-1,1],[-1,0],[-1,-1],[-1,1],[-1,0],[-2,2],[0,1],[-1,1],[-1,0],[-1,1],[0,-3],[-5,0],[3,-4],[1,-1],[0,-3],[-5,-5],[-1,-4],[-2,-2],[0,-5],[-1,0],[-2,-3],[-1,-1],[-1,-2],[2,-5],[-1,-3],[0,-7],[5,-13],[-1,0],[3,-2],[2,0],[0,-2],[2,-4],[2,-2],[0,-3],[1,-12],[-4,-4],[-1,-4],[2,-3],[2,-2],[0,-1],[2,-5],[2,-6],[3,-4],[2,-2],[1,-2],[1,-1],[2,-5],[-1,-2],[-1,-1],[2,-1],[1,0],[0,-6],[1,-2],[4,-2],[1,0],[0,-4],[-2,-13],[-1,-4],[-2,-5],[-2,-13],[0,-7],[1,0],[0,-4],[1,-2],[0,-7],[1,-4],[0,-1],[1,-3],[0,-2],[1,-2],[2,-3],[4,-5],[3,-7]],[[399,62],[-1,-1],[-1,-3],[0,-8],[-3,-1],[-2,3],[-2,1],[-1,2],[0,1],[-3,1],[-2,1],[0,1],[-2,2],[0,2],[-2,0],[-4,-2],[-1,2],[0,-7],[-1,-2],[-2,-1],[0,-2],[1,0],[0,-1],[1,-2],[-2,-2],[-1,1],[0,1],[-1,-3],[0,-4],[-2,-1],[1,-3],[0,-2],[-3,-1],[1,-2],[-2,-3],[-3,-2],[0,-5],[-2,1],[0,-2],[-1,-1],[-1,0],[-2,-1],[-1,-1],[0,-2],[-2,1],[-1,1],[0,2],[-2,0],[-1,-5],[0,-5],[-2,0],[-2,1],[-1,-3],[0,-8],[-2,1],[-4,0],[-2,2],[1,0],[0,3],[-1,0],[-1,3],[-1,0],[-3,3],[1,-2],[-2,0],[-1,-4],[-1,-3],[-1,1],[0,1],[-1,1],[-4,2],[-2,-1],[-1,0],[-1,-1],[-1,2],[-3,0],[-2,4],[0,2],[-3,1],[-1,0],[0,1],[-1,1],[-2,0],[-2,-4],[-1,2],[-2,2],[-4,1],[-1,-2],[0,-2],[-1,-2],[0,-1],[-2,-1],[-1,0],[0,-1],[-3,2],[-6,3],[-2,2],[-2,3],[-2,1],[-1,-1],[0,-1],[-2,0],[-2,1],[-1,0],[-2,-2],[-1,0],[-2,2],[-2,0],[-4,-5],[0,-1],[-1,-2],[0,-1],[-2,2],[0,4],[-2,1],[-1,1],[0,4],[-1,3],[-1,0],[0,-2],[-2,1],[-1,1],[-1,2],[-2,1],[-2,-1],[-1,-1],[-1,3],[-1,2],[-1,1],[-3,1],[-1,0],[-3,2],[-2,-1],[-2,2],[-1,0],[-1,3],[0,6],[-2,6],[-2,8],[-4,5],[-1,2],[-1,1],[-1,2],[-2,1],[-2,0],[-3,-1],[-1,1],[-7,2],[-3,2],[-3,0],[0,-3],[1,-3],[-1,-1],[-3,0],[0,4],[-2,-3],[-1,0],[-1,2],[0,1],[1,1],[-2,2],[-2,-2],[-2,-1],[-1,1],[0,6],[1,0],[0,-1],[1,-1],[1,1],[3,0],[1,1],[-1,2],[-2,-2],[-1,1],[0,2],[1,0],[1,1],[-1,1],[0,1],[1,2],[-1,3],[-1,0],[0,-3],[-1,-2],[0,-1],[-2,3],[0,2],[-1,2],[-1,-1],[0,-1],[1,-1],[0,-2],[-1,-3],[-1,-2],[-1,0],[-1,1],[1,2],[1,4],[0,1],[-1,0],[-1,-1],[0,-1],[-1,0],[-1,2],[0,1],[1,2],[0,2],[-1,0],[-2,-1],[-3,4],[2,3],[2,1],[1,2],[-1,1],[-2,1],[-2,0],[0,5],[1,2],[0,1],[-1,0],[-4,2],[1,1],[0,2],[-1,3],[-1,0],[-3,-1],[-1,1],[1,1],[2,0],[0,4],[2,1],[-1,1],[-2,0],[0,1],[1,2],[-1,2],[-1,-1],[-2,0],[-2,-2],[0,1],[-1,1],[1,3],[-1,3],[2,2],[-1,2],[0,4],[-2,1],[-1,1],[0,4],[-3,1],[-1,-1],[-1,0],[0,4],[-1,0],[-1,-1],[-1,2],[-2,2],[-1,-1],[-1,1],[-1,3],[-1,0],[0,2],[-2,0],[-7,7],[-1,0],[-1,1],[-2,0],[0,4],[-1,2],[-3,0],[-3,6],[-2,0],[-1,2],[-1,3],[-2,2],[0,7],[-1,0],[0,1],[-1,2],[0,8],[1,2],[-1,0],[0,2],[-2,1],[1,3],[-2,-1],[-1,4],[-2,2],[0,1],[-1,-1],[-1,2],[-1,-1],[0,2],[-1,0],[-1,1],[0,2],[-1,1],[-1,-1],[0,-1],[-1,-1],[-1,1],[0,1],[-1,0],[0,-1],[-1,-1],[0,2],[-1,1],[-1,-1],[-1,3],[0,2],[-1,1],[-1,-1],[0,-2],[-1,0],[-3,9],[-2,4],[-1,5],[-1,1],[-1,0],[0,4],[-2,2],[-1,-1],[-2,0],[-1,2],[-1,-1],[-1,3],[-1,1],[-3,0],[-2,4],[-2,1],[-4,5],[0,2],[1,1],[-1,1],[0,4],[1,1],[-2,2],[0,5],[-1,2],[-1,3],[-2,0],[-2,1],[0,4],[-1,3],[-1,0],[-1,3],[-1,1],[-1,4],[-2,1],[-1,0],[0,1],[-3,6],[-1,0],[-1,1],[0,1],[-1,5],[1,3],[1,1],[0,-1],[1,-1],[2,0],[0,2],[1,1],[-1,3],[1,6],[0,1],[-1,0],[-2,1],[-3,0],[-2,2],[1,3],[-1,3],[-2,-2],[-2,7],[-2,5],[-2,2],[2,8],[-3,0],[0,7],[4,2],[0,6],[1,3],[1,1],[-1,3],[0,1],[-1,1],[-1,0],[-1,1],[-1,2],[-2,2],[-2,4],[-4,0],[-3,1],[-1,0],[-2,-2],[-3,0],[-3,-2],[-1,-2],[-1,1],[-2,-2],[-3,0],[-1,1],[-2,4],[3,2],[1,3],[1,1],[2,6],[1,1],[2,0],[1,5],[1,7],[1,1],[1,-1],[0,0],[1,-2],[2,3],[1,1],[1,0],[0,4],[2,2],[1,0],[1,-1],[1,1],[0,8],[1,3],[0,3],[1,4],[1,-1],[0,-4],[1,-1],[3,2],[3,-2],[0,3],[1,1],[2,-1],[1,-2],[1,-1],[1,1],[1,0],[3,1],[1,-2],[1,-1],[1,0],[2,-1],[0,4],[1,0],[1,-1],[3,-2],[1,2],[3,0],[0,2],[-2,2],[-1,3],[-3,4],[-1,0],[-2,-3],[-1,2],[0,3],[2,1],[3,2],[2,1],[3,0],[2,3],[0,1],[-3,3],[-2,0],[0,1],[-1,1],[-1,0],[0,4],[-1,1],[0,4],[1,1],[1,0],[1,2],[1,0],[1,1],[0,4],[1,1],[3,1],[0,3],[-2,4],[-4,0],[-3,-2],[-2,0],[-1,3],[1,2],[1,1],[0,4],[-1,5],[-1,1],[-1,-1],[-2,0],[-1,3],[0,5],[2,1],[1,6],[0,7],[-1,1],[4,1],[1,0],[2,3],[0,4],[1,2],[0,2],[-4,17],[-1,2],[-1,0],[0,3],[-2,2],[2,1],[1,0],[0,2],[1,2],[-1,4],[0,3],[-1,3],[0,3],[2,3],[4,-2],[0,-5],[1,1],[1,-2],[1,2],[0,3],[2,2],[3,0],[0,-1],[1,-1],[4,0],[0,2],[1,3],[1,1],[2,1],[1,2],[2,0],[0,1],[1,4],[2,1],[3,3],[0,2],[1,5],[-1,2],[-2,6],[2,3],[0,-1],[1,0],[3,2],[2,4],[0,4],[1,1],[0,1],[-1,2],[-1,1],[-1,4],[-3,0],[-1,3],[1,1],[1,3],[-1,5],[0,4],[-1,0],[-1,1],[0,4],[-3,3],[-2,0],[-1,-1],[-4,-2],[-2,0],[-2,3],[-2,2],[-5,4],[0,-1],[-1,-1],[-1,0],[-2,1],[0,1],[-1,2],[-4,2],[-2,0],[-1,2],[-2,1],[3,3],[1,4],[0,4],[1,0],[0,-1],[1,-3],[1,-1],[1,0],[0,1],[1,2],[3,5],[2,1],[1,1],[0,1],[1,0],[1,-1],[1,1],[1,3],[-1,3],[-1,2],[0,2],[1,0],[1,1],[0,2],[2,1],[1,0],[1,1],[2,1],[1,0],[0,-1],[2,1],[0,1],[1,-1],[3,0],[0,-1],[1,-3],[2,-2],[3,0],[6,-2],[1,-2],[0,-3],[2,-9],[1,-5],[1,0],[11,1],[1,2],[1,5],[2,2],[2,4],[0,-6],[1,-5],[6,-1],[3,1],[2,1],[2,0],[2,1],[2,0],[4,2],[1,0],[2,1],[3,0],[0,1],[5,0],[-2,5],[-1,3],[0,7],[-1,7],[-1,6],[-1,2],[2,3],[1,3],[-1,3],[-1,1],[0,1],[-2,2],[1,0],[0,3],[-4,5],[-2,2],[1,4],[3,-1],[1,0],[2,2],[1,0],[0,1],[2,1],[0,-1],[1,0],[3,8],[-1,2],[0,1],[1,4],[1,3],[-3,3],[2,4],[2,5],[-4,4],[10,12],[6,5],[4,-1],[2,2],[1,-4],[0,-2],[1,-2],[4,-2],[7,0],[2,-2],[4,-8],[0,-1],[5,-5],[1,-3],[0,-2],[1,-1],[2,-4],[2,-8],[1,-3],[1,-2],[2,-1],[4,-5],[4,0],[1,-3],[1,-2],[1,-3],[2,-8],[2,-2],[1,1],[1,0],[0,1],[3,0],[2,-2],[0,-2],[1,-2],[4,-4],[2,-3],[3,-4],[2,-5],[3,-2],[3,-1],[3,0],[2,-3],[3,0],[1,1],[3,-1],[4,1],[1,0],[5,-2],[3,2],[5,0],[3,3],[0,1],[3,-1],[2,-2],[1,1],[1,0],[1,1],[2,1],[8,0],[2,-1],[13,-4],[3,0],[6,-1],[4,-2],[2,0],[6,2],[1,0],[7,4],[2,1],[4,1],[3,3],[2,0],[4,-4],[3,1],[1,0],[3,3],[3,1],[2,-1],[5,-2],[7,1],[3,1],[3,4],[5,5],[0,2],[1,5],[2,2],[2,1],[3,1],[2,1],[4,-2],[4,0]],[[399,62],[-3,4],[0,2],[4,2],[1,3],[1,0],[1,-1],[1,0],[-3,4],[-1,0],[-1,1],[2,6],[0,3],[3,7],[2,6],[-1,1],[-3,2],[0,3],[-1,1],[-3,-4],[-1,-2],[-2,1],[-1,1],[-1,-1],[-2,0],[-1,2],[-1,-1],[-2,0],[-1,6],[1,1],[0,1],[2,4],[0,2],[1,2],[0,2],[1,2],[0,3],[2,2],[1,0],[1,1],[1,2],[2,0],[-1,3],[4,9],[0,8],[1,6],[1,1],[1,2],[1,1],[1,0],[0,2],[-1,2],[1,1],[0,5],[-2,-3],[-1,-2],[-3,-2],[-1,2],[1,4],[2,2],[2,3],[1,0],[1,1],[1,2],[0,1],[-1,2],[0,1],[-1,2],[0,3],[2,1],[2,-4],[2,0],[1,1],[0,4],[2,12],[-1,4],[-1,1],[0,1],[-1,1],[-1,2],[0,2],[-1,8],[0,8],[-1,3],[0,3],[1,3],[0,1],[1,3],[1,1],[0,2],[1,2],[0,1],[1,1],[0,3],[1,3],[0,6],[-1,5],[-2,4],[0,3],[-1,1],[0,16],[-1,2],[0,2],[-1,2],[0,1],[-1,1],[-1,2],[0,1],[-1,1],[0,1],[-1,3],[0,2],[1,1],[0,2],[1,1],[0,1],[1,1],[0,1],[1,3],[5,0],[5,4],[0,1],[1,-1],[2,3],[4,10],[1,3],[0,3],[-2,10],[-1,3],[-1,5],[0,3],[-1,0],[-2,6],[0,2],[-1,5],[-3,4],[0,1],[-1,3],[0,15],[1,3],[0,1],[3,6],[1,4],[1,11],[-1,7],[-1,5],[0,10],[1,1],[1,3],[0,6]],[[420,453],[2,5],[-2,2],[-1,2],[0,3],[9,-3],[1,-2],[6,-5],[4,4],[0,2],[1,5],[3,1],[1,1],[1,0],[4,8],[6,1],[0,-1],[1,-2],[2,9],[2,6],[2,1],[3,0],[2,-2],[2,-1],[2,-2],[2,-3],[1,-3],[1,-1],[1,-2],[-1,-3],[-1,-4],[-3,-3],[-1,-6],[-1,-5],[0,-1],[2,-4],[1,-3],[1,3],[0,1],[1,1],[2,1],[1,1],[3,0],[4,4],[3,5],[1,1],[0,1],[2,-1],[3,-2],[2,0],[1,2],[0,2],[1,2],[0,6],[1,3],[2,8],[3,-3],[1,0],[4,-1],[1,0],[2,2],[1,2],[1,-2],[0,-2],[1,-2],[3,-7],[0,-5],[1,-2],[0,-2],[1,-7],[3,-6],[1,-1],[0,-2],[1,-2],[1,0],[2,-4],[1,-1],[0,-1],[6,-6],[0,-1],[1,-1],[3,-4],[2,-2],[1,1],[2,1],[2,-2],[4,-2],[0,2],[3,8],[2,9],[5,-5],[3,-4],[4,0],[4,-3],[0,8],[1,1],[0,1],[1,1],[0,1],[1,1],[2,1],[1,1],[4,2],[1,0],[0,1],[2,1],[3,-4],[2,6],[0,1],[1,3],[-1,2],[-1,1],[-1,0],[-1,3],[-1,7],[0,3],[-1,2],[-2,6],[0,3],[-2,5],[2,6],[0,2],[1,0],[1,3],[2,3],[2,6],[-2,9],[-1,1],[0,3],[-4,4],[0,1],[-3,3],[-2,1],[-2,2],[-2,0],[0,4],[1,5],[2,4],[0,2],[1,2],[0,2],[-1,3],[-3,6],[0,5],[-3,6],[-4,5],[-1,0],[-1,1],[0,1],[-12,12],[-1,3],[-1,0],[-1,1],[0,2],[-1,1],[0,4],[-1,0],[0,1],[-1,1],[0,2],[-1,0],[0,1],[-2,2],[-1,2],[-1,0],[-1,2],[-2,2],[0,1],[-1,0],[1,2],[2,3],[1,4],[0,2],[2,4],[-1,3],[-1,-2],[-1,-1],[-1,1],[0,1],[-1,0],[-1,-1],[-1,1],[0,1],[-2,-3],[-1,-1],[-1,-3],[-1,-1],[-1,2],[-1,1],[0,1],[-1,2],[-5,5],[1,1],[0,3],[-1,1],[2,9],[-1,2],[0,8],[-1,2],[-1,3],[-1,2],[0,1],[1,1],[0,2],[-1,0],[-2,1],[-2,2],[0,4],[-2,3],[-1,4],[1,1],[0,4],[1,0],[0,4],[-1,3],[-4,5],[-4,4],[-1,-3],[-3,-5],[-1,-1],[-2,-1],[0,-2],[-1,-2],[2,-1],[1,0],[0,-3],[-1,0],[-1,-1],[-1,0],[0,-1],[-2,-1],[-1,6],[0,3],[-1,0],[-2,2],[0,3],[-1,0],[0,2],[-1,0],[0,6],[1,1],[0,1],[1,2],[0,2],[-3,2],[-2,0],[0,2],[1,1],[1,5],[1,1],[2,1],[-3,5],[-1,1],[-6,1],[-1,-1],[-3,0],[0,1],[-4,4],[-1,0],[-6,-3],[-2,1],[-5,-1],[-1,3],[-2,3],[-4,3],[-2,-1],[-1,-1],[-4,2],[-4,0],[-1,-1],[0,-2],[-2,-1],[-2,3],[0,2],[-1,2],[-2,0],[-1,2],[0,5],[-3,4],[-2,1],[-4,8],[-3,2],[-1,5],[-2,3],[0,2],[-1,2],[3,3],[5,6],[0,1],[-1,2],[2,0],[1,1],[-1,4],[1,2],[0,1],[-1,0],[1,2],[-2,4],[-1,-1],[-2,0],[-2,1],[-4,10]],[[415,814],[6,0],[2,-1],[0,1],[1,2],[0,1],[1,1],[1,0],[0,2],[1,1],[3,-4],[2,0],[0,-1],[2,-2],[2,3],[0,1],[1,1],[2,0],[0,-1],[2,-1],[2,1],[1,1],[0,1],[1,0],[1,-1],[0,-1],[1,-1],[2,0],[3,-2],[2,1],[4,0],[0,-1],[2,-2],[2,2],[0,3],[2,2],[2,0],[1,3],[2,2],[4,1],[4,-1],[1,1],[2,-2],[2,2],[2,-2],[0,-1],[2,2],[1,0],[2,2],[1,2],[2,0],[0,-3],[1,-3],[1,1],[0,3],[1,0],[2,2],[0,2],[1,2],[-1,0],[1,4],[0,6],[1,1],[1,2],[0,1],[1,2],[-1,2],[0,4],[1,3],[1,0],[1,3],[0,4],[2,2],[1,-1],[2,2],[0,1],[2,0],[0,1],[1,2],[2,2],[1,3],[4,5],[2,-4],[3,0],[1,-2],[0,-4],[1,-4],[2,-2],[4,-1],[1,1],[1,3],[4,0],[1,-2],[0,-1],[2,-2],[1,-2],[2,0],[1,-4],[-1,-1],[-2,-4],[-1,-1],[1,-3],[1,-1],[2,0],[0,3],[2,2],[1,0],[1,-1],[0,-1],[2,0],[0,2],[1,3],[0,-1],[1,-1],[2,-1],[1,0],[0,-1],[1,-1],[0,1],[1,0],[1,-4],[0,-1],[1,0],[1,-2],[-1,-1],[0,-1],[-1,-1],[-1,-3],[1,-1],[1,1],[2,1],[2,0],[0,2],[2,5],[2,0],[1,3],[1,2],[2,-1],[0,2],[1,0],[1,1],[4,2],[2,-1],[0,-2],[1,0],[1,3],[2,1],[1,1],[-2,2],[2,2],[0,1],[2,0],[0,2],[1,1],[1,2],[4,4],[0,2],[1,5],[-1,1],[0,3],[2,0],[1,-1],[3,0],[2,-1],[3,1],[0,3],[1,0],[2,1],[1,2],[0,1],[-1,1],[0,1],[2,1],[3,-2],[2,-3],[2,-1],[3,1],[0,2],[1,1],[1,0],[1,3],[0,2],[1,0],[-1,1],[1,3],[3,3],[3,7],[-1,0],[0,1],[2,6],[0,1],[2,2],[2,5],[0,1],[-1,3],[0,1],[1,2],[1,1],[0,9],[5,10],[2,1],[1,1],[-1,2],[0,2],[2,2],[1,2],[1,3],[2,2],[0,9],[-1,2],[1,2],[0,2],[2,1],[0,-1],[2,-2],[2,6],[3,-2],[1,0],[2,-1],[2,2],[1,0],[1,1],[1,2],[4,1],[0,2],[1,1],[3,0],[0,-1],[3,3],[2,1],[2,0],[0,-2],[2,2],[3,0],[6,2],[1,0],[3,1],[2,1],[0,-2],[1,1],[0,-4],[1,0],[2,-4],[0,-1],[3,0],[2,1],[1,0],[1,1],[2,-1],[0,-2],[1,-4],[1,1],[0,-2],[1,-1],[1,0],[0,-2],[1,-2],[2,1],[1,-2],[1,3],[2,0],[1,1],[3,0],[0,-1],[1,0],[3,-1],[0,-1],[1,1],[4,-3],[1,-2],[0,-4],[1,-2],[2,-1],[2,1],[1,3],[0,1],[1,2],[3,4],[0,-1],[3,0],[1,2],[2,1],[1,2],[1,0],[0,1],[2,0],[0,1],[1,0],[4,-4],[3,-1],[2,-1],[1,2],[1,1],[0,2],[-1,1],[1,0],[0,1],[1,1],[0,1],[-1,1],[1,1],[0,3],[1,-1],[5,1],[1,-1],[2,0],[2,2],[2,-2],[1,0],[1,2],[0,5],[2,2],[1,-2],[2,-2],[1,0],[1,-1],[3,-4],[1,0],[0,-1],[1,0],[2,-2],[0,-3],[1,-7],[2,-3],[1,-2],[2,1],[1,-2],[2,0],[1,2],[1,1],[2,-2],[1,1],[0,-4],[1,0],[0,-11],[1,-2],[1,-1],[0,-3],[1,-3],[1,0],[0,-1],[3,-9],[0,-8],[2,0],[3,-4],[1,-1],[-1,-1],[0,-1],[1,-1],[0,-1],[1,0],[0,-3],[1,-2],[2,-1],[2,0],[2,-3],[4,0],[1,1],[2,-1],[1,-1],[0,-1],[3,0],[0,10],[2,1],[1,0],[0,-2],[1,-1],[0,1],[1,-1],[1,0]],[[850,921],[0,2],[1,-1],[0,-1],[1,1],[0,2],[1,-2],[1,1],[2,-2],[1,0],[0,2],[-1,1],[2,1],[1,0],[0,1],[1,1],[1,0],[3,-1],[1,0],[2,1],[3,3],[0,2],[3,-3],[1,0],[0,-1],[1,-1],[0,-1],[1,1],[0,1],[2,1],[1,-1],[0,-2],[1,-1],[1,1],[1,0],[1,1],[2,0],[2,1],[0,2],[-1,1],[4,2],[0,2],[1,3],[4,2],[2,3],[1,0],[1,-2],[1,0],[2,-3],[4,0],[-1,-5],[-1,-2],[-1,-1],[1,-2],[0,-2],[1,-1],[1,-2],[0,-3],[5,-2],[3,0],[0,-7],[-1,-3],[1,-4],[1,-1],[2,-1],[0,-10],[1,-2],[2,-3],[1,-3],[0,-3],[1,-1],[2,-4],[1,2],[1,3],[3,1],[1,-1],[1,1],[3,-2],[1,-1],[4,4],[1,-2],[1,-1],[0,-2],[2,-1],[0,-4],[2,-5],[1,-1],[1,0],[1,-3],[1,0],[0,-1],[2,-1],[0,-3],[-1,0],[2,-9],[1,0],[0,-1],[2,-4],[-1,-1],[0,-1],[1,-2],[-1,-3],[1,-2],[0,-2],[-1,-2],[2,-2],[3,0],[2,-2],[5,-2],[3,3],[2,3],[2,1],[2,2],[0,1],[3,0],[1,-2],[2,-2],[0,4],[1,0],[1,-1],[1,1],[1,0],[1,-1],[-1,-1],[0,-2],[1,-1],[0,2],[1,2],[2,0],[0,-7],[1,-1],[0,-5],[1,1],[1,0],[1,-2],[1,-5],[0,-2],[1,-2],[1,1],[1,0],[0,-6],[-1,-4],[-2,-2],[0,-3],[-2,-3],[-2,-4],[1,-2],[0,-2],[1,0],[0,1],[2,-3],[1,0],[0,-2],[2,-2],[1,1],[0,-3],[1,-1],[-1,-1],[-3,-7],[0,-3],[-3,-5],[-2,0],[-6,-6],[-2,0],[-2,1],[-1,0],[0,-3],[1,-2],[0,-2],[-1,-3],[1,-1],[1,0],[0,-7],[-3,-3],[-4,1],[-1,-1],[-1,0],[0,-3],[-2,-2],[0,-4],[-2,-5],[-1,-2],[-1,-1],[-3,-2],[-5,-1],[-1,-2],[-9,0],[-1,2],[0,1],[-8,9],[-1,1],[-1,0],[-1,-2],[-3,0],[0,-2],[-1,-2],[-1,-10],[-1,-4],[0,-4],[-2,0],[0,1],[-1,1],[-3,0],[-5,1],[-1,2],[-1,1],[-2,3],[-1,0],[0,-8],[-5,-5],[-3,0],[-1,-4],[1,-1],[0,-1],[-1,-5],[-2,-1],[-2,-2],[-1,-2],[0,-8],[-3,-3],[-1,-5],[0,-4],[-1,-6],[-1,-4],[-2,-2],[-1,0],[-5,2],[0,-3],[-6,-12],[0,1],[-1,1],[-3,-3],[-1,-2],[1,-1],[0,-1],[1,-1],[0,-1],[-1,-2],[-1,2],[-1,1],[-4,-7],[-2,-12],[0,-2],[2,-8],[2,-2],[-1,-2],[0,-1],[1,-3],[0,-7],[-1,-5],[-2,-8],[-2,0],[-2,2],[0,-1],[-2,0],[-2,1],[-1,-2],[-2,-1],[0,-3],[-2,-4],[0,-2],[-1,-3],[-3,-7],[0,-2],[-1,-6],[0,-1],[-2,-3],[1,-2],[0,-5],[-1,0],[-1,-1],[-3,-8],[0,-7],[1,0],[0,-11],[-6,-6],[-2,-10],[0,-4],[-1,0],[-1,-3],[0,-5],[-3,0],[-3,-1],[-3,-3],[-2,-5],[0,-3],[-2,-2],[0,-2],[-3,-6],[-3,-2],[-2,0],[2,-6],[2,-2],[2,-6],[-1,-1],[-1,-3],[0,-1],[-1,-3],[0,-2],[2,-2],[0,-1],[-1,-3],[-2,0],[-2,-4],[0,-1],[-2,-3],[-4,0],[-1,-2],[0,-6],[1,-2],[0,-2],[1,-4],[-1,0],[0,-6],[-2,-3],[-2,-1],[-3,-2],[-2,-1],[-1,-1],[-1,-2],[-2,-1],[0,-6],[1,-4],[-1,-3],[-1,-6],[-3,-3],[-1,-4],[0,-2],[4,-5],[2,-1],[1,-3],[0,-4],[-3,-3],[0,-2],[-1,-3],[-1,-1],[-1,-3],[-3,3],[-2,-2],[-1,0],[-2,2],[-1,-1],[0,-5],[1,-3],[1,-1],[2,0],[0,-2],[-2,-3],[-3,-3],[-1,-3],[0,-1],[-1,-4],[-4,2],[-2,4],[-1,-1],[-1,-2],[-4,0],[-2,-4],[-2,-9],[1,-2],[2,-2],[-3,-6],[1,-1],[-3,-6],[-1,0],[-1,-1],[0,-5],[-2,-9],[2,-9],[3,0],[1,-3],[1,-1],[1,-2],[0,-5],[-1,-2],[0,-2],[-2,-7],[0,-2],[-2,-1],[-4,2],[-4,1],[-1,-1],[0,-2],[-1,-1],[-1,0],[-1,-6],[0,-13],[-1,-1],[-1,-2],[-1,-1],[-1,-7],[1,-4],[-1,-2],[-3,-1],[-1,1],[0,2],[-3,-1],[-1,0],[-1,-8],[-1,-5],[-3,-3],[0,-1],[-2,0],[0,-2],[-1,-2],[-4,2],[0,2],[-2,4],[-1,0],[-4,-2],[-3,1],[-2,0],[0,1],[-1,1],[0,4],[-3,-1],[-1,-2],[0,-3],[-4,3],[-2,3],[0,1],[-1,1],[0,1],[-1,-1],[-2,0],[-2,-1],[-1,-1],[-2,0],[-1,-1],[-1,0],[-1,-1],[-2,0],[-1,1],[-4,-8],[0,-4],[1,-5],[0,-8],[-2,0],[-2,1],[-1,-4],[1,-1],[0,-1],[-1,-1],[0,-1],[-1,-2],[0,-4],[-2,-3],[-2,-2],[0,-2],[-1,-1],[-1,0],[-1,1],[0,1],[-2,-1],[-1,-1],[0,-4],[-1,-2],[-1,-1],[-2,4],[-1,1],[-1,2],[-2,1],[-3,4],[-2,4],[-2,2],[-4,2],[-3,3],[-1,-3],[0,-4],[-3,-7],[-2,-3],[-2,0],[-4,2],[-3,3],[-1,-1],[-2,1],[-1,0],[0,-1],[-1,2],[-1,3],[-6,-6],[-1,1],[0,1],[-2,-2],[-1,-3],[-3,-5],[-1,-1],[-1,-3],[-1,1],[0,3],[-2,-1],[-1,1],[-3,2],[0,3],[-1,2],[-3,4],[-5,-5],[-1,0],[-5,6],[0,4],[-1,1],[-3,-6],[-1,-3],[-1,0],[0,-3],[-1,1],[0,1],[-1,-1],[-3,0],[-1,6],[0,4],[-2,1],[-11,0],[-1,-1],[0,-1],[-1,-1],[0,-1],[-1,0],[-2,-2],[-1,0],[-3,-2],[0,-1],[-1,0],[-2,-1],[-2,-3],[-3,-4],[-4,4],[-1,0],[-4,3],[-3,6],[-3,2],[0,2],[-3,4],[-1,-1],[-1,-2],[-1,1],[-3,2],[-1,-2],[-3,-4],[-2,0],[-2,1],[-1,0],[-4,1],[-1,-1],[0,-1],[-1,-2],[-4,-6],[-1,1],[-1,0],[-2,-3],[1,-4],[1,-1],[2,-3],[-3,-3],[-3,-2],[-1,-1],[-2,-3],[0,-5],[-1,-1],[-3,-4],[-4,-7],[-5,-3],[-1,2],[-1,3],[-2,-2],[-10,-11],[3,-8],[-1,-1],[-1,1],[-1,2],[-7,-1],[-1,2],[-4,-1],[0,-2],[-8,2],[0,4],[-2,10],[-3,0],[-1,1],[-3,-6],[-2,-5],[0,-1],[-1,-2],[1,-8],[1,-5],[-3,0],[0,1],[-4,0],[0,-1],[-3,0],[-1,-1],[-1,-5],[0,-3],[1,-5],[-2,0],[0,1],[-1,2],[-4,-2],[-6,2],[-2,1],[-2,-5],[-2,-2],[-2,1],[0,-2],[-5,-2],[-1,3]],[[850,921],[-1,-2]],[[849,919],[1,0],[0,2]]]}