{"type":"Topology","objects":{"data":{"geometries":[{"properties":{"index":1490,"nuts_2_code":"ITI3","nuts_2_name":"Marche"},"type":"Polygon","arcs":[[-5,-7,290,-291,-290,-289,-288,-287,286,-300,-254,-205,0,-203,-202,201,-201,1],[300]],"id":0},{"properties":{"index":1492,"nuts_2_code":"ITC4","nuts_2_name":"Lombardia"},"type":"MultiPolygon","arcs":[[[-248,-277,-82,-81,80,-80,-79,78,-78,-77,76,-76,-196,-195,194,-207,-167,165,-165,-164,163,-163,-162,161,-161,-160,159,-159,-158,157,-157,-156,-155,-154,-153,-152,-151,149,-149,-148,147,-147,-146,145,-145,-144,143,-143,-142,141,-141,-140,139,-139,2],[208],[209]],[[3]],[[169]],[[170]]],"id":1},{"properties":{"index":1493,"nuts_2_code":"ITF1","nuts_2_name":"Abruzzo"},"type":"Polygon","arcs":[[-18,-10,-9,8,-8,4,5]],"id":2},{"properties":{"index":1496,"nuts_2_code":"ITI4","nuts_2_name":"Lazio"},"type":"MultiPolygon","arcs":[[[-298,-297,296,-296,-295,294,-294,-293,292,-292,-291,6,7,-9,8,9,-17,-23,10,-257,-256,255,-255],[11]],[[12]],[[13]],[[14]],[[15]]],"id":3},{"properties":{"index":1498,"nuts_2_code":"ITF2","nuts_2_name":"Molise"},"type":"Polygon","arcs":[[-21,-20,19,-28,-27,26,-26,-25,24,-24,16,17,18,-41,-40,39,-39]],"id":4},{"properties":{"index":1501,"nuts_2_code":"ITF3","nuts_2_name":"Campania"},"type":"MultiPolygon","arcs":[[[-20,19,20,-38,-37,36,-36,-71,-70,-69,-68,67,-67,-66,65,-65,-64,63,-63,-62,61,-61,21,22,23,-25,24,25,-27,26,27]],[[28]],[[29]],[[30]],[[31]],[[32]],[[33]]],"id":5},{"properties":{"index":1504,"nuts_2_code":"ITF4","nuts_2_name":"Puglia"},"type":"MultiPolygon","arcs":[[[-44,34,-58,-57,56,-56,-55,54,-54,-53,52,-72,35,-37,36,37,38,-40,39,40,41]],[[42]],[[43,44]],[[45]],[[46]],[[47]],[[48]],[[49]],[[50]],[[51]]],"id":6},{"properties":{"index":1507,"nuts_2_code":"ITF5","nuts_2_name":"Basilicata"},"type":"Polygon","arcs":[[-53,52,53,-55,54,55,-57,56,57,58,-117,-116,115,-115,59,60,-62,61,62,-64,63,64,-66,65,66,-68,67,68,69,70,71]],"id":7},{"properties":{"index":1510,"nuts_2_code":"ITH3","nuts_2_name":"Veneto"},"type":"MultiPolygon","arcs":[[[72,-127,-126,125,-125,-124,123,-123,121,-121,120,-120,118,-118,73,-83,74,-199,-198,197,-197,75,-77,76,77,-79,78,79,-81,80,81,-276,-275,274,-274,-273,272,-272,-247,-246,245,-245]],[[82,83]],[[84]],[[85]],[[86]],[[87]],[[88]],[[89]],[[90]],[[91]],[[92]],[[93]],[[94]],[[95]],[[96]],[[97]],[[98]],[[99]],[[100]],[[101]],[[102]],[[103]],[[104]],[[105]],[[106]],[[107]],[[108]],[[109]],[[110]],[[111]],[[112]]],"id":8},{"properties":{"index":1512,"nuts_2_code":"ITF6","nuts_2_name":"Calabria"},"type":"Polygon","arcs":[[113,114,-116,115,116]],"id":9},{"properties":{"index":1515,"nuts_2_code":"ITH4","nuts_2_name":"Friuli-Venezia Giulia"},"type":"MultiPolygon","arcs":[[[117,118,119,-121,120,121,122,-124,123,124,-126,125,126,127]],[[128]],[[129]],[[130]],[[131]],[[132]],[[133]],[[-137,134]],[[135,136]],[[137]]],"id":10},{"properties":{"index":1516,"nuts_2_code":"ITC1","nuts_2_name":"Piemonte"},"type":"Polygon","arcs":[[138,-140,139,140,-142,141,142,-144,143,144,-146,145,146,-148,147,148,149,150,151,152,153,154,155,156,-158,157,158,-160,159,160,-162,161,162,-164,163,164,165,166,-206,-241,-240,239,-239,-244,-238,167,-193,168],[169],[170],[-244,243]],"id":11},{"properties":{"index":1517,"nuts_2_code":"ITG1","nuts_2_name":"Sicilia"},"type":"MultiPolygon","arcs":[[[171]],[[172]],[[173]],[[174]],[[175]],[[176]],[[177]],[[178]],[[179]],[[180]],[[181]],[[182]],[[183]],[[184]],[[185]],[[186]],[[187]],[[188]],[[189]],[[190]],[[191]]],"id":12},{"properties":{"index":1520,"nuts_2_code":"ITC2","nuts_2_name":"Valle d\u2019Aosta/Vall\u00e9e d\u2019Aoste"},"type":"Polygon","arcs":[[192,193]],"id":13},{"properties":{"index":1522,"nuts_2_code":"ITH5","nuts_2_name":"Emilia-Romagna"},"type":"MultiPolygon","arcs":[[[-195,194,195,196,-198,197,198,199,200,-202,201,202,203,204,-253,-252,251,-251,249,-262,-236,205,206],[262]],[[207]],[[208]],[[209]]],"id":14},{"properties":{"index":1523,"nuts_2_code":"ITG2","nuts_2_name":"Sardegna"},"type":"MultiPolygon","arcs":[[[-219,210]],[[211]],[[212]],[[213]],[[214]],[[215]],[[216]],[[217]],[[218,-219]],[[219]],[[220]],[[221]],[[222]],[[223]],[[224]],[[225]],[[226]],[[227]],[[228]],[[229]],[[230]],[[231]],[[232]],[[233]],[[234]]],"id":15},{"properties":{"index":1526,"nuts_2_code":"ITC3","nuts_2_name":"Liguria"},"type":"MultiPolygon","arcs":[[[235,-261,259,-259,236,237,243,238,-240,239,240]],[[241]],[[242]],[[243,-244]]],"id":16},{"properties":{"index":1527,"nuts_2_code":"ITH1","nuts_2_name":"Provincia Autonoma di Bolzano/Bozen"},"type":"Polygon","arcs":[[244,-246,245,246,-286,-285,284,-284,-283,-282,280,-280,-279,-278,247,248]],"id":17},{"properties":{"index":1529,"nuts_2_code":"ITI1","nuts_2_name":"Toscana"},"type":"MultiPolygon","arcs":[[[249,250,-252,251,252,253,-299,254,-256,255,256,257,258,259,260,261]],[[262]],[[263]],[[264]],[[265]],[[266]],[[267]],[[268]],[[269]],[[270]]],"id":18},{"properties":{"index":1530,"nuts_2_code":"ITH2","nuts_2_name":"Provincia Autonoma di Trento"},"type":"Polygon","arcs":[[271,-273,272,273,-275,274,275,276,277,278,279,-281,281,282,283,-285,284,285]],"id":19},{"properties":{"index":1532,"nuts_2_code":"ITI2","nuts_2_name":"Umbria"},"type":"MultiPolygon","arcs":[[[-287,286,287,288,289,290,291,-293,292,293,-295,294,295,-297,296,297,298,299]],[[300]]],"id":20}],"type":"GeometryCollection"}},"bbox":[6.627491707650364,35.49394673619746,18.519515918532733,47.09169707978525],"transform":{"scale":[0.01190392813902139,0.011609359703291081],"translate":[6.627491707650364,35.49394673619746]},"arcs":[[[490,724],[2,0]],[[514,730],[5,0],[0,-1],[7,-3],[2,0],[0,-1],[4,-3],[4,-2],[1,0],[1,-1],[12,-8],[4,-2],[0,-1],[2,-1],[5,-3],[4,-1],[1,-1],[2,0],[2,-2],[1,0],[2,-1],[4,0],[0,1],[1,0],[0,1],[2,-1],[3,-3],[0,-1],[1,-1],[2,0],[2,-1],[0,-4],[1,-3],[2,-3],[1,-3],[2,-3],[0,-1],[2,-3],[1,0],[0,-1],[1,-1],[3,-5],[2,-6],[3,-6],[0,-2],[1,-1],[0,-1],[2,-8],[1,-1],[2,-5]],[[175,913],[1,1],[0,1],[2,0],[1,-1],[2,-1],[2,0],[0,1],[3,-3],[1,0],[0,-1],[-1,-1],[-1,0],[0,-1],[-1,-1],[-1,0],[-1,-1],[0,-1],[-1,-1],[5,0],[0,-1],[2,-1],[1,-1],[2,0],[0,-1],[-1,-1],[1,0],[0,-1],[1,0],[0,-1],[1,0],[0,-1],[1,-1],[0,-1],[1,0],[-3,-3],[0,0],[7,0],[0,-1],[1,-1],[1,0],[0,1],[1,0],[0,1],[1,0],[0,1],[1,0],[0,1],[-1,0],[1,1],[1,0],[1,1],[0,1],[1,0],[0,1],[-1,-1],[0,1],[-1,0],[0,1],[-2,0],[0,1],[-2,0],[0,1],[-1,0],[1,1],[-1,1],[-1,0],[0,1],[1,0],[0,1],[2,0],[0,1],[-1,0],[0,2],[-1,1],[1,1],[3,1],[1,0],[1,1],[0,1],[1,0],[-1,1],[-1,2],[1,0],[3,2],[1,0],[3,3],[3,0],[0,3],[2,0],[0,2],[2,0],[0,3],[1,0],[0,1],[2,2],[0,1],[1,0],[1,1],[-1,0],[0,2],[-2,2],[1,1],[0,2],[-1,1],[-2,1],[0,2],[2,0],[0,3],[1,1],[6,0],[0,1],[1,0],[1,-1],[-1,0],[0,-1],[2,0],[0,-1],[2,-1],[1,1],[0,1],[1,1],[2,1],[0,-2],[-1,0],[0,-1],[1,0],[0,-7],[1,-1],[-1,0],[0,-1],[2,0],[2,-2],[0,-1],[3,-3],[3,0],[0,-1],[5,0],[2,1],[2,0],[0,-1],[2,0],[1,1],[0,4],[3,0],[1,-1],[1,0],[3,1],[1,1],[3,0],[4,2],[0,-1],[2,0],[1,1],[1,0],[0,-2],[2,-1],[1,0],[0,-1],[-1,0],[0,-1],[1,-1],[0,-3],[3,0],[2,-1],[0,-3],[0,0],[0,-1],[2,0],[2,1],[1,-1],[2,0],[1,1],[0,1],[2,1],[-1,2],[-2,2],[-1,0],[-1,1],[-1,2],[0,1],[1,1],[1,0],[0,2],[3,0],[0,3],[-1,0],[-1,1],[-3,0],[0,-1],[-2,0],[0,1],[-2,0],[0,1],[-1,0],[0,1],[1,1],[0,1],[-1,0],[0,3],[1,0],[0,2],[-1,0],[0,1],[1,0],[3,3],[1,0],[0,3],[1,-1],[1,0],[2,1],[3,1],[1,-1],[1,0],[2,2],[1,-1],[0,-1],[1,0],[-1,-1],[0,-3],[1,0],[1,1],[2,-2],[0,-1],[5,0],[0,1],[1,0],[1,-1],[5,0],[0,-1],[1,0]],[[197,902],[-1,0],[0,1],[1,1],[0,-2]],[[565,620],[4,0],[2,1],[1,0],[0,2],[1,0],[1,1],[1,0],[1,-1],[2,2],[0,2],[1,2],[1,0],[0,2],[1,0],[0,-1],[2,0],[1,-1],[0,1],[3,0],[1,1],[0,-1],[3,0],[2,1],[1,0],[0,1],[1,1],[0,1],[5,0],[2,1],[1,0],[1,1],[1,0],[2,1],[5,0]],[[612,637],[1,0],[0,-2],[1,-2],[0,-2],[2,-3],[0,-1],[1,-1],[3,-6],[0,-1],[3,-2],[0,-1],[1,-2],[3,-4],[2,-2],[3,-2],[5,-5],[2,0],[2,-2],[5,-4],[3,-1],[2,-1],[1,-1],[1,0],[1,-1],[0,-1],[1,-1],[0,-1],[1,-1],[3,-1],[0,-1],[2,-1],[0,-1],[1,0],[0,-1],[2,-1],[1,0],[2,-1],[3,-2],[8,-2],[2,-2],[0,-4],[1,-1],[1,-2],[3,-1]],[[552,624],[1,-1],[4,0],[1,1],[1,0],[1,-1],[2,0],[3,-3]],[[565,620],[0,-2],[1,-2],[4,0],[-2,-2],[1,-1],[-1,-1],[0,-1],[-1,-1],[-8,0],[0,1],[-2,0],[-1,-1],[-1,0],[-1,1],[-3,0],[0,-1],[-1,-1],[0,-2],[-2,0],[1,-2],[1,0],[0,-3],[-2,-2],[-1,0],[-2,-1],[3,-3],[2,0],[0,-1],[1,0],[1,-1],[-1,-1],[-1,0],[0,-1],[-1,0],[-1,-1],[2,-1],[1,-1],[1,0],[2,-1],[0,-1],[1,-2],[0,-1],[1,0],[0,-1],[1,0],[1,-1],[0,-1],[1,0],[1,-1],[4,0],[0,-1],[-1,-1],[1,0],[1,-1],[2,0],[0,-1],[-3,0],[1,-1],[-2,0],[0,-1],[-1,-1],[-1,0],[0,-1],[-4,0],[-1,-1],[-2,2],[-1,0],[-1,1],[-2,0],[0,-1],[-1,1],[-2,1],[-1,1],[-3,0],[0,-2],[-1,-1],[0,-1],[-1,0],[-1,-1],[-1,0]],[[539,570],[0,1]],[[539,571],[-1,0],[0,-2],[-1,0],[0,-3],[1,0],[0,-2],[1,0],[0,-2],[1,0],[1,-1],[3,0],[0,1],[-1,0],[1,1],[3,-1],[2,-1],[3,-2],[3,0],[0,-1],[3,0],[1,-1],[0,-1],[2,0],[2,-1],[1,-1],[2,0],[2,-2],[-1,0],[0,-2],[-1,-1],[0,-3],[1,0],[0,-1],[1,0],[1,1],[3,0],[2,-2],[2,-1],[2,0],[0,-1],[1,0],[0,-1],[2,-1],[2,0],[0,-1],[2,1],[1,1],[1,0],[1,1],[1,0],[0,1],[1,1],[3,0],[0,-1],[1,-1],[1,0],[0,1],[2,0],[0,-1],[1,-1],[0,-1],[1,-1],[3,-1],[0,1],[2,0],[0,-1],[3,0],[0,-1],[3,0],[0,1],[1,-1],[0,-1],[2,0],[0,-2],[1,0]],[[599,493],[-2,2],[-1,0],[-1,1],[-2,0],[0,-1],[-1,1],[-2,0],[-2,1],[-1,0],[-3,-2],[-1,0],[0,-2],[1,0],[0,-1],[-3,0],[-1,1],[-1,0],[0,1],[-1,0],[-2,1],[-2,0],[-1,1],[-4,2],[-1,0],[-4,1],[-5,1],[-1,0],[-1,-1],[-3,0],[-3,-1],[-2,0],[-2,-1],[-3,-2],[0,-1],[-1,0],[-2,-1],[-2,1],[-1,1],[0,2],[-2,2],[-2,4],[-6,4],[-6,3],[-7,0],[-8,4],[-2,-1],[-2,0],[0,1],[-2,2],[-1,2],[-11,11],[-3,2],[-4,3],[-3,1],[-6,3],[-3,0],[0,1],[0,0],[0,3],[-3,6],[-2,3],[0,1],[-1,0],[-2,2],[-1,0],[-2,1],[-1,1],[-1,0],[-1,1],[-1,0],[-1,2],[-2,0],[0,1],[-3,0],[-1,2],[-4,2],[-3,0],[0,-1],[-3,0],[-3,3],[0,2],[-1,0],[-2,2],[0,1],[-1,0],[-1,1],[0,1],[-1,1],[0,2],[-1,0],[-2,4],[0,1],[-1,0],[-5,5],[-2,1],[-5,3],[-8,3]],[[489,552],[0,0]],[[571,456],[-1,0],[1,1],[1,0],[-1,-1]],[[541,472],[-1,-1],[-1,1],[2,0]],[[532,465],[0,-1],[-1,0],[0,1],[-1,1],[3,3],[1,0],[-1,-2],[-1,-1],[0,-1]],[[524,468],[-1,0],[0,2],[1,0],[0,-2]],[[617,514],[2,2],[-1,0],[-1,1],[2,1],[1,1],[1,0],[0,1],[-1,1],[1,0],[0,2],[-2,0],[1,1],[-1,0],[1,1],[0,2],[-1,1],[0,1],[-1,1],[0,1],[-1,1],[-2,1],[-1,1]],[[614,534],[5,0],[1,-1],[1,0],[0,1],[1,1],[2,0],[0,1],[1,2],[2,0],[1,-1],[0,-2],[2,2],[-1,0],[0,1],[2,0],[2,1],[0,1],[1,0],[0,-1],[2,0],[0,2],[-2,0],[0,1],[-1,2],[-1,0],[0,3],[4,0],[2,1],[0,2],[2,0],[3,3],[1,-1],[1,0],[0,-1],[2,0],[1,-1],[0,-1],[1,-1],[1,1],[0,1],[1,0],[0,-1],[2,0],[2,-1],[0,-1],[2,0],[0,-2],[1,-2],[0,-3],[2,0],[1,1],[1,0],[2,1],[0,1],[1,0],[1,2],[1,0],[1,1],[0,1],[1,0],[1,1],[0,1],[1,1],[0,1],[1,0],[1,1],[2,1],[0,2],[1,1],[1,2],[1,0],[1,1],[0,1],[1,0],[1,1],[1,0],[1,1],[1,0],[1,1],[-1,1],[-1,0],[1,2],[1,0]],[[685,566],[1,0],[3,-2],[6,-2],[5,-1],[3,0],[1,-1],[2,-1],[3,-3],[2,-1],[2,0],[2,-1]],[[660,510],[-1,0]],[[659,510],[1,-1],[0,-1],[1,0],[1,-1],[4,0],[1,1],[1,0],[1,-1],[0,-1],[2,0],[2,2],[2,0],[0,1],[2,1],[1,0],[1,-1],[3,1],[2,0],[0,3],[3,0],[1,-1],[1,0],[1,-1],[2,0],[2,2],[3,0],[2,1],[1,0],[2,1],[0,1],[2,0]],[[758,392],[-2,1],[0,1],[-2,0],[-2,1],[-4,-1],[-1,0],[-2,-1],[0,-1],[-2,0],[0,-1],[-1,0],[-3,-3],[0,-1],[-1,1],[-5,0],[0,1],[-1,0],[-2,2],[-2,0],[0,-1],[-2,0],[0,1],[1,0],[0,3],[-2,1],[-3,3],[-1,0],[0,1],[-2,0],[-4,4],[-6,0],[0,-1],[-2,1],[-1,0],[-1,2],[-2,2],[-2,0],[-2,1],[-2,0],[-2,2],[1,1],[2,0],[1,1],[0,3],[-1,1],[1,1],[2,0],[0,1],[1,0],[1,1],[0,3],[-1,2],[-3,5],[0,1],[-2,2],[-2,3],[-1,3],[-7,7],[-2,1],[-5,0],[-1,-1],[0,-1],[-1,0],[0,-1],[-3,0],[-2,1],[-1,0],[-1,-1],[-1,0],[-2,-2],[-5,0],[-1,1],[-3,0],[-2,-1],[-2,0],[-2,-2],[-1,0],[-3,-1],[-1,-1],[0,1],[-1,-1],[-1,1],[1,1],[-1,0],[1,1],[0,1],[1,0],[0,1],[1,0],[0,0],[1,0],[2,1],[1,0],[0,1],[1,0],[-1,1],[1,0],[2,1],[0,1],[3,1],[1,0],[0,1],[-1,2],[-2,2],[-3,0],[-1,1],[-4,2],[-3,3],[-2,1],[-1,0],[-1,1],[-1,-1],[-3,0],[-1,-2],[0,-1],[-2,-1],[-1,1],[0,1],[-1,1],[-4,0],[-1,1],[-1,0],[-1,-1],[0,-3],[-3,0],[0,8],[-2,4],[-5,5],[0,1],[-3,2],[0,1],[-3,6],[-1,0],[0,1],[-2,2],[-1,2],[-2,2],[-1,0],[-1,2],[-3,1]],[[599,493],[1,2],[4,0],[1,1],[0,2],[1,0],[1,1],[1,0],[0,1],[1,-1],[1,0],[0,3],[-1,1],[0,3],[-1,0],[1,1],[1,0],[-1,1],[1,1],[-1,0],[-1,1],[1,1],[3,0],[0,1],[2,0],[1,2],[2,0]],[[617,514],[1,0],[2,-1],[0,-1],[-1,-1],[2,0],[0,-1],[1,0],[0,-1],[1,-1],[1,1],[1,-1],[1,1],[1,-1],[2,0],[-1,1],[0,2],[-1,0],[-1,2],[0,1]],[[627,514],[-1,0]],[[626,514],[2,2],[1,0],[0,2],[1,0],[2,-2],[1,0],[0,1],[7,0],[0,-1],[3,0],[1,-1]],[[643,515],[1,0]],[[644,515],[1,-1],[1,0],[1,-1],[3,0],[1,-1],[4,0],[0,-1],[3,0],[1,-1]],[[639,436],[3,0],[-1,-1],[-4,0],[-1,-1],[0,2],[3,0]],[[633,457],[0,0]],[[622,454],[-1,-2],[-1,0],[-1,1],[1,1],[2,0]],[[619,453],[0,-1],[0,0],[0,1]],[[617,451],[0,0]],[[609,453],[0,1],[1,-1],[3,0],[1,-1],[1,0],[1,-2],[0,-1],[-2,0],[-1,-1],[-2,1],[0,-1],[-2,0],[-1,1],[-1,0],[1,1],[-1,1],[0,1],[1,0],[0,1],[1,1],[0,-1]],[[956,444],[1,-1],[0,-1],[1,-2],[1,0],[0,-2],[-1,-1],[2,-2],[1,0],[1,-1],[0,-1],[2,0],[3,-3],[3,0],[2,-2],[1,0],[1,-1],[1,0],[4,-4],[1,0],[1,-1],[0,-1],[1,-1],[2,-1],[1,0],[0,-1],[3,-3],[2,-1],[1,-1],[1,0],[0,-2],[1,-1],[1,-2],[0,-3],[1,0],[0,-1],[1,-1],[0,-1],[1,-1],[1,0],[1,-1],[-1,0],[0,-1],[1,-1],[0,-1],[-2,-1],[-1,-1],[0,-1],[-1,-2],[-1,-1],[-1,0],[-1,-1],[0,-2],[-2,0],[0,-2],[-1,-1],[-1,-4],[0,-1],[1,0],[0,-3],[-1,0],[0,-5],[-2,-2],[0,1],[-1,-1],[-1,0],[-2,2],[-1,0],[-1,1],[-1,0],[-1,1],[-6,0],[-1,1],[-1,0],[-1,1],[-1,0],[-2,2],[-1,0],[-2,2],[-2,1],[-1,1],[-1,0],[0,1],[-3,3],[-1,2],[1,0],[1,1],[0,2],[-2,2],[0,0],[1,1],[0,4],[-2,2],[-1,0],[0,1],[-1,0],[0,1],[-1,1],[-1,0],[-1,1],[0,1],[-1,0],[1,1],[0,2],[-1,0],[0,1],[0,0],[-1,1],[-1,0],[0,1],[-1,0],[0,1],[-1,0],[-1,1],[-1,0],[0,-1],[-2,1],[-4,0],[-1,1],[-21,0],[-1,1],[-3,0],[-2,2],[-4,0],[-1,1],[-2,1],[-2,0],[-1,1],[-1,0],[-1,1],[-1,0],[-4,2],[-2,0],[-1,1],[1,0],[1,1],[1,0],[1,1],[0,2],[-2,1],[-3,0],[0,1],[-1,1],[-1,0],[0,1],[-1,-1],[0,1],[-2,1],[-5,0],[-4,-1],[-6,-3],[-3,-3],[-1,0],[0,-1],[-1,0],[0,-1],[-1,0],[0,-1],[-1,0],[0,-1]],[[749,479],[-2,1],[-3,0],[-1,1],[-3,0],[-1,2],[-1,-1],[-1,1],[-1,0],[0,-1],[-3,0],[-1,1],[-3,0],[-1,-1],[-1,1],[-2,0],[0,1]],[[726,484],[-1,0]],[[725,484],[0,1],[-1,0],[-2,2],[-1,0],[0,2],[1,1],[2,1],[1,0],[0,1],[-1,1],[0,2],[3,0],[-3,3],[-1,0],[0,-1],[-1,0],[0,1],[-2,0],[0,1],[-4,0],[0,-1],[-1,1],[0,1],[-1,0],[0,2],[-1,0],[-1,1],[-3,0],[0,2],[-1,0],[0,1],[2,2],[2,0],[-1,1],[0,1],[1,1],[0,1],[-3,0],[-2,1],[0,1],[-1,-1],[0,1],[-1,1],[0,1],[-1,0]],[[704,516],[-3,3],[-3,0],[0,3],[1,1],[0,4],[-1,0],[0,1],[2,2],[1,-1],[1,0],[1,-1],[3,0],[-1,1],[2,0],[0,2],[2,0],[0,1],[2,0]],[[711,533],[0,-1]],[[711,532],[1,0],[0,1],[2,1],[1,1],[1,0],[-1,1],[-2,1],[-1,1],[0,1],[1,0],[-1,1],[0,2],[1,0],[0,3],[-1,0],[0,2],[1,1],[1,0],[0,1],[1,1],[0,1],[-1,1],[1,2]],[[715,554],[3,0],[4,-1],[4,1],[2,0],[3,-1],[1,0],[1,-1],[9,0],[5,1],[6,1],[6,0],[1,-1],[5,0],[7,1],[10,1],[4,1],[6,0],[3,-1],[1,-1],[2,-1],[2,0],[0,-1],[1,-1],[1,0],[0,-3],[1,-1],[0,-1],[1,-1],[0,-3],[-1,0],[0,-1],[-1,-1],[-1,0],[0,-1],[-1,0],[-1,-1],[-2,0],[0,-1],[-1,0],[-1,-1],[-1,0],[-1,-1],[0,-1],[-1,0],[-1,-1],[-2,-1],[-1,0],[-1,-1],[-5,-2],[-3,-1],[0,-7],[2,-4],[3,-3],[3,-2],[2,-1],[10,-4],[3,-1],[4,-2],[1,0],[3,-2],[2,0],[5,-1],[1,-1],[1,0],[2,-1],[1,0],[1,-1],[1,0],[1,-1],[2,-1],[3,0],[0,-1],[2,0],[0,-1],[2,0],[2,-2],[2,0],[1,-1],[5,0],[2,-2],[3,0],[3,-1],[1,0],[2,-2],[4,0],[0,-1],[1,1],[1,0],[0,-1],[5,-1],[1,-1],[1,0],[1,-1],[5,-1],[2,0],[3,-1],[1,-1],[4,-2],[2,0],[3,-3],[2,0],[0,-1],[2,0],[0,-1],[2,0],[0,-1],[2,-1],[2,-2],[2,-1],[0,-1],[3,-1],[2,-2],[3,-1],[2,-1],[0,-1],[4,-2],[4,-1],[5,-2],[8,-2],[2,-2],[2,-1],[2,0],[1,-1],[3,-1],[4,-1],[4,0],[2,-2],[-1,-1],[4,0]],[[957,443],[0,0]],[[956,444],[-1,0]],[[955,444],[0,1],[1,0],[0,-1]],[[954,393],[0,0]],[[953,445],[0,0]],[[885,427],[-1,-1],[-1,1],[2,0]],[[747,572],[0,-1],[0,0],[0,1]],[[747,572],[0,0]],[[746,571],[0,0]],[[745,570],[-1,-1],[-1,1],[1,1],[1,0],[0,-1]],[[833,451],[-1,0]],[[832,451],[1,1],[-1,0],[0,1],[2,0],[1,-1],[1,0],[-1,1],[1,1],[1,0],[0,-1],[4,0]],[[842,453],[-1,0]],[[841,453],[0,-1],[2,0],[0,1],[1,-1],[4,-2],[-1,-1],[-1,0],[2,-2],[0,-1],[-1,-3],[0,-2],[1,-1]],[[849,440],[-1,0]],[[848,440],[-1,-1],[1,-1],[-1,-1],[0,-2],[1,-1],[0,-2],[1,0],[0,-1],[-1,-2],[1,-1],[1,0],[1,1],[0,-1],[4,0],[0,-2],[1,-1],[1,0],[0,-1],[1,0],[2,-2]],[[860,422],[-4,-4],[-3,-4],[-1,-1],[-2,-4],[-1,-3],[-1,-2],[-5,-5],[-2,-1]],[[767,382],[-1,0],[0,1],[-1,0],[0,1],[-1,2],[-2,2],[-1,0],[0,1],[-1,0],[0,2],[-1,1],[-1,0]],[[758,392],[2,1],[0,1],[-1,0],[-1,1],[2,0],[2,2],[0,1],[1,0],[-1,1],[1,1],[-1,1],[0,1],[1,0],[0,2],[2,0],[0,2],[1,-1],[2,1],[0,1],[2,0],[0,2],[1,1],[0,2],[-1,1],[-2,0],[0,1],[-2,0],[-1,1],[0,1],[-1,0],[-1,2],[-1,1],[1,1],[0,1],[-1,0],[-1,1],[-2,0],[-1,1],[0,1],[-4,2],[-1,0],[0,1],[-2,2],[-1,0],[-2,2],[1,1]],[[750,432],[-1,0]],[[749,432],[-1,1],[1,1],[-1,0],[0,3]],[[749,437],[-1,0]],[[748,437],[-1,0],[0,1],[-1,1],[-3,0],[-2,2],[1,1],[0,1],[1,0],[2,2]],[[746,445],[-1,0]],[[745,445],[-1,1],[-1,0],[-1,1],[-1,0],[-2,1],[-2,2],[-1,0],[-1,1],[0,2],[1,1],[0,1],[-1,0],[1,1],[0,1],[-1,0]],[[734,457],[1,0]],[[735,457],[0,1],[-1,0],[-2,2]],[[732,460],[-1,0]],[[731,460],[4,0],[0,3],[-2,0],[0,1],[8,0],[0,-1],[2,0],[0,2],[2,0],[1,1],[2,0],[0,1],[1,1],[0,2],[1,0],[1,1],[0,5],[-1,0],[1,1],[-1,0],[0,1],[-1,1]],[[749,479],[0,2],[1,0],[0,1],[2,0],[1,1],[2,0],[2,-1],[7,0],[1,1],[1,0],[1,-1],[3,0],[1,1],[-1,1],[3,0],[0,1],[1,0],[1,1],[3,0],[0,-1],[1,0],[1,-1],[4,0],[0,-2],[2,0],[0,-1],[1,-2],[2,0],[2,-2],[-1,0],[0,-3],[-2,-2],[-3,0],[0,-1],[4,-1],[0,-1],[3,0],[0,-1],[2,0],[1,-1],[1,0],[2,-2],[1,1],[0,1],[1,1],[1,0],[3,-1],[1,-1],[2,-4],[0,-1],[1,0],[0,-1],[3,-3],[2,-1],[1,0],[0,-1],[3,-2],[1,-1],[2,-1],[0,-1],[1,-1],[2,0],[5,3],[1,1],[0,1],[3,-3]],[[491,964],[1,-1],[1,0],[0,1],[2,-1],[1,0],[1,-1],[1,0],[1,-1],[2,0],[1,1],[2,0],[1,-1],[1,0],[1,1],[2,0],[1,-1],[1,0],[1,-1],[1,0]],[[544,874],[-1,0],[-1,-1],[-8,0],[-5,-1],[-1,0],[-2,-2],[-7,-3],[-2,0],[-2,-1],[-3,-2],[-1,0],[-2,-1],[-6,-2],[-2,-1],[-2,0],[-8,-3],[-2,0],[0,-1],[-1,-1],[-1,1],[0,1],[3,3],[1,0],[0,1],[1,0],[0,1],[4,0]],[[497,862],[1,-1],[2,0],[-1,1],[2,0],[1,1],[2,0],[0,2],[-3,0],[0,-1],[-1,0],[1,1],[0,1],[-1,0],[-1,1],[-2,0],[0,1],[-6,-1],[-1,-1],[-1,0],[0,-1],[-1,0],[0,-1],[-1,0],[0,1],[-1,1],[0,-1],[-1,0],[-1,-1],[-1,0],[-3,-3],[-1,0],[0,1],[-2,-2],[-2,0],[0,-1],[-1,-1],[-1,0],[0,-3],[-2,0],[-3,-1],[-3,-2],[1,0],[1,-1],[-1,-1],[-2,2],[-1,0],[1,-1],[0,-1],[-1,-1],[0,-3],[-1,-1],[0,-4],[2,1],[1,-1],[4,0],[0,-1],[-1,-1],[1,-1],[1,-2],[-1,0],[3,-1],[2,0],[0,1],[-1,1],[1,0],[0,1],[1,0],[0,-1],[-1,0],[1,-1],[1,2],[0,-1],[1,-1],[0,-1],[2,-2],[0,-6],[2,-2],[0,-1],[-1,0],[0,1],[-1,1],[0,2],[-1,0],[0,2],[-2,1],[0,-2],[-2,0],[0,-1],[-1,-1],[2,-1],[1,0],[1,-1],[-1,0],[-1,-1],[2,-1],[2,0],[0,-1],[-2,-2],[0,-2],[1,-2],[3,3],[1,0],[1,-1],[0,1],[2,0],[1,1],[0,1],[1,0],[4,-4],[2,-1],[0,-1],[-1,-2],[0,-3],[-1,-1],[-1,0],[0,-4],[0,0],[-2,1],[0,4],[-2,0],[-2,-2],[0,-1],[1,-1],[0,-2],[1,-1],[0,-2],[-1,0]],[[403,815],[-1,1],[-2,0],[0,1],[-2,0],[-1,1],[-2,0],[-1,1],[0,1],[-4,0],[0,4],[-1,-1],[-2,0],[-2,1],[-3,0],[0,2]],[[383,826],[-1,0]],[[382,826],[0,1],[3,1],[-2,0],[-2,1],[-1,0],[0,1],[-1,-1],[0,-1],[-4,0],[1,-1],[-3,0],[0,1],[-1,0],[-2,1],[0,1],[1,0],[0,2],[-4,0],[0,4],[-2,1],[-3,0],[0,2],[-3,0],[0,1],[-2,0],[0,1],[-2,0],[-3,3],[-3,2],[-2,-1],[-1,-1],[-2,0],[1,1],[0,1],[-2,0],[0,2],[-2,0],[0,1],[1,1],[1,0],[0,1],[-1,0],[0,1],[1,0],[1,1],[-1,2],[-4,1],[-1,-1]],[[337,855],[1,0]],[[338,855],[0,2]],[[336,857],[2,0]],[[338,857],[-1,1],[0,7],[-1,3],[0,3],[5,4],[0,1],[1,1],[1,0],[1,2],[3,4],[4,4],[0,1],[2,1],[1,2]],[[497,862],[-1,0]],[[496,862],[0,1],[1,0],[0,-1]],[[497,864],[0,0]],[[496,867],[0,0]],[[491,862],[0,0]],[[490,863],[0,-1],[-1,1],[1,0]],[[489,863],[0,-1],[-1,0],[0,1],[1,0]],[[488,804],[-1,0],[1,1],[0,-1]],[[485,857],[-1,0],[0,1],[1,0],[2,2],[0,-2],[-2,-1]],[[486,861],[0,0],[0,1],[1,0],[-1,-1]],[[485,820],[-1,0],[1,1],[0,-1]],[[479,850],[0,-2],[-2,0],[0,1],[2,0],[0,1],[1,1],[2,4],[1,0],[1,1],[0,0],[-2,-3],[-3,-3]],[[484,820],[0,0]],[[484,823],[0,0]],[[483,856],[-1,0],[1,1],[1,0],[-1,-1]],[[483,822],[-1,1],[1,0],[0,-1]],[[483,824],[0,0]],[[482,824],[0,0]],[[482,857],[0,-1],[-4,0],[-1,1],[5,0]],[[481,858],[-1,0],[0,1],[1,0],[1,-1],[-1,0]],[[481,823],[0,-1],[-1,1],[1,0]],[[481,821],[0,0]],[[480,855],[0,0]],[[480,855],[-1,0],[1,1],[0,-1]],[[480,854],[0,0]],[[479,852],[0,0]],[[477,845],[0,1],[2,2],[0,-1],[-2,-2]],[[479,854],[0,0]],[[478,818],[0,0]],[[476,840],[0,-1],[-1,0],[1,1]],[[466,850],[0,0]],[[841,398],[-3,-3],[0,-6],[1,-2],[0,-1],[1,-1],[0,-1],[-1,0],[-1,-2],[-2,-2],[-3,-2],[0,-1],[-3,-3],[-1,-2],[0,-1],[-1,-2],[0,-2],[2,-2],[1,0],[1,-1],[-1,-3],[1,-1],[-1,0],[0,-1],[2,0],[0,-1],[4,-2],[2,0],[2,-1],[3,1],[1,0],[1,-1],[4,0],[1,1],[1,0],[4,-3],[0,-1],[1,-1],[0,-1],[3,-1],[1,-1],[2,-1],[1,0],[2,-1],[1,-1],[1,0],[5,-1],[2,-3],[2,-2],[4,-2],[2,0],[1,-1],[0,-1],[-1,-1],[-1,-2],[0,-1],[-1,-1],[0,-3],[-1,-1],[0,-2],[4,-4],[0,-1],[-1,-2],[-1,-1],[-1,-2],[0,-4],[1,-1],[0,0],[0,-1],[2,-2],[2,-1],[1,-1],[0,0],[-2,-2],[0,-3],[1,-1],[-1,0],[-4,-4],[-1,0],[-1,-1],[0,1],[-2,1],[-3,0],[0,-1],[-1,0],[-3,3],[-2,0],[-6,-1],[-1,0],[-5,-2],[-2,0],[-3,-2],[-10,-5],[-2,0],[0,-1],[-4,-4],[0,-1],[-1,-1],[0,-1],[-1,0],[-1,-2],[2,-2],[0,-6],[1,-1],[0,-6],[1,-3],[0,-4],[-1,-2],[0,-1],[-2,-1],[0,-1],[-2,-2],[-3,-2],[-2,-1],[-1,0],[-1,-1],[-7,-2],[-1,0],[-1,-1],[-1,0],[-3,-3],[0,-1],[-5,-5],[-2,-3],[-1,0],[-2,-2],[0,-1],[-1,-4],[0,-2],[-1,0],[0,-2],[-3,-6],[-2,-1],[-1,-2],[-11,0],[-1,1],[-4,0],[-1,-1],[-9,0],[-1,1],[-3,0],[-1,2],[-2,0],[-2,3],[-1,1],[0,1],[2,2],[-1,1],[0,2],[-1,0],[-1,2],[0,1],[1,0],[1,1],[0,4],[-1,1],[0,5],[2,0],[0,1],[2,0],[1,1],[4,0],[4,2],[3,3],[0,2],[1,2],[1,1],[0,1],[1,0],[0,1],[2,4],[1,0],[1,1],[0,2],[-1,-2],[0,-1],[1,3],[0,2],[1,1],[0,3],[-4,4],[-1,0],[-2,2],[-1,0],[0,1],[1,2],[1,1],[2,1],[2,0],[0,1],[4,0],[1,1],[0,1],[1,1],[4,0],[1,1],[4,-1],[2,-1],[1,1],[3,0],[0,1],[1,0],[1,1],[1,0],[3,9],[0,5],[-1,2],[-1,0],[-2,1],[-1,1],[-1,0],[0,1],[-2,3],[-2,2],[-1,2],[-1,4],[0,2],[-1,1],[0,5],[-1,3],[0,5],[-1,4],[0,1],[-1,1],[-3,9],[-1,0],[-2,2],[-1,2],[-2,2],[-1,0],[0,1],[-1,0],[-1,1],[-1,0],[0,1],[-1,2],[0,1],[-1,1],[0,2],[-1,0],[-1,3],[0,1],[-1,0],[-1,3],[0,3],[-1,2],[0,3],[-1,1],[0,2],[-1,0],[1,1],[1,0],[0,2],[-1,0],[0,2],[-1,1],[-1,2]],[[767,382],[1,0],[0,3],[1,0],[1,1],[1,0],[0,1],[1,1],[3,1],[0,-1],[1,-1],[1,1],[1,0],[1,-1],[1,0],[1,1],[4,-1],[3,0],[0,1],[1,0],[1,-1],[0,-1],[-1,0],[-1,-1],[1,-2],[0,-2],[2,0],[0,-2],[3,0],[1,1],[4,0],[1,1],[2,0],[1,-1],[1,0],[1,-1],[1,2],[-1,1],[3,0],[2,1],[1,-1],[2,0],[2,-1],[2,-2],[0,1],[1,1],[-1,0],[0,1],[-1,1],[1,1],[1,0],[0,2],[1,1],[0,1],[1,0],[1,2],[-1,2],[1,1],[0,1],[1,1],[0,4],[1,0],[0,1]],[[823,401],[0,-1]],[[823,400],[1,-1],[1,1],[2,0],[1,-1],[3,0],[1,-1],[1,1],[3,0],[1,1],[0,-1],[3,0],[1,-1]],[[544,874],[-2,1],[-1,0],[0,2],[-1,0],[-1,1],[1,0],[0,1],[-1,0],[0,1],[-1,1],[0,1],[-1,0]],[[537,882],[0,-1],[-1,0],[0,1],[1,0]],[[537,882],[-2,2],[1,0],[0,1],[-1,0],[-1,1],[0,1]],[[533,887],[1,0]],[[534,887],[0,0]],[[534,887],[0,1],[-1,0],[1,1]],[[535,889],[-1,0]],[[534,889],[-1,1]],[[534,890],[-1,0]],[[533,890],[1,1],[-1,0],[-1,1],[-1,-1],[1,-1],[-2,-1],[-1,0],[0,1],[-4,0],[-1,1],[1,0],[0,1],[-3,0],[-1,-1],[-1,0],[0,-1],[-1,0],[0,2],[-3,0],[-2,-2],[-1,0],[0,1],[-1,-1],[-1,0],[-1,-2],[-2,0],[0,-1],[-1,0],[-1,1],[0,1],[-1,0],[-1,1],[-1,0],[-1,1],[-1,-1],[1,0],[-1,-1],[-1,0],[0,1],[-2,0],[0,2],[-1,1],[-1,0],[0,2],[-1,0],[-1,1],[1,1],[-1,0],[0,1],[-1,0],[-1,1],[-2,0],[0,1],[-3,0],[0,4],[-1,3],[-1,2],[3,3],[1,0],[1,1],[2,1],[0,1],[1,0],[0,3],[-2,1],[-1,0],[-1,1],[0,3],[-4,0],[0,1],[1,0],[-1,1],[-1,0],[0,-1],[-1,0],[-3,2],[-2,2],[2,2],[1,0],[0,2],[2,1],[3,0],[1,1],[-1,1],[0,1],[1,-1],[2,1],[0,1],[1,0],[0,2],[1,0],[1,1],[1,0],[0,2],[1,1],[1,0],[1,1],[0,1],[1,-1],[2,2],[2,0],[1,-1],[1,1],[2,0],[1,-1],[1,0],[-1,2],[-1,0],[-1,1],[0,2],[-1,2],[2,2],[0,1],[1,-1],[1,1],[1,0],[0,1],[1,1],[2,0],[0,2],[1,0],[1,1]],[[513,960],[1,0],[1,1],[2,0],[1,-1],[1,0],[0,-1],[3,0],[-1,-1],[1,-1],[4,0],[3,1],[2,-1],[6,0],[1,-1],[2,0],[1,1],[2,0],[1,-1],[6,0],[0,-1],[2,-1],[2,0],[1,-1],[8,0],[1,1],[2,0],[1,1],[1,0],[2,-1],[0,-1],[5,0],[3,1],[0,-1],[1,-1],[1,0],[1,1],[2,-1],[0,-1],[1,0],[0,1],[4,0],[3,-2],[4,0],[0,-1],[-1,-1],[0,-1],[1,-1],[-1,-1],[0,-2],[-9,0],[-1,-1],[0,-2],[-1,-1],[-2,0],[-1,-1],[-1,0],[-2,-1],[-1,0],[-1,-1],[-3,0],[0,-1],[1,0],[0,-1],[-1,-1],[-1,0],[-1,-1],[0,-1],[-3,0],[0,-1],[1,0],[0,-2],[1,-2],[1,0],[0,-1],[0,0],[0,-2],[3,0],[0,1],[7,0],[0,-1],[2,0],[1,-1],[0,-1],[8,0],[0,-1],[-1,-1],[0,-1],[-1,-1],[0,-1],[-1,0],[-2,-1],[-2,-2],[-1,0],[-1,-1],[-1,0],[-1,-1],[-2,-1],[-1,0],[0,-1],[1,0],[-1,-3],[-1,0],[-1,-1],[2,-1],[0,-1],[3,0],[0,-1],[3,0],[2,2],[4,0],[0,-4],[-2,-3],[-1,-1],[-1,0],[0,-2],[-1,-2],[1,-1],[0,-3],[6,0],[1,-1],[1,0],[2,-1],[1,-1],[2,-1],[1,0],[1,-1],[2,0],[1,-1],[0,-1],[2,-1],[0,-2],[2,-1],[2,-2],[1,0],[1,-1],[1,0],[0,-1],[-2,-1],[-1,0],[-1,-1],[0,-1],[-1,0],[0,-1],[-6,0],[-3,1],[-2,0],[0,1],[5,0],[0,-1],[2,1],[-1,1],[-1,0],[-1,1],[0,0],[0,0],[-1,0],[0,1],[-1,0],[1,1],[1,0],[-2,3],[-1,1],[-2,0],[0,1],[-3,2],[-1,1],[-2,1],[0,1],[-3,0],[-2,2],[0,-1],[-2,0],[-1,1],[-1,0],[0,-2],[-1,-1],[0,-1],[1,-1],[2,0],[0,-1],[-2,0],[-4,-1],[-1,0],[-2,-2],[-2,-1],[-4,0],[0,1],[1,0],[1,-1],[0,1],[4,0],[0,1],[1,1],[-1,1],[-1,0],[-1,-1],[-2,1],[-1,0],[-2,1],[-1,0],[-3,1],[-4,0],[0,1],[-1,-1],[-2,1],[-1,0],[0,1],[-4,0],[0,-1],[-1,1],[0,-1],[-2,0],[0,1],[-1,0],[-2,-2],[0,-1],[-1,0],[0,-1],[-1,0],[0,-1],[-1,0],[1,-1],[0,-1],[5,0],[1,1],[0,-1],[-2,-1],[-1,0],[0,-1],[-1,-2]],[[581,887],[0,0]],[[571,879],[0,0]],[[567,881],[0,0]],[[564,878],[0,0]],[[560,880],[-2,0],[1,1],[3,0],[1,-1],[-3,0]],[[560,881],[0,0]],[[556,880],[-3,0],[2,1],[1,0]],[[556,881],[1,0],[0,-1],[-1,0]],[[556,880],[0,1]],[[550,880],[-1,-1],[-1,0],[1,1],[1,0]],[[175,913],[0,-3],[1,-1],[0,-1],[1,-1],[-1,0],[0,-1],[-1,0],[0,-1],[-1,0],[-1,-1],[-6,-4],[-4,-4],[1,-2],[1,-1],[0,-3],[-1,-1],[-1,0],[0,-1],[-1,0],[0,-3],[1,0],[0,-1],[1,0],[0,-1],[1,0],[0,-1],[1,-1],[3,0],[1,-1],[0,-1],[-1,-1],[0,-1],[4,0],[-1,-1],[0,-1],[1,-1],[0,-1],[-1,0],[0,1],[-1,0],[0,-2],[2,0],[1,-1]],[[173,871],[1,0]],[[174,871],[1,-1],[-1,-1],[0,-1],[1,0],[0,-3],[1,0],[-1,-1],[1,-1],[0,-1],[3,0],[0,-1],[3,0],[0,-2]],[[181,859],[1,0]],[[182,859],[0,-1],[1,0],[0,-2],[1,0]],[[185,856],[-1,0]],[[184,856],[2,-2],[0,-1],[-2,-1],[-5,0],[0,-1],[-2,0]],[[176,851],[1,0]],[[177,851],[1,-2],[1,0],[-1,-1],[0,-1],[-1,1],[-1,0],[0,-2],[-1,-1],[-2,-1],[-2,0],[0,2],[-1,0],[0,1],[-2,1],[0,1],[-1,1],[0,-1],[-5,0]],[[162,850],[0,-1]],[[162,849],[-1,0],[-1,-1],[0,-2],[-2,0],[0,-1],[-1,-1],[2,0],[0,-1]],[[159,843],[-1,0],[1,-1],[0,1]],[[159,843],[1,0],[0,-2]],[[160,841],[1,0],[-1,-1]],[[160,840],[0,1]],[[160,841],[-1,0],[0,-1],[1,0]],[[160,840],[1,0],[0,-1],[-1,0],[0,-1],[-1,0],[1,-1],[1,0],[0,-1]],[[161,836],[-2,0]],[[159,836],[3,0],[2,1],[0,-1],[-1,0],[0,-1],[-2,0],[0,-2],[1,0],[0,-1],[2,0],[1,-1],[0,-1],[2,0],[0,-1]],[[166,829],[1,0]],[[167,829],[0,-2],[1,0],[1,-1],[0,-1]],[[170,825],[-1,0]],[[169,825],[0,-1],[1,0],[-1,-1],[0,-1],[1,0],[0,-1],[1,-1],[0,1],[3,0],[0,1],[1,0],[1,-1],[2,0],[0,-1],[2,0],[0,-1],[1,1],[0,1],[2,0],[-1,1],[2,0],[0,1],[1,0],[0,-1],[1,1],[2,0],[1,1],[1,0],[-1,-1],[2,0],[0,-1]],[[190,822],[1,0]],[[191,822],[0,-2],[1,-1],[1,-2],[2,0],[0,1],[1,0],[1,-2],[0,-1]],[[198,815],[-1,0]],[[197,815],[0,-1],[2,-2],[0,-1],[1,0],[2,-2],[2,0],[0,-1],[1,0],[0,-1],[-1,-1],[-1,0],[2,-2],[1,0],[-1,-1],[3,0],[0,-1],[4,0]],[[212,802],[0,1],[1,0],[-1,-1]],[[212,802],[1,0],[1,-1],[0,-2],[1,-1],[2,0],[0,-3],[-1,0],[1,-1],[0,-1],[-1,-1]],[[91,738],[0,2],[-4,4],[1,0],[0,3],[1,1],[-5,0],[0,-2],[-5,0],[-1,-1],[-4,0],[-3,-1],[-4,0],[0,-2],[-1,1],[-5,0],[0,1],[-1,1],[-7,0],[-1,1],[0,2],[-1,0],[-1,-1],[-2,2],[-1,0],[0,1],[-1,0],[-1,1],[-1,-1],[-1,0],[-2,1],[-1,1],[-1,0],[-1,1],[-1,0],[0,-1],[-3,0],[0,1],[-2,0],[-1,1],[0,3],[-2,0],[0,1],[-1,0],[0,2],[-1,0],[-2,1],[0,2],[-2,1],[-1,0],[0,1],[1,0],[0,1],[-1,1],[1,0],[0,1],[-1,1],[3,0],[1,1],[1,0],[-1,1],[-1,0],[-2,2],[-1,0],[-1,1],[0,1],[-1,0],[0,1],[-1,2],[0,1],[1,0],[1,1],[2,0],[1,1],[0,1],[2,0],[0,3],[1,0],[0,1],[2,0],[0,1],[-1,0],[-1,1],[0,1],[1,1],[0,1],[1,0],[0,1],[7,0],[0,-1],[2,0],[-1,3],[-2,1],[-2,2],[0,2],[-2,2],[1,1],[1,2],[-1,0],[0,1],[-1,0],[-2,1],[-3,1],[-2,-2],[-1,1],[-4,0],[0,1],[-2,0],[-2,1],[0,1],[-2,0],[0,1],[-1,0],[-1,1],[-1,0],[0,1],[1,1],[-1,0],[0,1],[1,0],[0,2],[-1,2],[0,0],[0,2],[-1,0],[-1,1],[-4,0],[-1,1],[1,1],[-1,0],[0,2],[-1,0],[0,1],[-2,2],[1,1],[1,0],[2,1],[0,1],[5,0],[2,1],[1,1],[2,-1],[2,0],[2,-2],[2,0],[1,1],[1,0],[0,2],[2,0],[1,1],[2,0],[0,1],[1,0],[1,1],[-1,0],[0,1],[3,0],[0,1],[1,0],[1,-1],[0,1],[1,-1],[0,1],[2,0],[1,-1],[1,0],[0,1],[2,1],[1,1],[1,0],[1,1],[-1,1],[0,1],[1,0],[-1,1],[-1,2],[0,1],[2,0],[-1,1],[1,1],[1,0],[1,1],[0,2],[1,0],[0,1],[1,1],[-2,0],[-1,1],[-2,1],[-1,0],[0,1],[-1,1],[0,1]],[[104,898],[1,0],[0,1],[-1,1],[1,1],[0,2],[1,0],[2,2],[7,0],[0,1],[1,0],[0,1],[1,0],[-1,1],[1,0],[1,1],[0,1],[-1,1],[1,1],[0,2],[2,0],[4,1],[1,0],[0,1],[1,1],[2,0],[0,2],[1,1],[0,1],[-1,0],[0,2],[-1,0],[0,1],[-1,1],[-1,0],[0,1],[-1,0],[0,1],[-2,0],[2,2],[1,0],[0,1],[1,0],[1,1],[6,0],[0,1],[1,1],[0,1],[2,0],[1,1],[1,0],[-1,1],[1,1],[0,-1],[1,0],[3,2],[0,1],[-1,1],[-1,0],[0,1],[1,1],[1,-1],[1,1],[1,0],[2,2],[2,0],[4,1],[1,0],[1,-1],[0,-4],[1,-1],[-1,-1],[0,-1],[1,-1],[-1,0],[0,-3],[-1,0],[0,-1],[-1,0],[0,-1],[-1,0],[2,-2],[0,-3],[1,0],[0,-1],[2,0],[2,-1],[2,0],[0,-1],[1,-1],[1,0],[0,-1],[1,0],[0,-2],[2,0],[1,-1],[-1,0],[0,-1],[1,0],[0,-1],[1,0],[0,-1],[2,1],[1,0],[0,-1],[1,0],[1,-1],[2,0],[1,-1]],[[184,820],[0,1],[-1,-1],[1,0]],[[175,821],[-1,-1],[1,0],[0,1]],[[725,199],[-2,-1],[-1,-2],[0,-1],[-1,0],[0,-3],[1,-1],[-2,-2],[0,-3],[-2,-2],[0,-5],[-1,-1],[-1,0],[-4,-4],[0,-1],[-1,0],[0,-15],[2,-2],[3,0],[1,-1],[2,0],[0,-1],[1,0],[0,1],[1,0],[0,-1],[3,-2],[0,-1],[1,0],[0,-1],[-2,0],[0,1],[-1,-1],[0,1],[-1,0],[-1,-1],[-1,0],[1,-1],[-1,-1],[0,-2],[1,0],[0,-3],[2,0],[0,-2],[1,-1],[3,-1],[2,0],[0,-1],[1,-1],[-1,-1],[0,-1],[-2,0],[0,-1],[1,-1],[3,0],[0,-1],[2,-2],[-2,0],[-1,1],[-2,-1],[-1,0],[0,-1],[-2,-2],[-3,0],[0,-1],[-2,-1],[-1,-1],[0,-1],[-1,0],[-1,-1],[-1,-3],[0,-1],[-1,0],[-2,-2],[0,-1],[1,-1],[-1,-1],[-1,0],[1,-1],[-1,-1],[1,-1],[0,-1],[1,-1],[1,-2],[0,-2],[1,-1],[0,-1],[-1,-1],[0,1],[-1,0],[-3,-3],[0,1],[-2,1],[0,1],[-1,0],[-1,2],[-3,0],[-2,-1],[-1,0],[-1,1],[-3,2],[-2,0],[-1,1],[-1,-1],[-2,0],[-1,-1],[-3,0],[-1,-1],[0,1],[-2,0],[-1,1],[-1,-1],[0,1],[-2,0],[0,-1],[-2,1],[-1,1],[-2,1],[-1,1],[-1,0],[-6,2],[-5,0],[-1,2],[-1,0],[0,1],[-1,0],[0,2],[-1,2],[0,1],[-1,0],[0,1],[-1,0],[0,2],[-1,0],[0,1],[-5,5],[-1,2],[-4,3],[-6,3],[-1,0],[-1,1],[-2,1],[-5,1],[-13,0],[-2,-1],[-3,0],[-2,1],[-1,0],[-1,2],[-2,1],[-5,0],[-4,2],[-1,1],[-2,1],[-2,0],[0,2],[-1,0],[-2,2],[-1,0],[-1,2],[-2,0],[-1,1],[0,1],[-4,0],[-1,1],[-2,0],[0,-1],[-1,1],[-2,0],[0,1],[-2,0],[-1,1],[0,1],[-1,0],[-1,1],[-1,0],[-2,2],[-3,0],[0,1],[-1,0],[-1,1],[-2,0],[0,1],[-1,2],[-2,1],[-1,1],[0,1],[-1,1],[-1,0],[-1,1],[-2,1],[-1,1],[-1,-1],[-1,0],[-1,1],[-6,0],[-2,-1],[0,1],[-1,1],[-1,2],[-3,2],[-1,1],[-4,0],[-4,1],[-7,0],[-6,-2],[-2,0],[-1,1],[-1,0],[-2,3],[-1,1],[0,1],[-2,2],[-1,0],[-2,1],[-1,0],[-1,-1],[-1,1],[-2,1],[0,1],[-1,0],[-1,1],[0,4],[-2,3],[-2,2],[1,1],[2,0],[1,1],[-1,1],[0,1],[1,0],[1,2],[0,1],[-1,0],[0,1],[-1,1],[1,2],[1,0],[1,2],[0,2],[1,1],[0,2],[-1,0],[2,1],[1,1],[2,1],[0,1],[2,1],[2,0],[0,-1],[1,1],[3,1],[1,1],[0,1],[1,1],[1,-1],[2,0],[1,2],[1,1],[0,1],[-2,2],[1,1],[1,0],[0,-1],[3,0],[0,-2],[1,0],[1,-1],[0,-3],[1,-2],[3,-2],[1,0],[0,-1],[1,0],[1,-1],[0,-1],[6,0],[2,1],[5,2],[1,1],[1,0],[2,1],[0,1],[-1,1],[0,2],[-1,1],[1,0],[0,1],[1,0],[0,2],[2,1],[5,0],[0,-1],[1,-1],[1,0],[3,1],[2,2],[2,0],[2,1],[0,1],[2,0],[1,-1],[0,-1],[1,-1],[2,0],[0,-2],[1,-1],[-1,-1],[0,-1],[3,-3],[7,0],[2,1],[0,1],[2,-1],[0,0],[1,-1],[0,-2],[-1,0],[3,-3],[3,-1],[1,-1],[2,0],[0,-1],[2,0],[1,-1],[2,0],[1,-1],[2,0],[1,-1],[2,1],[5,0],[2,1],[5,2],[2,1],[1,1],[0,-1],[1,0],[1,1],[1,-1],[1,1],[4,0],[0,-1],[4,0],[0,-1],[3,0],[1,1],[1,0],[2,-1],[0,1],[1,0],[4,-1],[3,0],[2,-1],[3,1],[3,0],[2,1],[1,0],[1,1],[5,0],[5,1],[2,1],[3,0],[1,1],[2,0],[4,2],[6,6],[1,-1],[4,0],[3,1],[3,0],[1,1],[1,0],[0,1],[1,0],[3,-1],[0,-1],[1,0],[0,-1],[7,0],[1,-1],[0,-1],[1,0],[1,-1],[1,0],[1,1],[1,0],[5,2],[4,4],[0,1],[2,3],[-1,0],[0,2],[2,-2],[-1,-1],[0,-1],[1,-1],[7,0],[1,1],[2,0],[1,1],[3,1],[2,0],[2,2],[6,3],[1,0],[2,-2],[3,0],[2,-1],[1,0],[-3,-1],[-1,0],[-2,-1],[-2,-4],[0,-1],[1,0],[-1,-1],[0,-1],[-3,-3],[-2,-3],[0,-2],[-2,-1],[-1,-1],[0,-1],[-1,-1],[-1,0],[0,-1],[-4,-4],[0,-1],[-1,0],[-2,-2],[0,-1],[-5,-5],[1,-1],[-2,0],[0,-1],[-1,-1],[0,-1],[-1,0],[0,-1]],[[724,142],[-1,0],[-1,1],[1,0],[1,-1]],[[722,283],[0,-1],[-1,1],[-1,0],[0,1],[-1,0],[2,2],[2,0],[0,-1],[1,0],[-2,-2]],[[722,149],[0,0],[-1,1],[1,0],[0,-1]],[[709,270],[-1,0],[0,1],[1,1],[1,-1],[0,-1],[-1,0]],[[709,228],[0,0]],[[704,248],[-1,-1],[-2,1],[-1,1],[-1,0],[0,1],[-1,1],[1,1],[1,0],[0,1],[1,0],[-1,-1],[1,-1],[1,0],[1,-1],[0,-1],[1,-1]],[[700,261],[0,-3],[2,0],[-1,-1],[-1,0],[0,-3],[-1,0],[-1,1],[0,1],[-2,0],[-1,1],[0,3],[1,0],[0,1],[4,0]],[[693,266],[-1,0],[1,-1],[0,-1],[-1,-1],[0,-1],[-2,0],[-1,1],[-2,1],[-1,0],[0,1],[1,0],[0,1],[6,0]],[[669,264],[-3,0],[-1,1],[0,1],[3,0],[0,-2],[1,0]],[[650,262],[-2,0],[0,1],[1,1],[1,0],[0,-2]],[[551,276],[-1,-1],[-1,0],[-1,1],[0,1],[1,0],[1,1],[1,0],[1,-1],[-1,-1]],[[526,31],[-3,0],[0,2],[2,0],[0,-1],[1,-1]],[[499,3],[2,-1],[1,1],[1,-1],[1,0],[0,-2],[-2,0],[0,1],[-1,-1],[-2,1],[-1,1],[-3,0],[1,1],[3,0]],[[491,204],[-1,0],[0,1],[1,0],[0,-1]],[[489,203],[-1,3],[-1,1],[2,0],[0,-4]],[[477,212],[2,-2],[1,0],[1,-1],[1,0],[0,-1],[-1,0],[-2,1],[-4,0],[-1,1],[1,1],[1,0],[1,1]],[[481,215],[-2,0],[-1,1],[0,1],[1,0],[0,1],[1,-1],[0,-1],[1,-1]],[[478,209],[0,0]],[[459,211],[-1,0],[0,1],[-3,0],[0,1],[-1,2],[3,0],[0,-1],[1,-1],[1,-2]],[[451,114],[1,1],[2,-1],[2,-2],[0,-3],[-1,-1],[-2,-1],[-2,0],[-6,6],[0,1],[2,2],[2,0],[2,-2]],[[104,898],[0,-4],[1,-1],[0,-1],[-1,0],[0,-1],[1,-1],[-1,-1],[0,-2],[1,-2],[2,-2],[2,0],[0,-1],[1,-1],[-1,-1],[0,-1],[-1,0],[-1,-1],[1,-1],[0,-1],[1,0],[0,-1],[1,0],[0,-1],[-1,-1],[-1,0],[-1,-1],[0,-2],[-3,0],[-1,1],[-1,-1],[-1,0],[-2,-1],[-1,0],[-1,-1],[-1,0],[-1,-1],[-1,0],[-1,-1],[-1,0],[0,1],[-4,0],[0,-1],[-2,2],[-2,0],[-2,-1],[0,2],[-2,0],[-1,1],[-2,0],[-1,-1],[-6,0],[-1,-2],[-2,-1],[-1,0],[0,-1],[-1,0],[0,-1],[-1,0],[-1,-1],[-1,1],[-3,0],[-1,-1],[-4,0],[-4,-4],[-1,1],[-3,0],[-1,1],[-1,-1],[-1,0],[0,3],[-1,0],[-1,-2],[0,-1],[-1,-1]],[[40,859],[-2,1],[-2,-1],[-1,1],[1,1],[-1,1],[-4,0],[1,2],[-1,1],[0,1],[-1,1],[1,1],[-2,1],[1,2],[0,1],[1,1],[0,1],[-2,1],[-5,0],[0,1],[-1,0],[0,1],[-2,0],[-3,1],[0,1],[-1,0],[-1,2],[-1,0],[1,2],[-1,0],[0,4],[1,0],[0,1],[-1,1],[1,2],[3,0],[1,-1],[0,1],[1,1],[1,0],[0,-1],[2,0],[0,1],[2,0],[1,1],[2,1],[2,0],[1,1],[0,1],[1,2],[2,0],[2,-2],[1,0],[0,-1],[2,-2],[1,0],[2,1],[1,1],[2,-2],[2,0],[0,1],[1,1],[1,0],[2,1],[1,-1],[2,1],[0,2],[3,0],[0,-1],[1,0],[1,1],[1,-1],[1,0],[1,-1],[1,0],[0,1],[2,0],[1,1],[1,0],[1,1],[2,0],[0,1],[1,1],[1,0],[0,1],[1,-1],[1,1],[0,-1],[2,0],[0,3],[3,0],[0,-1],[3,-1],[0,1],[2,-1],[1,1],[1,0],[1,-1],[0,-1],[3,0],[0,-2],[1,-1],[1,0],[1,1],[0,1],[2,0],[2,-2],[2,0],[0,1],[1,-1],[3,0]],[[341,816],[1,0]],[[342,816],[1,0],[0,2],[2,0],[1,-2],[0,-2],[5,0],[0,-1],[3,0],[1,-1],[0,1],[1,0],[0,-1],[2,0],[0,-1],[1,1],[3,0],[1,1],[1,0],[1,1],[1,0],[1,1],[4,0],[1,-1],[1,1],[0,1],[2,-1],[3,0],[2,-2],[1,1],[1,0],[2,-1],[1,1],[2,0],[1,1],[2,-1],[1,0],[0,1],[2,0],[0,1],[1,-1],[1,1],[0,-1],[6,0],[0,-1],[2,1]],[[403,815],[0,-2],[10,0],[1,-1],[1,0],[1,-1],[1,0],[0,-1],[1,-1],[2,0],[1,1],[2,1],[1,0],[1,1],[3,0],[1,1],[1,0],[0,1],[-1,1],[2,0],[1,1],[2,0],[1,1],[1,0],[2,-1],[5,1],[4,0],[1,1],[2,-1],[6,0],[0,-1],[1,0],[1,1],[0,-1],[2,0],[1,-1],[0,-1],[1,0],[0,-1],[3,0],[1,1],[0,-1],[1,-1],[2,1],[1,-1],[1,1],[2,0]],[[473,814],[0,-1]],[[473,813],[1,1],[1,0],[1,-1],[0,-1],[-1,0],[0,-4],[2,-2],[3,0],[0,-2],[1,-1],[4,-2]],[[485,801],[-1,-1],[-1,0],[-4,1],[1,1],[1,0],[-3,3],[-3,0],[-1,-1],[0,-1],[1,0],[0,-1],[-2,-2],[0,-1],[-1,-1],[-1,-5],[1,-1],[0,-1],[2,-4],[1,-1],[0,-9],[1,-4],[0,-1],[2,-4],[1,-4],[0,-2],[2,-3],[0,-2],[1,-2],[2,-3],[5,-5],[0,-1],[5,-3],[4,-4],[2,0],[4,-4],[5,-3],[1,-1],[2,-1],[2,0]],[[514,730],[1,-1],[-1,0],[0,-2],[-1,0],[-1,-1],[1,0],[0,-1]],[[512,725],[1,0]],[[513,725],[0,-2],[-1,-1],[1,0],[0,-1],[-1,0],[-2,-1],[-1,0],[-1,-1],[1,-1],[-4,0],[-1,-1],[-1,1],[0,1],[-1,0],[0,2],[-1,0],[0,2],[-2,0],[0,-1],[-1,-1],[-1,0],[-1,1],[-3,0],[-1,1],[0,1]],[[492,724],[1,1],[0,1],[1,0],[0,1],[1,1],[-1,0],[0,3],[1,0],[-1,1],[-1,-1],[-2,0],[-2,-1],[-1,-1],[-3,0],[0,-1],[1,0],[0,-4],[2,0],[0,1],[1,-1],[1,0]],[[490,724],[0,-2],[-5,0],[0,-1],[-1,-1],[0,-2],[1,0],[-1,-1],[-2,0],[0,-1],[-1,-1],[-1,1],[-3,0],[0,-1],[-2,0],[1,-1],[-1,-2]],[[216,786],[0,3],[1,1],[-1,1],[0,1]],[[216,792],[4,0],[-1,1],[0,1],[2,-1],[0,-2],[2,1],[0,-1],[1,0],[1,1],[2,0],[-1,1],[-1,0],[1,1],[0,1],[1,0],[0,1],[-1,1],[-1,0],[-2,1],[0,1],[2,1],[1,0],[0,2],[2,0],[2,2],[-1,0],[0,1],[-1,1],[0,2],[-3,0],[-2,2],[0,1],[1,0],[0,1],[-1,1],[2,0],[3,3],[0,3],[2,0],[0,1],[1,1],[-1,0],[1,1],[-1,1],[2,1],[1,1],[1,0],[0,1],[2,0],[0,1],[4,0],[1,1],[1,0],[1,-1],[0,-1],[2,0],[1,1],[-2,2],[0,1],[2,0],[1,-1],[0,-1],[2,0],[0,-1],[2,1],[0,2],[2,0],[0,-2],[-1,-1],[1,-1],[3,0],[1,-1],[2,-1],[1,0],[1,1],[1,0],[0,1],[1,0],[-1,2],[1,1],[1,-1],[0,-1],[1,0],[1,-1],[2,0],[0,-2],[1,-1],[0,4],[3,0],[0,-1],[1,-1],[1,0],[1,1],[0,1],[-1,1],[-1,0],[0,2],[2,0],[1,1],[1,-1],[0,-1],[-1,-1],[0,-1],[2,1],[2,2],[2,0],[3,-2],[0,-1],[1,0],[0,-1],[-1,0],[0,-1],[1,0],[2,-2],[0,-1],[1,1],[1,0],[0,-1],[1,-1],[3,0],[2,1],[1,1],[2,-2],[1,0],[1,1],[3,-1],[2,-2],[3,0],[0,-1],[1,-1],[1,0],[2,-1],[1,0],[2,1],[2,0],[1,-2],[1,-1],[2,-1],[3,0],[0,-1],[1,0],[1,-1],[6,0],[2,1],[1,0],[0,1],[2,1],[0,1],[2,2],[1,0],[0,1],[1,-1],[0,-1]],[[478,802],[-1,-1],[0,1],[1,0]],[[225,792],[-1,0],[0,1],[1,0],[0,-1]],[[224,793],[0,0]],[[242,468],[-1,-1],[6,0],[1,-1],[2,0],[0,1],[3,0],[-2,-2],[2,-2],[1,1],[1,0],[-1,-1],[0,-1],[3,0],[1,-1],[2,0],[-1,-1],[-2,0],[0,-2],[-1,0],[0,-2],[1,-2],[1,-1],[2,0],[-1,-1],[1,-1],[-1,-1],[0,-1],[1,0],[3,-3],[-1,-1],[0,-4],[1,0],[0,-1],[1,-1],[0,-1],[1,0],[1,-1],[0,-2],[2,-1],[1,0],[0,-2],[-2,-3],[-1,-3],[-1,0],[-1,-1],[0,-2],[-1,-1],[0,-1],[-1,0],[-2,-1],[-2,-2],[-2,-1],[0,-1],[-1,0],[-3,-4],[0,-7],[1,-1],[0,-1],[1,-1],[0,-1],[4,-4],[2,-1],[1,0],[0,-1],[-1,-1],[0,-2],[-2,-2],[0,-2],[-1,-1],[0,-3],[1,-1],[1,0],[0,-1],[-2,-2],[0,-4],[1,-1],[-1,0],[0,-1],[-1,-4],[-1,-2],[1,-1],[0,-5],[-1,0],[0,-2],[-1,-1],[0,-4],[1,-3],[-1,-1],[0,-2],[-1,0],[-1,-4],[1,0],[0,-5],[-2,-2],[-1,-4],[0,-4],[2,-2],[-1,0],[-3,-3],[-1,-2],[0,-5],[1,0],[0,-1],[-1,0],[0,-2],[-2,-2],[-2,-1],[0,-2],[-1,1],[0,2],[-1,0],[-1,1],[-1,-1],[-4,0],[-1,1],[-2,0],[0,2],[-2,1],[-1,0],[-1,2],[-2,0],[0,1],[-4,0],[-1,1],[-2,0],[-1,1],[-1,-1],[-2,0],[-2,-2],[0,-1],[-2,0],[-2,2],[-1,0],[-1,1],[0,-1],[-1,0],[-1,1],[-1,0],[2,-2],[-1,0],[-2,-2],[-2,-1],[0,-1],[-1,-3],[1,-1],[0,-1],[1,-1],[1,-2],[0,-1],[-2,-2],[0,-3],[-2,0],[0,-1],[-7,-5],[-1,-1],[-2,-1],[-2,-2],[-1,0],[0,1],[-1,0],[-1,1],[-1,0],[-1,-1],[-1,1],[0,1],[-1,1],[-2,0],[-2,1],[-1,-1],[-1,0],[-2,-1],[-1,0],[0,-1],[-1,0],[0,-1],[1,0],[0,-1],[-2,-1],[0,1],[1,0],[-1,1],[1,1],[-4,0],[0,1],[1,0],[0,2],[1,0],[-1,2],[-1,1],[-1,-1],[0,1],[-1,1],[0,1],[-1,0],[0,2],[1,0],[0,1],[-1,1],[0,1],[-2,0],[-1,1],[-4,0],[-1,1],[1,1],[0,1],[-1,1],[0,1],[-3,0],[0,4],[-2,1],[0,-2],[-1,2],[0,2],[-1,0],[-1,1],[-1,0],[0,2],[2,1],[2,2],[1,0],[1,2],[0,2],[-2,2],[-1,0],[-1,2],[-1,1],[0,1],[1,1],[1,0],[0,1],[1,1],[0,2],[-2,0],[0,1],[-1,0],[1,1],[0,1],[2,2],[3,4],[1,2],[0,2],[1,1],[-2,2],[0,3],[1,1],[-1,0],[0,2],[1,1],[-1,0],[0,5],[1,0],[1,-1],[0,-1],[2,-2],[0,-1],[1,1],[0,1],[1,1],[-1,1],[2,1],[1,2],[1,3],[0,3],[1,0],[-2,1],[0,1],[-1,1],[0,1],[-5,0],[-3,-3],[0,1],[-1,1],[-1,0],[0,1],[-1,0],[0,5],[-1,1],[2,2],[0,2],[-1,1],[-2,0],[2,2],[1,-1],[1,0],[1,1],[0,-1],[1,0],[2,1],[1,2],[1,1],[-1,1],[0,1],[-1,1],[-1,2],[0,4],[1,0],[-1,1],[0,2],[1,1],[0,1],[1,1],[0,2],[-1,1],[-1,0],[0,2],[-2,0],[-1,1],[-3,0],[0,1],[-1,1],[1,1],[1,2],[0,3],[-1,1],[0,1],[-1,3],[-1,1],[-2,0],[0,1],[-1,2],[-1,1],[0,2],[-1,2],[-3,0],[0,-1],[-2,0],[0,-1],[-4,0],[0,1],[1,0],[0,1],[1,1],[-1,1],[-2,0],[0,-1],[-1,0],[-1,-1],[1,0],[0,-1],[-1,0],[0,0],[-1,0],[0,2],[-1,1],[0,1],[2,0],[0,1],[2,0],[0,2],[1,1],[0,1],[-2,1],[0,1],[-1,0],[-1,1],[0,1],[-1,0],[0,1],[1,0],[0,1],[1,1],[0,3],[1,0],[0,1],[1,0],[1,1],[0,1],[1,1],[1,2],[0,2],[-1,1],[-2,1],[0,1],[-1,1],[1,1],[1,2],[1,-1],[2,-1],[0,-4],[3,-3],[1,0],[2,-1],[1,-1],[2,0],[1,-1],[4,0],[1,1],[1,-1],[1,0],[2,-1],[7,0],[3,1],[2,2],[2,1],[0,1],[2,1],[2,0],[0,1],[2,1],[6,0],[2,1],[1,0],[1,1],[0,1],[2,1],[2,2],[1,2],[0,1],[1,0],[-1,1],[4,0],[0,1],[1,0],[5,5],[1,2],[2,0],[1,1],[1,0],[0,-1],[2,0],[4,2],[-1,1],[3,0],[2,2],[-1,0],[0,1],[-1,0],[1,2],[0,2],[3,0],[2,1],[2,0],[2,-1],[0,-1],[1,-1],[-1,-2],[1,0],[0,1],[1,1],[0,-2],[2,0],[1,-1],[1,1],[0,0],[0,1],[2,0],[0,-2],[3,0],[0,-1],[1,1],[1,-1],[-1,-1],[1,0],[0,-1],[1,0],[0,-4],[1,0],[0,1],[1,1],[1,0],[0,1],[1,0],[0,1],[1,0],[1,-1],[1,1],[0,1],[1,-1],[0,-1],[1,0],[0,-2],[1,1],[1,-1],[0,-1],[-2,-2],[0,1],[-1,-2],[0,-1],[-1,0],[0,-2],[-1,-2],[1,0],[1,1],[-1,0],[1,1],[2,0],[0,-2],[3,0],[0,1],[1,0],[2,-1],[2,0],[1,-1],[-1,-1],[-1,0],[-1,1],[-1,0],[-2,-1],[-1,0],[0,-1],[1,0],[0,-1],[-2,-2],[1,-1],[-5,0]],[[261,462],[-2,1],[1,1],[1,0],[1,-1],[-1,-1]],[[260,466],[-2,-1],[-1,0],[1,1],[3,2],[1,-1],[-1,0],[-1,-1]],[[261,461],[0,0]],[[257,465],[0,0]],[[250,481],[0,-1],[-1,1],[1,0]],[[248,480],[0,0]],[[244,309],[0,0]],[[242,468],[1,0]],[[239,491],[-1,-1],[-1,1],[0,-1],[-1,0],[0,1],[1,1],[0,2],[1,0],[0,1],[2,0],[0,-2],[-1,-1],[0,-1]],[[240,490],[0,0]],[[239,489],[-1,0],[1,1],[0,-1]],[[235,497],[0,-1],[1,0],[0,-3],[-2,0],[-1,-1],[-1,0],[-1,1],[0,1],[1,0],[0,1],[1,0],[0,1],[1,0],[0,1],[1,0]],[[235,491],[-1,0],[0,0],[-1,0],[1,1],[1,0],[0,-1]],[[233,497],[0,0]],[[229,500],[1,0],[1,1],[0,-1],[0,0],[-1,-1],[0,1],[-2,0],[-1,1],[1,0],[1,-1]],[[229,498],[-1,1],[2,0],[-1,-1]],[[229,494],[-1,0],[-1,1],[0,1],[2,0],[1,-1],[-1,-1]],[[226,491],[0,0]],[[213,495],[-1,-1],[-1,0],[0,1],[2,0]],[[147,311],[4,0],[1,-1],[1,0],[1,-1],[0,-2],[1,0],[-1,-1],[0,-1],[-1,-1],[0,-3],[-1,-1],[1,-1],[-3,0],[0,-1],[-1,1],[0,1],[-1,1],[-1,2],[0,1],[-1,0],[0,2],[-1,2],[0,3],[1,0],[0,1],[1,0],[0,-1]],[[152,377],[0,0]],[[144,480],[-1,-1],[-2,0],[-2,1],[-1,-1],[-1,0],[1,-1],[-2,-1],[-1,0],[2,-2],[0,-2],[-4,0],[0,2],[1,1],[0,2],[2,0],[1,1],[0,1],[1,0],[0,1],[1,0],[0,1],[-1,1],[3,0],[0,1],[2,0],[0,-1],[1,0],[0,-3]],[[141,318],[0,-4],[0,0],[0,-3],[-1,-1],[-2,0],[0,1],[-2,0],[0,1],[1,0],[-2,2],[-1,0],[0,2],[2,0],[0,1],[2,0],[0,1],[1,-1],[0,1],[1,-1],[1,1]],[[134,472],[-1,0],[1,1],[0,-1]],[[216,786],[4,0],[1,-1],[-1,0],[0,-1],[3,0],[0,1],[2,0],[0,-1],[1,0],[2,-1],[3,0],[0,-1],[1,1],[1,0],[0,1],[2,0],[0,-2],[2,0],[0,-1],[4,0],[-1,-1],[2,-2],[0,-1],[-1,0],[0,-3],[-2,0],[0,-1],[-1,-1],[0,-1],[-1,-1],[-1,0],[0,-1],[3,0],[0,-1],[1,0],[0,1],[2,0],[3,1],[6,0],[2,-2],[1,0],[1,-1],[0,-1],[1,-2],[1,0]],[[285,737],[-3,0],[0,-1],[-2,0],[-1,1],[-2,1],[-1,0],[0,1],[-1,1],[-3,0],[0,1],[-1,1],[-1,0],[-2,-1],[1,-1],[0,-1],[1,0],[0,0],[1,-1],[-1,0],[-1,-1],[-1,1],[-1,0],[-3,1],[0,1],[-1,0],[-1,1],[-1,0],[0,1],[-1,0],[0,1],[-2,0],[0,1],[-3,1],[-2,0],[0,-1],[-2,2],[-1,0],[0,2],[-3,0],[0,1],[-1,0],[0,1],[-1,0],[-1,1],[-2,0],[-1,1],[0,1],[-5,0],[0,1],[-1,1],[-2,0],[0,1],[-1,0],[0,1],[-2,1],[-3,1],[-1,1],[-1,0],[-4,2],[-1,0],[-1,1],[0,-1],[-1,0],[-1,-1],[0,-2],[-2,0],[-1,1],[-2,0],[0,3],[-1,1],[-1,0],[-2,1],[-4,0],[-4,1],[-2,0],[-3,1],[-2,0],[0,1],[-1,0],[0,-1],[-4,1],[-2,0],[0,1],[-8,0],[-4,-1],[-1,0],[0,-1],[-1,0],[-1,-1],[-1,0],[-2,-1],[-1,-1],[-2,0],[-2,-1],[-3,-2],[-2,0],[-1,-1],[-1,0],[1,-1],[-1,0],[-2,-1],[-2,-2],[1,0],[0,-1],[1,0],[-1,-1],[0,-1],[-2,0],[0,-1],[-1,0],[0,-2],[1,0],[-2,-2],[-3,0],[-4,-2],[-1,0],[-3,-1],[0,-1],[-1,0],[0,-1],[-1,0],[-1,-2],[-1,-1],[0,-4],[-1,0],[-4,-4],[0,-2],[1,-1],[-1,0],[-1,-1],[-1,0],[0,-1],[-1,-1],[-3,0],[-1,-2],[-1,-1],[-2,0],[-4,-2],[-2,0],[0,-1],[-2,0],[-1,-1],[-5,0],[-1,-1],[-2,0],[0,-1],[-6,0],[-1,-1],[-1,0],[-1,-1],[-1,0],[-1,1],[-1,-1],[-1,0],[-1,-2],[-2,1],[-3,0],[-3,1],[-2,-1],[-2,0],[0,1],[-1,0],[0,1],[-1,1],[0,2],[-1,0],[0,3],[1,1],[2,0],[1,1],[2,0],[-1,1],[0,1],[1,0],[0,2],[1,0],[1,1],[2,0],[2,1],[1,0],[0,1],[2,2],[-1,0],[0,2],[1,0],[0,1],[2,0],[0,1],[1,0],[0,1]],[[91,738],[1,0],[2,2],[-1,0],[-1,2],[0,2],[2,0],[1,1],[1,0],[3,-1],[1,-1],[4,0],[1,-1],[4,0],[1,-1],[2,1],[5,0],[-2,2],[-1,0],[0,1],[2,1],[2,0],[1,-1],[2,0],[0,1],[1,0],[0,1],[1,1],[0,2],[-1,0],[-1,1],[0,1],[1,1],[0,1],[-1,0],[0,1],[1,0],[1,1],[-3,3],[1,1],[1,-1],[2,0],[0,2],[3,0],[1,2],[0,1],[-1,0],[0,1],[1,0],[0,1],[1,0],[1,1],[1,0],[2,1],[0,1],[1,0],[0,1],[-1,1],[0,1],[-1,1],[0,1],[1,0],[1,1],[0,2],[1,0],[2,1],[0,-1],[1,-1],[3,0],[1,-1],[2,0],[1,-1],[0,-1],[2,0],[0,1],[1,0],[0,1],[1,0],[0,2],[1,0],[1,-1],[2,0],[0,1],[1,0],[1,1],[0,-1],[6,0],[1,-1],[1,0],[1,1],[-1,0],[0,1],[2,0],[0,1],[1,0],[1,1],[-1,0],[0,2]],[[167,782],[0,1],[4,0],[2,-1],[0,1],[3,0],[1,-1],[0,-2],[1,0],[0,-1],[1,0],[0,-1]],[[178,778],[1,0]],[[179,778],[1,0],[0,-3],[1,0],[1,1],[0,1],[2,2],[1,0],[0,1],[-1,0],[0,1],[5,0],[1,-1],[2,1],[1,1],[-1,0],[0,2],[-1,1],[1,0],[-3,3],[3,0],[0,2],[1,0],[0,1],[3,0],[1,-1],[4,0],[0,-1],[2,-2],[0,-1],[4,0],[1,-1],[0,-1],[1,-1],[2,-1],[1,0],[1,1],[1,0],[1,1],[1,0],[0,2]],[[271,736],[-1,0],[-1,1],[2,0],[0,-1]],[[218,758],[-1,0],[0,1],[1,-1]],[[166,782],[1,0]],[[491,964],[-3,-1],[-3,-3],[-2,0],[1,-1],[-2,-1],[-2,1],[-2,0],[-1,-1],[-2,0],[-1,1],[-2,0],[0,-1],[-1,0],[-2,-1],[-1,0]],[[467,956],[1,1]],[[468,957],[0,1],[-1,0],[-2,2],[-2,0],[-1,1],[-2,1],[-3,1],[0,-4],[-2,-2],[0,-2],[-1,0],[0,-2],[-2,-1],[-1,-1],[-1,1],[-3,0],[0,-1],[-1,0],[0,-1],[-1,1],[-2,0],[-1,-1],[-3,0],[-2,-1]],[[336,944],[-2,1],[-1,0],[-1,1],[-2,1],[-1,0],[-4,1],[-2,0],[-1,1],[-1,2]],[[321,951],[1,1],[1,0],[0,2],[1,0],[0,3],[1,1],[-4,2],[-4,0],[-1,1],[0,2],[-1,1],[1,0],[1,1],[0,1],[1,0],[0,1],[-1,1],[3,2],[1,1],[-1,1],[-1,0],[0,2],[2,0],[1,1],[0,3],[1,0],[0,1],[1,0],[1,-1],[5,0],[0,-1],[1,1],[2,0],[0,1],[3,0],[1,1],[4,0],[1,-1],[0,-1],[1,0],[1,-1],[3,0],[0,-1],[-1,-1],[0,-1],[-2,0],[1,-1],[4,0],[2,-1],[3,0],[2,-1],[3,0],[2,1],[2,0],[2,-1],[4,0],[1,2],[2,2],[2,1],[0,1],[-1,0],[1,1],[-1,0],[0,1],[3,3],[-1,1],[1,1],[1,0],[0,1],[3,0],[1,1],[0,2],[2,0],[1,1],[0,-1],[4,0],[0,1],[3,0],[1,1],[5,0],[4,-2],[1,0],[2,1],[1,0],[0,1],[1,1],[1,0],[1,1],[1,0],[1,-1],[2,-1],[1,0],[3,1],[1,1],[3,0],[1,-1],[2,-1],[2,1],[2,-1],[1,-1],[2,-1],[2,1],[0,1],[3,0],[2,1],[2,0],[1,1],[1,0],[1,1],[2,1],[3,0],[1,1],[6,0],[1,1],[3,0],[0,1],[2,1],[1,-1],[2,1],[1,0],[3,1],[3,-1],[2,-1],[-2,-1],[-1,-1],[0,-2],[-5,0],[-2,-1],[0,-2],[1,-1],[0,-1],[-1,0],[1,-1],[2,0],[0,-2],[-1,-1],[-1,0],[2,-1],[2,0],[1,-1],[0,-1],[2,-1],[0,1],[1,0],[0,1],[1,0],[2,-1],[1,0],[0,-1],[1,-1],[0,-1],[1,0],[0,-1],[-2,-2],[1,-1],[-1,-1],[0,-1],[2,0],[0,1],[2,-1],[2,0],[1,-2],[0,-1],[1,-2],[1,0],[2,-2],[1,0],[1,-1],[3,0]],[[418,743],[-1,0],[-1,-1],[2,1]],[[418,743],[1,0],[2,-1],[1,0],[0,-1],[2,2],[5,0],[1,1],[1,-1],[-2,-2],[0,-1],[-2,-1],[0,-1],[-1,-1],[0,-1],[-1,-1],[-2,-1],[0,-1],[-1,0],[0,-2],[2,-2],[2,0],[-1,-2],[1,0],[1,-1],[1,0],[-1,-1],[0,-3],[1,0],[1,-1],[4,-1],[3,-3],[2,-1],[1,1],[1,0],[1,-1],[2,0],[1,1],[0,-2],[3,0],[0,-2],[3,-1],[1,0],[1,1],[1,-1],[3,0],[0,-1],[1,0],[1,-1],[2,1],[3,0],[1,1],[1,0],[1,-1],[2,-1],[0,1],[1,0],[0,1],[2,0],[1,-1],[1,0],[0,1]],[[472,712],[1,0]],[[473,712],[2,0]],[[475,712],[2,0],[2,-1],[3,-3],[-1,-1],[-1,1],[-1,-1],[0,-1],[1,-1],[-2,0],[0,4],[-1,0],[0,-3],[-1,0],[-1,-1],[-3,0],[0,-1],[-1,-1],[-3,0],[-1,-1],[0,-1],[2,-1],[0,-1]],[[443,632],[-3,0],[-1,1],[-2,-1],[-2,-2]],[[435,629],[0,1]],[[435,630],[-2,1],[-1,0],[-1,-1],[-1,-2],[1,0],[2,-2],[1,0],[1,-1],[1,0],[-1,-2],[0,-2],[-2,0],[0,-3],[2,0],[0,-2],[-1,0],[-1,-1],[-3,0],[0,-1],[-1,-1],[-2,0],[-1,-1],[-1,0],[0,-1],[-2,-1],[-1,0],[-1,-1],[-3,0],[0,1],[-1,0],[-1,-1],[0,-1],[1,-1],[-2,0],[0,-3],[1,0],[1,-1],[1,0],[1,-1],[0,-4],[-11,0],[0,-2],[-2,-1],[-1,-1],[0,-1]],[[405,593],[-6,1],[-5,1],[-1,0],[0,1],[-1,-1],[-1,1],[-2,1],[-3,-1],[-1,0],[0,-2],[-1,-1],[-1,0],[0,-1],[-3,0],[-1,1],[-1,0],[0,1],[-3,0],[0,4],[1,1],[1,0],[0,-1],[5,0],[1,2],[0,5],[-1,2],[-2,2],[-1,0],[-1,-1],[-1,1],[-1,2],[0,2],[-2,0],[0,1],[1,0],[-1,1],[-1,0],[-4,2],[-2,2],[0,2],[-1,1],[-3,2],[-9,3],[-5,0],[-3,2],[-1,0],[0,1],[2,0],[1,2],[0,3],[1,1],[0,2],[-2,2],[-4,2],[-4,0],[-4,1],[-3,-1],[-2,0],[0,-1],[-1,0],[0,-1],[-2,0],[-1,1],[-1,0],[-1,3],[0,2],[2,0],[1,1],[-1,0],[1,1],[1,3],[1,5],[0,5],[-1,5],[-3,6],[-1,1],[-2,1],[0,1],[-1,1],[0,2],[-1,1],[0,1],[-1,0],[0,1],[-2,0],[0,2],[-3,3],[-1,0],[-1,1],[-1,0],[0,1],[-1,3],[-2,2],[1,1],[-1,0],[1,2],[-1,1],[0,2],[-1,1],[0,2],[-1,2],[0,1],[1,0],[0,4],[-1,2],[0,3],[-1,3],[-2,3],[1,1],[-2,2],[-1,2],[-2,3],[-8,6],[-3,1],[-1,1],[-1,0],[-1,1]],[[285,737],[1,1],[2,1],[0,1],[1,1],[-2,2],[-2,0],[-1,-1],[-1,0]],[[283,742],[0,-1],[-1,0],[1,1]],[[283,742],[0,1],[-1,0],[-1,2],[1,0],[-1,1],[0,1],[-7,0],[1,1],[1,0],[2,2],[-2,0],[0,1],[-2,0],[-1,-1],[0,-1],[-1,-1],[-1,1],[1,2],[1,1],[-1,0],[-1,1],[1,1],[-1,2],[-1,0],[-1,1],[-2,0],[-2,1],[-1,1],[-1,0],[0,1],[-1,1],[-1,0],[-1,1],[0,1],[-1,1],[-2,0]],[[257,764],[3,2],[1,-1],[1,1],[1,0],[0,2],[1,1],[2,1],[0,1],[1,0],[1,1],[0,1],[13,0],[0,-1],[1,-1],[1,0],[1,-1],[-1,-1],[0,-1],[-1,0],[1,-1],[4,-2],[1,0],[2,-1],[0,-1],[5,0],[2,-1],[0,-1],[2,-1],[1,0],[0,-1],[2,0],[1,-2],[2,-1],[3,1],[1,0],[1,-1],[5,0],[1,-1],[2,-1],[0,-1],[2,-1],[2,1],[1,-1],[2,0],[-1,-1],[0,-1],[1,0],[0,-1],[1,0],[1,-1],[0,-2],[1,0],[4,-2],[0,-1],[4,0],[0,2],[1,1],[10,0],[1,-2],[2,0],[1,-1],[1,0],[0,-1],[1,1],[2,-2],[2,0],[2,-1],[0,-2],[1,0],[1,1],[1,0],[2,2],[0,1],[1,0],[0,1],[1,0],[2,2],[0,-1],[1,0],[-1,-1],[0,-1],[1,0],[0,-1],[2,0],[0,-1],[2,1],[1,0],[1,-1],[0,1],[3,1],[3,0],[3,-1],[4,0],[1,1],[0,1],[-1,0],[-4,2],[0,1],[7,0],[0,1],[1,0],[0,1],[2,0],[2,2],[4,0],[0,1],[1,1],[2,1],[2,-1],[0,-2],[1,-1],[1,0],[1,-1],[2,-1],[1,-1],[3,0],[0,1],[3,0],[0,-1],[1,0],[0,1],[1,-1],[0,-1],[-1,0],[0,-2]],[[467,713],[0,1],[-1,1],[0,1],[5,0],[0,-1],[1,-1],[-3,0],[-1,-1],[-1,0]],[[377,581],[-1,0],[-1,1],[0,1],[2,0],[0,-1],[-1,0],[1,-1]],[[361,589],[0,-1],[-1,0],[-3,3],[-1,0],[0,1],[1,0],[0,2],[1,0],[3,-3],[0,-1],[1,-1],[-1,0]],[[320,629],[0,0],[0,-2],[-2,0],[-1,-1],[0,0],[0,-1],[1,0],[1,-1],[1,0],[0,-2],[-1,-1],[-1,1],[-3,0],[0,1],[-1,0],[0,2],[-1,1],[-3,0],[0,-1],[1,0],[0,-1],[-1,0],[0,2],[-1,0],[-1,-1],[0,-1],[-2,0],[0,1],[-3,0],[0,-2],[-1,0],[-2,1],[-3,0],[0,-1],[-1,0],[-1,1],[-2,1],[-1,1],[0,2],[2,2],[7,0],[0,-1],[1,0],[1,-1],[1,0],[0,1],[1,0],[1,1],[-1,0],[1,1],[5,0],[-1,-1],[2,-1],[1,0],[1,1],[0,1],[2,2],[0,1],[2,2],[1,-1],[0,-1],[1,0],[1,-1],[-2,-2],[0,-1],[1,0],[0,-1]],[[311,588],[-3,0],[0,1],[0,0],[0,2],[2,0],[1,-1],[0,-2]],[[306,631],[-1,0],[0,1],[1,0],[0,-1]],[[291,611],[1,0],[0,-1],[-1,-1],[-2,1],[-1,0],[-1,1],[3,0],[0,3],[1,-1],[0,-2]],[[275,683],[-1,0],[0,1],[2,0],[-1,-1]],[[269,648],[-1,-1],[-1,0],[-1,2],[1,2],[0,1],[1,0],[1,1],[0,-1],[1,0],[0,-3],[-1,-1]],[[437,949],[-2,-2],[1,-1],[5,0],[1,-1],[0,-2],[-2,-1],[-1,0],[-1,-1],[0,-2],[-1,-1],[0,-1],[-1,0],[-1,-1],[-1,1],[-2,-1],[1,-1],[2,0],[0,-1],[1,-1],[1,0],[0,-1],[1,0],[0,-1],[-1,0],[0,-2],[1,-1],[2,0],[1,1],[1,0],[0,-2],[1,0],[2,-1],[-1,-1],[0,-1],[1,0],[1,-2],[2,0],[0,-1],[-1,0],[0,-1],[-2,0],[0,-2],[-2,-1],[0,-1],[-1,-1],[-4,0],[-1,-1],[-5,0],[-1,-1],[0,1],[-4,0],[-1,-1],[-1,0],[0,-2],[1,-1],[0,-1],[-2,0],[-1,-1],[1,0],[1,-1],[-1,0],[-1,-1],[1,0],[0,-1],[1,-1],[0,-2],[-6,0],[-1,1],[-1,-1],[-1,2],[0,2],[-7,0],[-1,-1],[-1,0],[-2,-1],[0,-1],[-5,0],[-1,1],[0,-3],[1,0],[-1,-1],[-1,0]],[[397,900],[1,0]],[[398,900],[0,-1],[-1,0],[0,-1]],[[396,898],[1,0]],[[397,898],[0,-1],[-1,0],[-1,1],[-1,0],[0,1],[-1,0],[0,-1],[-4,0],[0,-1],[-1,-1],[1,-1],[-2,0],[0,-1],[1,0],[-1,-1],[0,-1],[-1,0],[0,-1],[-2,-1],[0,-1],[-1,0],[0,-1],[1,0],[0,-2],[-1,0],[-1,1],[0,-5],[-2,-1],[-1,-1],[0,-1],[-1,-1],[-1,1],[-2,0],[-2,1],[-1,1],[-1,-1],[-2,0],[0,1],[-1,0],[0,-1],[-1,0],[0,-1],[-1,0],[0,-1],[-1,-1],[0,2],[-1,-1],[-1,0],[0,-1],[-2,0],[-1,1],[0,1],[1,0],[-2,1],[-2,0],[-1,1],[-2,0],[2,2],[0,2],[1,0],[1,1],[-1,1],[0,1],[1,1],[-1,0],[-3,2]],[[354,891],[-7,0],[0,-1],[-1,1],[-5,0],[-1,-1],[-1,0],[-1,1],[0,-3],[-4,0],[-2,-1],[-3,-1],[-1,1],[0,1],[-1,0],[1,1],[1,0],[-1,1],[-2,0],[0,2],[-1,1],[1,0],[0,1],[-1,1],[0,1],[1,1],[0,1],[-1,1],[0,1],[-1,0],[0,2],[-1,0],[-2,1],[0,1],[1,0],[0,2],[1,1],[1,0],[0,3],[1,1],[1,0],[3,3],[1,2],[0,1],[-1,0],[1,1],[0,1],[1,0],[-1,1],[0,1],[-1,0],[1,2],[1,1],[0,1],[1,0],[0,4],[-2,0],[2,2],[-1,1],[0,1],[-4,1],[0,2],[2,0],[1,1],[1,0],[2,1],[1,0],[2,2],[-1,1],[0,2],[1,1]],[[336,944],[1,-1],[2,1],[3,0],[1,1],[1,0],[2,2],[2,0],[0,-1],[1,0],[1,-2],[1,-1],[6,0],[0,1],[1,-1],[2,0],[2,1],[0,1],[4,2],[2,-1],[0,-1],[2,0],[1,-2],[0,1],[1,0],[1,-1],[1,0],[-2,4],[0,1],[-1,1]],[[371,949],[-1,0]],[[370,949],[2,0],[2,2],[1,-2],[0,-1],[2,0],[0,-1],[4,0],[0,1],[1,0],[1,1],[2,-1],[0,-2],[1,0],[0,-2],[-1,0],[1,-1],[-1,-1],[0,-4],[-1,0],[0,-1],[1,0],[-1,-1],[-1,0],[1,-1],[0,-2],[-1,0],[-1,-2],[-1,0],[0,-1],[-2,0],[0,-1],[1,0],[2,-2],[1,0]],[[383,927],[1,0],[0,-1],[-1,0],[0,1]],[[383,927],[-1,-1],[0,-1],[1,-1],[2,0],[3,1],[1,1],[1,0],[2,1],[1,0],[1,1],[0,1],[-1,0],[1,1],[2,1],[0,-2],[1,0],[0,-1],[4,0],[-2,2],[-2,0],[1,1],[2,0],[1,1],[0,1],[2,0],[2,1],[1,0],[0,1],[1,0],[1,1]],[[408,936],[-1,0]],[[407,936],[4,0],[1,-1],[2,0],[0,1],[1,2],[3,0],[0,2],[1,2],[0,1],[1,1],[0,2],[1,0],[1,1],[-1,0],[0,1]],[[420,948],[1,0]],[[421,948],[5,0],[1,1],[2,0],[1,-1],[3,1],[1,0],[0,1],[2,1],[1,-1],[0,-1]],[[515,680],[-1,0]],[[514,680],[0,-1],[1,0],[0,-1],[1,0],[0,-1],[2,-2],[0,-1],[1,0],[0,-2],[-1,-1],[1,-1],[1,0],[1,-1],[0,-2],[1,-1],[0,-1],[2,0],[0,-4],[-1,-1],[-1,0],[-1,-1],[1,-2],[3,0],[1,-1],[0,-1],[1,0],[-1,-2],[0,-2],[1,-1],[0,-2]],[[527,648],[0,1]],[[527,649],[-1,-2],[1,0],[1,-2],[-1,-1],[1,-1],[1,0],[1,-1],[1,0],[0,-1],[1,-1],[1,0],[0,-5],[1,0],[1,1],[0,3],[1,0],[0,-1],[1,0],[2,1],[1,1],[2,-2],[1,0],[2,-1],[0,-1],[2,-2],[1,-2],[1,0],[2,1],[0,-1],[1,1],[1,0],[2,1],[0,1],[1,-1],[1,-3],[0,-2],[-1,-2],[0,-1],[-1,0],[0,1],[-2,0],[0,-1],[-1,0],[0,-2]],[[552,624],[-1,0]],[[551,624],[0,-3],[-1,-1],[0,-1]],[[551,619],[-1,0]],[[550,619],[0,-1],[-1,-1],[-2,-1],[0,1],[-2,0],[0,-1],[-1,-1],[-4,-1],[-2,1],[-1,0],[-1,-1],[-5,0],[-2,-2],[-2,2],[-2,-1],[0,-1],[1,0],[0,-3],[-1,0],[-1,-1],[-1,0],[-2,-1],[-1,-1],[-1,0],[0,1],[-2,-1],[-1,0],[0,-1],[-1,0],[-1,-1],[-3,0],[1,-2],[2,-1],[-1,0],[-1,-1],[-2,0],[0,-1],[-1,0],[-1,-1],[-1,0],[-2,2],[0,1],[-1,0],[-1,-1],[0,-4],[-1,0],[0,-1],[-3,-2],[-2,0],[-1,-1],[-1,0],[-1,1],[1,1],[0,1],[-4,0],[-1,-1],[0,1]],[[489,595],[1,0]],[[490,595],[0,1],[1,1],[-5,0],[0,1]],[[487,598],[-1,0]],[[486,598],[0,2],[1,0],[-1,1],[0,1],[1,0],[-1,1],[-2,0],[-3,-2],[-2,2],[-1,0],[-1,-1],[-1,0],[0,1],[1,0],[0,1],[-2,0],[0,2],[-1,0],[0,1],[1,0],[-1,2],[-2,1],[-1,1],[1,0],[0,2],[-1,0],[0,1],[1,1],[-2,0],[0,1],[-2,1],[0,1],[-1,0],[-2,1],[-1,-1],[0,-1],[-2,0],[0,-1],[-1,0],[0,1],[-1,1],[0,-1],[-2,0],[-2,-1],[-2,0],[-1,1],[-1,0],[0,1],[-3,1],[-3,0],[1,1],[-1,1],[-1,0],[1,1],[1,0],[0,1],[1,0],[1,1],[0,1],[1,0],[0,1],[-2,0],[-1,1],[-1,0],[-1,1],[0,1],[-1,1],[0,1],[-1,1]],[[443,632],[-1,1],[2,1],[1,1],[3,0],[0,3],[-2,0],[0,3],[1,1],[0,3],[1,0],[1,3],[0,2],[1,1],[-1,1],[-2,0],[0,-1],[-1,0],[-1,2],[0,1],[-1,4],[1,0],[0,2],[1,0],[4,2],[3,0],[1,1],[0,2],[1,1],[0,1],[-1,1],[4,0],[0,-1],[1,0],[2,1],[3,0],[0,1],[2,1],[1,0],[2,1],[1,1],[-2,2],[-1,-2],[-1,-1],[-2,0],[-2,1],[0,1],[1,1],[0,2],[-1,1],[0,1],[-1,0],[-1,1],[-1,-1],[-1,0],[-1,1],[1,1],[0,1],[-4,0],[0,2],[1,0],[1,1],[2,0],[2,1],[0,1],[1,1],[2,0],[0,1],[-1,0],[0,1],[-2,0],[-1,1],[0,2],[2,0],[2,1],[1,-1],[1,2],[0,1],[2,2],[1,0],[0,2],[1,0]],[[469,699],[1,-1],[2,0],[1,-1],[1,1],[2,0],[0,-1],[1,1],[2,0],[0,1],[2,0],[0,1],[2,-1],[-1,0],[0,-2],[1,0],[-3,-3],[-2,0],[0,-1],[1,-1],[2,-1],[1,1],[2,0],[0,-1],[1,-1],[0,1],[2,2],[1,0],[2,-2],[1,0],[1,1],[1,-1],[2,-1],[0,-1],[2,-1],[3,-3],[2,-1],[1,0],[0,-1],[1,0],[-1,-1],[2,1],[0,1],[4,0],[0,-1],[2,0],[0,2],[2,2],[1,0],[1,-1],[1,0],[0,-3],[1,-1],[-1,-1],[-1,0],[-1,-1]],[[486,698],[1,1],[1,0],[0,-1],[-2,0]]]}