{"type":"Topology","objects":{"data":{"geometries":[{"properties":{"index":1704,"nuts_1_code":"ITG","nuts_1_name":"Isole"},"type":"MultiPolygon","arcs":[[[0]],[[1]],[[2]],[[3]],[[4]],[[5]],[[6]],[[7]],[[8]],[[9]],[[10]],[[11]],[[12]],[[13]],[[14]],[[15]],[[16]],[[17]],[[18]],[[19]],[[20]],[[-30,21]],[[22]],[[23]],[[24]],[[25]],[[26]],[[27]],[[28]],[[29,-30]],[[30]],[[31]],[[32]],[[33]],[[34]],[[35]],[[36]],[[37]],[[38]],[[39]],[[40]],[[41]],[[42]],[[43]],[[44]],[[45]]],"id":0},{"properties":{"index":1706,"nuts_1_code":"ITF","nuts_1_name":"Sud"},"type":"MultiPolygon","arcs":[[[-50,46,-121,-120,119,-119,47]],[[48]],[[49,50]],[[51]],[[52]],[[53]],[[54]],[[55]],[[56]],[[57]],[[58]],[[59]],[[60]],[[61]],[[62]],[[63]]],"id":1},{"properties":{"index":1712,"nuts_1_code":"ITH","nuts_1_name":"Nord-Est"},"type":"MultiPolygon","arcs":[[[-78,64,-117,-116,115,-115,65,-113,-112,111,-111,109,-123,-146,-145,144,-144,-143,142,-142,-141,140,-140,-139,138,-138,66],[128]],[[67]],[[68]],[[69]],[[70]],[[71]],[[72]],[[-76,73]],[[74,75]],[[76]],[[77,78]],[[79]],[[80]],[[81]],[[82]],[[83]],[[84]],[[85]],[[86]],[[87]],[[88]],[[89]],[[90]],[[91]],[[92]],[[93]],[[94]],[[95]],[[96]],[[97]],[[98]],[[99]],[[100]],[[101]],[[102]],[[103]],[[104]],[[105]],[[106]],[[107]],[[108]],[[150]],[[151]]],"id":2},{"properties":{"index":1715,"nuts_1_code":"ITI","nuts_1_name":"Centro (IT)"},"type":"MultiPolygon","arcs":[[[109,110,-112,111,112,113,114,-116,115,116,117,118,-120,119,120,121,-149,147,-147,122],[123]],[[124]],[[125]],[[126]],[[127]],[[128]],[[129]],[[130]],[[131]],[[132]],[[133]],[[134]],[[135]],[[136]]],"id":3},{"properties":{"index":1721,"nuts_1_code":"ITC","nuts_1_name":"Nord-Ovest"},"type":"MultiPolygon","arcs":[[[137,-139,138,139,-141,140,141,-143,142,143,-145,144,145,146,147,148,149],[150],[151]],[[152]],[[153]],[[154]]],"id":4}],"type":"GeometryCollection"}},"bbox":[6.627491707650364,35.49394673619746,18.519515918532733,47.09169707978525],"transform":{"scale":[0.01190392813902139,0.011609359703291081],"translate":[6.627491707650364,35.49394673619746]},"arcs":[[[725,199],[-2,-1],[-1,-2],[0,-1],[-1,0],[0,-3],[1,-1],[-2,-2],[0,-3],[-2,-2],[0,-5],[-1,-1],[-1,0],[-4,-4],[0,-1],[-1,0],[0,-15],[2,-2],[3,0],[1,-1],[2,0],[0,-1],[1,0],[0,1],[1,0],[0,-1],[3,-2],[0,-1],[1,0],[0,-1],[-2,0],[0,1],[-1,-1],[0,1],[-1,0],[-1,-1],[-1,0],[1,-1],[-1,-1],[0,-2],[1,0],[0,-3],[2,0],[0,-2],[1,-1],[3,-1],[2,0],[0,-1],[1,-1],[-1,-1],[0,-1],[-2,0],[0,-1],[1,-1],[3,0],[0,-1],[2,-2],[-2,0],[-1,1],[-2,-1],[-1,0],[0,-1],[-2,-2],[-3,0],[0,-1],[-2,-1],[-1,-1],[0,-1],[-1,0],[-1,-1],[-1,-3],[0,-1],[-1,0],[-2,-2],[0,-1],[1,-1],[-1,-1],[-1,0],[1,-1],[-1,-1],[1,-1],[0,-1],[1,-1],[1,-2],[0,-2],[1,-1],[0,-1],[-1,-1],[0,1],[-1,0],[-3,-3],[0,1],[-2,1],[0,1],[-1,0],[-1,2],[-3,0],[-2,-1],[-1,0],[-1,1],[-3,2],[-2,0],[-1,1],[-1,-1],[-2,0],[-1,-1],[-3,0],[-1,-1],[0,1],[-2,0],[-1,1],[-1,-1],[0,1],[-2,0],[0,-1],[-2,1],[-1,1],[-2,1],[-1,1],[-1,0],[-6,2],[-5,0],[-1,2],[-1,0],[0,1],[-1,0],[0,2],[-1,2],[0,1],[-1,0],[0,1],[-1,0],[0,2],[-1,0],[0,1],[-5,5],[-1,2],[-4,3],[-6,3],[-1,0],[-1,1],[-2,1],[-5,1],[-13,0],[-2,-1],[-3,0],[-2,1],[-1,0],[-1,2],[-2,1],[-5,0],[-4,2],[-1,1],[-2,1],[-2,0],[0,2],[-1,0],[-2,2],[-1,0],[-1,2],[-2,0],[-1,1],[0,1],[-4,0],[-1,1],[-2,0],[0,-1],[-1,1],[-2,0],[0,1],[-2,0],[-1,1],[0,1],[-1,0],[-1,1],[-1,0],[-2,2],[-3,0],[0,1],[-1,0],[-1,1],[-2,0],[0,1],[-1,2],[-2,1],[-1,1],[0,1],[-1,1],[-1,0],[-1,1],[-2,1],[-1,1],[-1,-1],[-1,0],[-1,1],[-6,0],[-2,-1],[0,1],[-1,1],[-1,2],[-3,2],[-1,1],[-4,0],[-4,1],[-7,0],[-6,-2],[-2,0],[-1,1],[-1,0],[-2,3],[-1,1],[0,1],[-2,2],[-1,0],[-2,1],[-1,0],[-1,-1],[-1,1],[-2,1],[0,1],[-1,0],[-1,1],[0,4],[-2,3],[-2,2],[1,1],[2,0],[1,1],[-1,1],[0,1],[1,0],[1,2],[0,1],[-1,0],[0,1],[-1,1],[1,2],[1,0],[1,2],[0,2],[1,1],[0,2],[-1,0],[2,1],[1,1],[2,1],[0,1],[2,1],[2,0],[0,-1],[1,1],[3,1],[1,1],[0,1],[1,1],[1,-1],[2,0],[1,2],[1,1],[0,1],[-2,2],[1,1],[1,0],[0,-1],[3,0],[0,-2],[1,0],[1,-1],[0,-3],[1,-2],[3,-2],[1,0],[0,-1],[1,0],[1,-1],[0,-1],[6,0],[2,1],[5,2],[1,1],[1,0],[2,1],[0,1],[-1,1],[0,2],[-1,1],[1,0],[0,1],[1,0],[0,2],[2,1],[5,0],[0,-1],[1,-1],[1,0],[3,1],[2,2],[2,0],[2,1],[0,1],[2,0],[1,-1],[0,-1],[1,-1],[2,0],[0,-2],[1,-1],[-1,-1],[0,-1],[3,-3],[7,0],[2,1],[0,1],[2,-1],[0,0],[1,-1],[0,-2],[-1,0],[3,-3],[3,-1],[1,-1],[2,0],[0,-1],[2,0],[1,-1],[2,0],[1,-1],[2,0],[1,-1],[2,1],[5,0],[2,1],[5,2],[2,1],[1,1],[0,-1],[1,0],[1,1],[1,-1],[1,1],[4,0],[0,-1],[4,0],[0,-1],[3,0],[1,1],[1,0],[2,-1],[0,1],[1,0],[4,-1],[3,0],[2,-1],[3,1],[3,0],[2,1],[1,0],[1,1],[5,0],[5,1],[2,1],[3,0],[1,1],[2,0],[4,2],[6,6],[1,-1],[4,0],[3,1],[3,0],[1,1],[1,0],[0,1],[1,0],[3,-1],[0,-1],[1,0],[0,-1],[7,0],[1,-1],[0,-1],[1,0],[1,-1],[1,0],[1,1],[1,0],[5,2],[4,4],[0,1],[2,3],[-1,0],[0,2],[2,-2],[-1,-1],[0,-1],[1,-1],[7,0],[1,1],[2,0],[1,1],[3,1],[2,0],[2,2],[6,3],[1,0],[2,-2],[3,0],[2,-1],[1,0],[-3,-1],[-1,0],[-2,-1],[-2,-4],[0,-1],[1,0],[-1,-1],[0,-1],[-3,-3],[-2,-3],[0,-2],[-2,-1],[-1,-1],[0,-1],[-1,-1],[-1,0],[0,-1],[-4,-4],[0,-1],[-1,0],[-2,-2],[0,-1],[-5,-5],[1,-1],[-2,0],[0,-1],[-1,-1],[0,-1],[-1,0],[0,-1]],[[724,142],[-1,0],[-1,1],[1,0],[1,-1]],[[722,283],[0,-1],[-1,1],[-1,0],[0,1],[-1,0],[2,2],[2,0],[0,-1],[1,0],[-2,-2]],[[722,149],[0,0],[-1,1],[1,0],[0,-1]],[[709,270],[-1,0],[0,1],[1,1],[1,-1],[0,-1],[-1,0]],[[709,228],[0,0]],[[704,248],[-1,-1],[-2,1],[-1,1],[-1,0],[0,1],[-1,1],[1,1],[1,0],[0,1],[1,0],[-1,-1],[1,-1],[1,0],[1,-1],[0,-1],[1,-1]],[[700,261],[0,-3],[2,0],[-1,-1],[-1,0],[0,-3],[-1,0],[-1,1],[0,1],[-2,0],[-1,1],[0,3],[1,0],[0,1],[4,0]],[[693,266],[-1,0],[1,-1],[0,-1],[-1,-1],[0,-1],[-2,0],[-1,1],[-2,1],[-1,0],[0,1],[1,0],[0,1],[6,0]],[[669,264],[-3,0],[-1,1],[0,1],[3,0],[0,-2],[1,0]],[[650,262],[-2,0],[0,1],[1,1],[1,0],[0,-2]],[[551,276],[-1,-1],[-1,0],[-1,1],[0,1],[1,0],[1,1],[1,0],[1,-1],[-1,-1]],[[526,31],[-3,0],[0,2],[2,0],[0,-1],[1,-1]],[[499,3],[2,-1],[1,1],[1,-1],[1,0],[0,-2],[-2,0],[0,1],[-1,-1],[-2,1],[-1,1],[-3,0],[1,1],[3,0]],[[491,204],[-1,0],[0,1],[1,0],[0,-1]],[[489,203],[-1,3],[-1,1],[2,0],[0,-4]],[[477,212],[2,-2],[1,0],[1,-1],[1,0],[0,-1],[-1,0],[-2,1],[-4,0],[-1,1],[1,1],[1,0],[1,1]],[[481,215],[-2,0],[-1,1],[0,1],[1,0],[0,1],[1,-1],[0,-1],[1,-1]],[[478,209],[0,0]],[[459,211],[-1,0],[0,1],[-3,0],[0,1],[-1,2],[3,0],[0,-1],[1,-1],[1,-2]],[[451,114],[1,1],[2,-1],[2,-2],[0,-3],[-1,-1],[-2,-1],[-2,0],[-6,6],[0,1],[2,2],[2,0],[2,-2]],[[242,468],[-1,-1],[6,0],[1,-1],[2,0],[0,1],[3,0],[-2,-2],[2,-2],[1,1],[1,0],[-1,-1],[0,-1],[3,0],[1,-1],[2,0],[-1,-1],[-2,0],[0,-2],[-1,0],[0,-2],[1,-2],[1,-1],[2,0],[-1,-1],[1,-1],[-1,-1],[0,-1],[1,0],[3,-3],[-1,-1],[0,-4],[1,0],[0,-1],[1,-1],[0,-1],[1,0],[1,-1],[0,-2],[2,-1],[1,0],[0,-2],[-2,-3],[-1,-3],[-1,0],[-1,-1],[0,-2],[-1,-1],[0,-1],[-1,0],[-2,-1],[-2,-2],[-2,-1],[0,-1],[-1,0],[-3,-4],[0,-7],[1,-1],[0,-1],[1,-1],[0,-1],[4,-4],[2,-1],[1,0],[0,-1],[-1,-1],[0,-2],[-2,-2],[0,-2],[-1,-1],[0,-3],[1,-1],[1,0],[0,-1],[-2,-2],[0,-4],[1,-1],[-1,0],[0,-1],[-1,-4],[-1,-2],[1,-1],[0,-5],[-1,0],[0,-2],[-1,-1],[0,-4],[1,-3],[-1,-1],[0,-2],[-1,0],[-1,-4],[1,0],[0,-5],[-2,-2],[-1,-4],[0,-4],[2,-2],[-1,0],[-3,-3],[-1,-2],[0,-5],[1,0],[0,-1],[-1,0],[0,-2],[-2,-2],[-2,-1],[0,-2],[-1,1],[0,2],[-1,0],[-1,1],[-1,-1],[-4,0],[-1,1],[-2,0],[0,2],[-2,1],[-1,0],[-1,2],[-2,0],[0,1],[-4,0],[-1,1],[-2,0],[-1,1],[-1,-1],[-2,0],[-2,-2],[0,-1],[-2,0],[-2,2],[-1,0],[-1,1],[0,-1],[-1,0],[-1,1],[-1,0],[2,-2],[-1,0],[-2,-2],[-2,-1],[0,-1],[-1,-3],[1,-1],[0,-1],[1,-1],[1,-2],[0,-1],[-2,-2],[0,-3],[-2,0],[0,-1],[-7,-5],[-1,-1],[-2,-1],[-2,-2],[-1,0],[0,1],[-1,0],[-1,1],[-1,0],[-1,-1],[-1,1],[0,1],[-1,1],[-2,0],[-2,1],[-1,-1],[-1,0],[-2,-1],[-1,0],[0,-1],[-1,0],[0,-1],[1,0],[0,-1],[-2,-1],[0,1],[1,0],[-1,1],[1,1],[-4,0],[0,1],[1,0],[0,2],[1,0],[-1,2],[-1,1],[-1,-1],[0,1],[-1,1],[0,1],[-1,0],[0,2],[1,0],[0,1],[-1,1],[0,1],[-2,0],[-1,1],[-4,0],[-1,1],[1,1],[0,1],[-1,1],[0,1],[-3,0],[0,4],[-2,1],[0,-2],[-1,2],[0,2],[-1,0],[-1,1],[-1,0],[0,2],[2,1],[2,2],[1,0],[1,2],[0,2],[-2,2],[-1,0],[-1,2],[-1,1],[0,1],[1,1],[1,0],[0,1],[1,1],[0,2],[-2,0],[0,1],[-1,0],[1,1],[0,1],[2,2],[3,4],[1,2],[0,2],[1,1],[-2,2],[0,3],[1,1],[-1,0],[0,2],[1,1],[-1,0],[0,5],[1,0],[1,-1],[0,-1],[2,-2],[0,-1],[1,1],[0,1],[1,1],[-1,1],[2,1],[1,2],[1,3],[0,3],[1,0],[-2,1],[0,1],[-1,1],[0,1],[-5,0],[-3,-3],[0,1],[-1,1],[-1,0],[0,1],[-1,0],[0,5],[-1,1],[2,2],[0,2],[-1,1],[-2,0],[2,2],[1,-1],[1,0],[1,1],[0,-1],[1,0],[2,1],[1,2],[1,1],[-1,1],[0,1],[-1,1],[-1,2],[0,4],[1,0],[-1,1],[0,2],[1,1],[0,1],[1,1],[0,2],[-1,1],[-1,0],[0,2],[-2,0],[-1,1],[-3,0],[0,1],[-1,1],[1,1],[1,2],[0,3],[-1,1],[0,1],[-1,3],[-1,1],[-2,0],[0,1],[-1,2],[-1,1],[0,2],[-1,2],[-3,0],[0,-1],[-2,0],[0,-1],[-4,0],[0,1],[1,0],[0,1],[1,1],[-1,1],[-2,0],[0,-1],[-1,0],[-1,-1],[1,0],[0,-1],[-1,0],[0,0],[-1,0],[0,2],[-1,1],[0,1],[2,0],[0,1],[2,0],[0,2],[1,1],[0,1],[-2,1],[0,1],[-1,0],[-1,1],[0,1],[-1,0],[0,1],[1,0],[0,1],[1,1],[0,3],[1,0],[0,1],[1,0],[1,1],[0,1],[1,1],[1,2],[0,2],[-1,1],[-2,1],[0,1],[-1,1],[1,1],[1,2],[1,-1],[2,-1],[0,-4],[3,-3],[1,0],[2,-1],[1,-1],[2,0],[1,-1],[4,0],[1,1],[1,-1],[1,0],[2,-1],[7,0],[3,1],[2,2],[2,1],[0,1],[2,1],[2,0],[0,1],[2,1],[6,0],[2,1],[1,0],[1,1],[0,1],[2,1],[2,2],[1,2],[0,1],[1,0],[-1,1],[4,0],[0,1],[1,0],[5,5],[1,2],[2,0],[1,1],[1,0],[0,-1],[2,0],[4,2],[-1,1],[3,0],[2,2],[-1,0],[0,1],[-1,0],[1,2],[0,2],[3,0],[2,1],[2,0],[2,-1],[0,-1],[1,-1],[-1,-2],[1,0],[0,1],[1,1],[0,-2],[2,0],[1,-1],[1,1],[0,0],[0,1],[2,0],[0,-2],[3,0],[0,-1],[1,1],[1,-1],[-1,-1],[1,0],[0,-1],[1,0],[0,-4],[1,0],[0,1],[1,1],[1,0],[0,1],[1,0],[0,1],[1,0],[1,-1],[1,1],[0,1],[1,-1],[0,-1],[1,0],[0,-2],[1,1],[1,-1],[0,-1],[-2,-2],[0,1],[-1,-2],[0,-1],[-1,0],[0,-2],[-1,-2],[1,0],[1,1],[-1,0],[1,1],[2,0],[0,-2],[3,0],[0,1],[1,0],[2,-1],[2,0],[1,-1],[-1,-1],[-1,0],[-1,1],[-1,0],[-2,-1],[-1,0],[0,-1],[1,0],[0,-1],[-2,-2],[1,-1],[-5,0]],[[261,462],[-2,1],[1,1],[1,0],[1,-1],[-1,-1]],[[260,466],[-2,-1],[-1,0],[1,1],[3,2],[1,-1],[-1,0],[-1,-1]],[[261,461],[0,0]],[[257,465],[0,0]],[[250,481],[0,-1],[-1,1],[1,0]],[[248,480],[0,0]],[[244,309],[0,0]],[[242,468],[1,0]],[[239,491],[-1,-1],[-1,1],[0,-1],[-1,0],[0,1],[1,1],[0,2],[1,0],[0,1],[2,0],[0,-2],[-1,-1],[0,-1]],[[240,490],[0,0]],[[239,489],[-1,0],[1,1],[0,-1]],[[235,497],[0,-1],[1,0],[0,-3],[-2,0],[-1,-1],[-1,0],[-1,1],[0,1],[1,0],[0,1],[1,0],[0,1],[1,0],[0,1],[1,0]],[[235,491],[-1,0],[0,0],[-1,0],[1,1],[1,0],[0,-1]],[[233,497],[0,0]],[[229,500],[1,0],[1,1],[0,-1],[0,0],[-1,-1],[0,1],[-2,0],[-1,1],[1,0],[1,-1]],[[229,498],[-1,1],[2,0],[-1,-1]],[[229,494],[-1,0],[-1,1],[0,1],[2,0],[1,-1],[-1,-1]],[[226,491],[0,0]],[[213,495],[-1,-1],[-1,0],[0,1],[2,0]],[[147,311],[4,0],[1,-1],[1,0],[1,-1],[0,-2],[1,0],[-1,-1],[0,-1],[-1,-1],[0,-3],[-1,-1],[1,-1],[-3,0],[0,-1],[-1,1],[0,1],[-1,1],[-1,2],[0,1],[-1,0],[0,2],[-1,2],[0,3],[1,0],[0,1],[1,0],[0,-1]],[[152,377],[0,0]],[[144,480],[-1,-1],[-2,0],[-2,1],[-1,-1],[-1,0],[1,-1],[-2,-1],[-1,0],[2,-2],[0,-2],[-4,0],[0,2],[1,1],[0,2],[2,0],[1,1],[0,1],[1,0],[0,1],[1,0],[0,1],[-1,1],[3,0],[0,1],[2,0],[0,-1],[1,0],[0,-3]],[[141,318],[0,-4],[0,0],[0,-3],[-1,-1],[-2,0],[0,1],[-2,0],[0,1],[1,0],[-2,2],[-1,0],[0,2],[2,0],[0,1],[2,0],[0,1],[1,-1],[0,1],[1,-1],[1,1]],[[134,472],[-1,0],[1,1],[0,-1]],[[956,444],[1,-1],[0,-1],[1,-2],[1,0],[0,-2],[-1,-1],[2,-2],[1,0],[1,-1],[0,-1],[2,0],[3,-3],[3,0],[2,-2],[1,0],[1,-1],[1,0],[4,-4],[1,0],[1,-1],[0,-1],[1,-1],[2,-1],[1,0],[0,-1],[3,-3],[2,-1],[1,-1],[1,0],[0,-2],[1,-1],[1,-2],[0,-3],[1,0],[0,-1],[1,-1],[0,-1],[1,-1],[1,0],[1,-1],[-1,0],[0,-1],[1,-1],[0,-1],[-2,-1],[-1,-1],[0,-1],[-1,-2],[-1,-1],[-1,0],[-1,-1],[0,-2],[-2,0],[0,-2],[-1,-1],[-1,-4],[0,-1],[1,0],[0,-3],[-1,0],[0,-5],[-2,-2],[0,1],[-1,-1],[-1,0],[-2,2],[-1,0],[-1,1],[-1,0],[-1,1],[-6,0],[-1,1],[-1,0],[-1,1],[-1,0],[-2,2],[-1,0],[-2,2],[-2,1],[-1,1],[-1,0],[0,1],[-3,3],[-1,2],[1,0],[1,1],[0,2],[-2,2],[0,0],[1,1],[0,4],[-2,2],[-1,0],[0,1],[-1,0],[0,1],[-1,1],[-1,0],[-1,1],[0,1],[-1,0],[1,1],[0,2],[-1,0],[0,1],[0,0],[-1,1],[-1,0],[0,1],[-1,0],[0,1],[-1,0],[-1,1],[-1,0],[0,-1],[-2,1],[-4,0],[-1,1],[-21,0],[-1,1],[-3,0],[-2,2],[-4,0],[-1,1],[-2,1],[-2,0],[-1,1],[-1,0],[-1,1],[-1,0],[-4,2],[-2,0],[-1,1],[1,0],[1,1],[1,0],[1,1],[0,2],[-2,1],[-3,0],[0,1],[-1,1],[-1,0],[0,1],[-1,-1],[0,1],[-2,1],[-5,0],[-4,-1],[-6,-3],[-3,-3],[-1,0],[0,-1],[-1,0],[0,-1],[-1,0],[0,-1],[-1,0],[0,-1],[-4,-4],[-3,-4],[-1,-1],[-2,-4],[-1,-3],[-1,-2],[-5,-5],[-2,-1],[-3,-3],[0,-6],[1,-2],[0,-1],[1,-1],[0,-1],[-1,0],[-1,-2],[-2,-2],[-3,-2],[0,-1],[-3,-3],[-1,-2],[0,-1],[-1,-2],[0,-2],[2,-2],[1,0],[1,-1],[-1,-3],[1,-1],[-1,0],[0,-1],[2,0],[0,-1],[4,-2],[2,0],[2,-1],[3,1],[1,0],[1,-1],[4,0],[1,1],[1,0],[4,-3],[0,-1],[1,-1],[0,-1],[3,-1],[1,-1],[2,-1],[1,0],[2,-1],[1,-1],[1,0],[5,-1],[2,-3],[2,-2],[4,-2],[2,0],[1,-1],[0,-1],[-1,-1],[-1,-2],[0,-1],[-1,-1],[0,-3],[-1,-1],[0,-2],[4,-4],[0,-1],[-1,-2],[-1,-1],[-1,-2],[0,-4],[1,-1],[0,0],[0,-1],[2,-2],[2,-1],[1,-1],[0,0],[-2,-2],[0,-3],[1,-1],[-1,0],[-4,-4],[-1,0],[-1,-1],[0,1],[-2,1],[-3,0],[0,-1],[-1,0],[-3,3],[-2,0],[-6,-1],[-1,0],[-5,-2],[-2,0],[-3,-2],[-10,-5],[-2,0],[0,-1],[-4,-4],[0,-1],[-1,-1],[0,-1],[-1,0],[-1,-2],[2,-2],[0,-6],[1,-1],[0,-6],[1,-3],[0,-4],[-1,-2],[0,-1],[-2,-1],[0,-1],[-2,-2],[-3,-2],[-2,-1],[-1,0],[-1,-1],[-7,-2],[-1,0],[-1,-1],[-1,0],[-3,-3],[0,-1],[-5,-5],[-2,-3],[-1,0],[-2,-2],[0,-1],[-1,-4],[0,-2],[-1,0],[0,-2],[-3,-6],[-2,-1],[-1,-2],[-11,0],[-1,1],[-4,0],[-1,-1],[-9,0],[-1,1],[-3,0],[-1,2],[-2,0],[-2,3],[-1,1],[0,1],[2,2],[-1,1],[0,2],[-1,0],[-1,2],[0,1],[1,0],[1,1],[0,4],[-1,1],[0,5],[2,0],[0,1],[2,0],[1,1],[4,0],[4,2],[3,3],[0,2],[1,2],[1,1],[0,1],[1,0],[0,1],[2,4],[1,0],[1,1],[0,2],[-1,-2],[0,-1],[1,3],[0,2],[1,1],[0,3],[-4,4],[-1,0],[-2,2],[-1,0],[0,1],[1,2],[1,1],[2,1],[2,0],[0,1],[4,0],[1,1],[0,1],[1,1],[4,0],[1,1],[4,-1],[2,-1],[1,1],[3,0],[0,1],[1,0],[1,1],[1,0],[3,9],[0,5],[-1,2],[-1,0],[-2,1],[-1,1],[-1,0],[0,1],[-2,3],[-2,2],[-1,2],[-1,4],[0,2],[-1,1],[0,5],[-1,3],[0,5],[-1,4],[0,1],[-1,1],[-3,9],[-1,0],[-2,2],[-1,2],[-2,2],[-1,0],[0,1],[-1,0],[-1,1],[-1,0],[0,1],[-1,2],[0,1],[-1,1],[0,2],[-1,0],[-1,3],[0,1],[-1,0],[-1,3],[0,3],[-1,2],[0,3],[-1,1],[0,2],[-1,0],[1,1],[1,0],[0,2],[-1,0],[0,2],[-1,1],[-1,2],[-1,0],[0,1],[-1,0],[0,1],[-1,2],[-2,2],[-1,0],[0,1],[-1,0],[0,2],[-1,1],[-1,0],[-2,1],[0,1],[-2,0],[-2,1],[-4,-1],[-1,0],[-2,-1],[0,-1],[-2,0],[0,-1],[-1,0],[-3,-3],[0,-1],[-1,1],[-5,0],[0,1],[-1,0],[-2,2],[-2,0],[0,-1],[-2,0],[0,1],[1,0],[0,3],[-2,1],[-3,3],[-1,0],[0,1],[-2,0],[-4,4],[-6,0],[0,-1],[-2,1],[-1,0],[-1,2],[-2,2],[-2,0],[-2,1],[-2,0],[-2,2],[1,1],[2,0],[1,1],[0,3],[-1,1],[1,1],[2,0],[0,1],[1,0],[1,1],[0,3],[-1,2],[-3,5],[0,1],[-2,2],[-2,3],[-1,3],[-7,7],[-2,1],[-5,0],[-1,-1],[0,-1],[-1,0],[0,-1],[-3,0],[-2,1],[-1,0],[-1,-1],[-1,0],[-2,-2],[-5,0],[-1,1],[-3,0],[-2,-1],[-2,0],[-2,-2],[-1,0],[-3,-1],[-1,-1],[0,1],[-1,-1],[-1,1],[1,1],[-1,0],[1,1],[0,1],[1,0],[0,1],[1,0],[0,0],[1,0],[2,1],[1,0],[0,1],[1,0],[-1,1],[1,0],[2,1],[0,1],[3,1],[1,0],[0,1],[-1,2],[-2,2],[-3,0],[-1,1],[-4,2],[-3,3],[-2,1],[-1,0],[-1,1],[-1,-1],[-3,0],[-1,-2],[0,-1],[-2,-1],[-1,1],[0,1],[-1,1],[-4,0],[-1,1],[-1,0],[-1,-1],[0,-3],[-3,0],[0,8],[-2,4],[-5,5],[0,1],[-3,2],[0,1],[-3,6],[-1,0],[0,1],[-2,2],[-1,2],[-2,2],[-1,0],[-1,2],[-3,1]],[[612,637],[1,0],[0,-2],[1,-2],[0,-2],[2,-3],[0,-1],[1,-1],[3,-6],[0,-1],[3,-2],[0,-1],[1,-2],[3,-4],[2,-2],[3,-2],[5,-5],[2,0],[2,-2],[5,-4],[3,-1],[2,-1],[1,-1],[1,0],[1,-1],[0,-1],[1,-1],[0,-1],[1,-1],[3,-1],[0,-1],[2,-1],[0,-1],[1,0],[0,-1],[2,-1],[1,0],[2,-1],[3,-2],[8,-2],[2,-2],[0,-4],[1,-1],[1,-2],[3,-1],[1,0],[3,-2],[6,-2],[5,-1],[3,0],[1,-1],[2,-1],[3,-3],[2,-1],[2,0],[2,-1],[3,0],[4,-1],[4,1],[2,0],[3,-1],[1,0],[1,-1],[9,0],[5,1],[6,1],[6,0],[1,-1],[5,0],[7,1],[10,1],[4,1],[6,0],[3,-1],[1,-1],[2,-1],[2,0],[0,-1],[1,-1],[1,0],[0,-3],[1,-1],[0,-1],[1,-1],[0,-3],[-1,0],[0,-1],[-1,-1],[-1,0],[0,-1],[-1,0],[-1,-1],[-2,0],[0,-1],[-1,0],[-1,-1],[-1,0],[-1,-1],[0,-1],[-1,0],[-1,-1],[-2,-1],[-1,0],[-1,-1],[-5,-2],[-3,-1],[0,-7],[2,-4],[3,-3],[3,-2],[2,-1],[10,-4],[3,-1],[4,-2],[1,0],[3,-2],[2,0],[5,-1],[1,-1],[1,0],[2,-1],[1,0],[1,-1],[1,0],[1,-1],[2,-1],[3,0],[0,-1],[2,0],[0,-1],[2,0],[2,-2],[2,0],[1,-1],[5,0],[2,-2],[3,0],[3,-1],[1,0],[2,-2],[4,0],[0,-1],[1,1],[1,0],[0,-1],[5,-1],[1,-1],[1,0],[1,-1],[5,-1],[2,0],[3,-1],[1,-1],[4,-2],[2,0],[3,-3],[2,0],[0,-1],[2,0],[0,-1],[2,0],[0,-1],[2,-1],[2,-2],[2,-1],[0,-1],[3,-1],[2,-2],[3,-1],[2,-1],[0,-1],[4,-2],[4,-1],[5,-2],[8,-2],[2,-2],[2,-1],[2,0],[1,-1],[3,-1],[4,-1],[4,0],[2,-2],[-1,-1],[4,0]],[[957,443],[0,0]],[[956,444],[-1,0]],[[955,444],[0,1],[1,0],[0,-1]],[[954,393],[0,0]],[[953,445],[0,0]],[[885,427],[-1,-1],[-1,1],[2,0]],[[747,572],[0,-1],[0,0],[0,1]],[[747,572],[0,0]],[[746,571],[0,0]],[[745,570],[-1,-1],[-1,1],[1,1],[1,0],[0,-1]],[[639,436],[3,0],[-1,-1],[-4,0],[-1,-1],[0,2],[3,0]],[[633,457],[0,0]],[[622,454],[-1,-2],[-1,0],[-1,1],[1,1],[2,0]],[[619,453],[0,-1],[0,0],[0,1]],[[617,451],[0,0]],[[609,453],[0,1],[1,-1],[3,0],[1,-1],[1,0],[1,-2],[0,-1],[-2,0],[-1,-1],[-2,1],[0,-1],[-2,0],[-1,1],[-1,0],[1,1],[-1,1],[0,1],[1,0],[0,1],[1,1],[0,-1]],[[497,862],[1,-1],[2,0],[-1,1],[2,0],[1,1],[2,0],[0,2],[-3,0],[0,-1],[-1,0],[1,1],[0,1],[-1,0],[-1,1],[-2,0],[0,1],[-6,-1],[-1,-1],[-1,0],[0,-1],[-1,0],[0,-1],[-1,0],[0,1],[-1,1],[0,-1],[-1,0],[-1,-1],[-1,0],[-3,-3],[-1,0],[0,1],[-2,-2],[-2,0],[0,-1],[-1,-1],[-1,0],[0,-3],[-2,0],[-3,-1],[-3,-2],[1,0],[1,-1],[-1,-1],[-2,2],[-1,0],[1,-1],[0,-1],[-1,-1],[0,-3],[-1,-1],[0,-4],[2,1],[1,-1],[4,0],[0,-1],[-1,-1],[1,-1],[1,-2],[-1,0],[3,-1],[2,0],[0,1],[-1,1],[1,0],[0,1],[1,0],[0,-1],[-1,0],[1,-1],[1,2],[0,-1],[1,-1],[0,-1],[2,-2],[0,-6],[2,-2],[0,-1],[-1,0],[0,1],[-1,1],[0,2],[-1,0],[0,2],[-2,1],[0,-2],[-2,0],[0,-1],[-1,-1],[2,-1],[1,0],[1,-1],[-1,0],[-1,-1],[2,-1],[2,0],[0,-1],[-2,-2],[0,-2],[1,-2],[3,3],[1,0],[1,-1],[0,1],[2,0],[1,1],[0,1],[1,0],[4,-4],[2,-1],[0,-1],[-1,-2],[0,-3],[-1,-1],[-1,0],[0,-4],[0,0],[-2,1],[0,4],[-2,0],[-2,-2],[0,-1],[1,-1],[0,-2],[1,-1],[0,-2],[-1,0],[-1,-1],[-1,0],[-4,1],[1,1],[1,0],[-3,3],[-3,0],[-1,-1],[0,-1],[1,0],[0,-1],[-2,-2],[0,-1],[-1,-1],[-1,-5],[1,-1],[0,-1],[2,-4],[1,-1],[0,-9],[1,-4],[0,-1],[2,-4],[1,-4],[0,-2],[2,-3],[0,-2],[1,-2],[2,-3],[5,-5],[0,-1],[5,-3],[4,-4],[2,0],[4,-4],[5,-3],[1,-1],[2,-1],[2,0]],[[492,724],[1,1],[0,1],[1,0],[0,1],[1,1],[-1,0],[0,3],[1,0],[-1,1],[-1,-1],[-2,0],[-2,-1],[-1,-1],[-3,0],[0,-1],[1,0],[0,-4],[2,0],[0,1],[1,-1],[1,0]],[[321,951],[1,1],[1,0],[0,2],[1,0],[0,3],[1,1],[-4,2],[-4,0],[-1,1],[0,2],[-1,1],[1,0],[1,1],[0,1],[1,0],[0,1],[-1,1],[3,2],[1,1],[-1,1],[-1,0],[0,2],[2,0],[1,1],[0,3],[1,0],[0,1],[1,0],[1,-1],[5,0],[0,-1],[1,1],[2,0],[0,1],[3,0],[1,1],[4,0],[1,-1],[0,-1],[1,0],[1,-1],[3,0],[0,-1],[-1,-1],[0,-1],[-2,0],[1,-1],[4,0],[2,-1],[3,0],[2,-1],[3,0],[2,1],[2,0],[2,-1],[4,0],[1,2],[2,2],[2,1],[0,1],[-1,0],[1,1],[-1,0],[0,1],[3,3],[-1,1],[1,1],[1,0],[0,1],[3,0],[1,1],[0,2],[2,0],[1,1],[0,-1],[4,0],[0,1],[3,0],[1,1],[5,0],[4,-2],[1,0],[2,1],[1,0],[0,1],[1,1],[1,0],[1,1],[1,0],[1,-1],[2,-1],[1,0],[3,1],[1,1],[3,0],[1,-1],[2,-1],[2,1],[2,-1],[1,-1],[2,-1],[2,1],[0,1],[3,0],[2,1],[2,0],[1,1],[1,0],[1,1],[2,1],[3,0],[1,1],[6,0],[1,1],[3,0],[0,1],[2,1],[1,-1],[2,1],[1,0],[3,1],[3,-1],[2,-1],[-2,-1],[-1,-1],[0,-2],[-5,0],[-2,-1],[0,-2],[1,-1],[0,-1],[-1,0],[1,-1],[2,0],[0,-2],[-1,-1],[-1,0],[2,-1],[2,0],[1,-1],[0,-1],[2,-1],[0,1],[1,0],[0,1],[1,0],[2,-1],[1,0],[0,-1],[1,-1],[0,-1],[1,0],[0,-1],[-2,-2],[1,-1],[-1,-1],[0,-1],[2,0],[0,1],[2,-1],[2,0],[1,-2],[0,-1],[1,-2],[1,0],[2,-2],[1,0],[1,-1],[3,0],[1,-1],[1,0],[0,1],[2,-1],[1,0],[1,-1],[1,0],[1,-1],[2,0],[1,1],[2,0],[1,-1],[1,0],[1,1],[2,0],[1,-1],[1,0],[1,-1],[2,0],[1,1],[2,0],[1,-1],[1,0],[0,-1],[3,0],[-1,-1],[1,-1],[4,0],[3,1],[2,-1],[6,0],[1,-1],[2,0],[1,1],[2,0],[1,-1],[6,0],[0,-1],[2,-1],[2,0],[1,-1],[8,0],[1,1],[2,0],[1,1],[1,0],[2,-1],[0,-1],[5,0],[3,1],[0,-1],[1,-1],[1,0],[1,1],[2,-1],[0,-1],[1,0],[0,1],[4,0],[3,-2],[4,0],[0,-1],[-1,-1],[0,-1],[1,-1],[-1,-1],[0,-2],[-9,0],[-1,-1],[0,-2],[-1,-1],[-2,0],[-1,-1],[-1,0],[-2,-1],[-1,0],[-1,-1],[-3,0],[0,-1],[1,0],[0,-1],[-1,-1],[-1,0],[-1,-1],[0,-1],[-3,0],[0,-1],[1,0],[0,-2],[1,-2],[1,0],[0,-1],[0,0],[0,-2],[3,0],[0,1],[7,0],[0,-1],[2,0],[1,-1],[0,-1],[8,0],[0,-1],[-1,-1],[0,-1],[-1,-1],[0,-1],[-1,0],[-2,-1],[-2,-2],[-1,0],[-1,-1],[-1,0],[-1,-1],[-2,-1],[-1,0],[0,-1],[1,0],[-1,-3],[-1,0],[-1,-1],[2,-1],[0,-1],[3,0],[0,-1],[3,0],[2,2],[4,0],[0,-4],[-2,-3],[-1,-1],[-1,0],[0,-2],[-1,-2],[1,-1],[0,-3],[6,0],[1,-1],[1,0],[2,-1],[1,-1],[2,-1],[1,0],[1,-1],[2,0],[1,-1],[0,-1],[2,-1],[0,-2],[2,-1],[2,-2],[1,0],[1,-1],[1,0],[0,-1],[-2,-1],[-1,0],[-1,-1],[0,-1],[-1,0],[0,-1],[-6,0],[-3,1],[-2,0],[0,1],[5,0],[0,-1],[2,1],[-1,1],[-1,0],[-1,1],[0,0],[0,0],[-1,0],[0,1],[-1,0],[1,1],[1,0],[-2,3],[-1,1],[-2,0],[0,1],[-3,2],[-1,1],[-2,1],[0,1],[-3,0],[-2,2],[0,-1],[-2,0],[-1,1],[-1,0],[0,-2],[-1,-1],[0,-1],[1,-1],[2,0],[0,-1],[-2,0],[-4,-1],[-1,0],[-2,-2],[-2,-1],[-4,0],[0,1],[1,0],[1,-1],[0,1],[4,0],[0,1],[1,1],[-1,1],[-1,0],[-1,-1],[-2,1],[-1,0],[-2,1],[-1,0],[-3,1],[-4,0],[0,1],[-1,-1],[-2,1],[-1,0],[0,1],[-4,0],[0,-1],[-1,1],[0,-1],[-2,0],[0,1],[-1,0],[-2,-2],[0,-1],[-1,0],[0,-1],[-1,0],[0,-1],[-1,0],[1,-1],[0,-1],[5,0],[1,1],[0,-1],[-2,-1],[-1,0],[0,-1],[-1,-2],[-1,0],[-1,-1],[-8,0],[-5,-1],[-1,0],[-2,-2],[-7,-3],[-2,0],[-2,-1],[-3,-2],[-1,0],[-2,-1],[-6,-2],[-2,-1],[-2,0],[-8,-3],[-2,0],[0,-1],[-1,-1],[-1,1],[0,1],[3,3],[1,0],[0,1],[1,0],[0,1],[4,0]],[[581,887],[0,0]],[[571,879],[0,0]],[[567,881],[0,0]],[[564,878],[0,0]],[[560,880],[-2,0],[1,1],[3,0],[1,-1],[-3,0]],[[560,881],[0,0]],[[556,880],[-3,0],[2,1],[1,0]],[[556,881],[1,0],[0,-1],[-1,0]],[[556,880],[0,1]],[[550,880],[-1,-1],[-1,0],[1,1],[1,0]],[[497,862],[-1,0]],[[496,862],[0,1],[1,0],[0,-1]],[[497,864],[0,0]],[[496,867],[0,0]],[[491,862],[0,0]],[[490,863],[0,-1],[-1,1],[1,0]],[[489,863],[0,-1],[-1,0],[0,1],[1,0]],[[488,804],[-1,0],[1,1],[0,-1]],[[485,857],[-1,0],[0,1],[1,0],[2,2],[0,-2],[-2,-1]],[[486,861],[0,0],[0,1],[1,0],[-1,-1]],[[485,820],[-1,0],[1,1],[0,-1]],[[479,850],[0,-2],[-2,0],[0,1],[2,0],[0,1],[1,1],[2,4],[1,0],[1,1],[0,0],[-2,-3],[-3,-3]],[[484,820],[0,0]],[[484,823],[0,0]],[[483,856],[-1,0],[1,1],[1,0],[-1,-1]],[[483,822],[-1,1],[1,0],[0,-1]],[[483,824],[0,0]],[[482,824],[0,0]],[[482,857],[0,-1],[-4,0],[-1,1],[5,0]],[[481,858],[-1,0],[0,1],[1,0],[1,-1],[-1,0]],[[481,823],[0,-1],[-1,1],[1,0]],[[481,821],[0,0]],[[480,855],[0,0]],[[480,855],[-1,0],[1,1],[0,-1]],[[480,854],[0,0]],[[479,852],[0,0]],[[477,845],[0,1],[2,2],[0,-1],[-2,-2]],[[479,854],[0,0]],[[478,818],[0,0]],[[478,802],[-1,-1],[0,1],[1,0]],[[476,840],[0,-1],[-1,0],[1,1]],[[466,850],[0,0]],[[418,743],[-1,0],[-1,-1],[2,1]],[[418,743],[1,0],[2,-1],[1,0],[0,-1],[2,2],[5,0],[1,1],[1,-1],[-2,-2],[0,-1],[-2,-1],[0,-1],[-1,-1],[0,-1],[-1,-1],[-2,-1],[0,-1],[-1,0],[0,-2],[2,-2],[2,0],[-1,-2],[1,0],[1,-1],[1,0],[-1,-1],[0,-3],[1,0],[1,-1],[4,-1],[3,-3],[2,-1],[1,1],[1,0],[1,-1],[2,0],[1,1],[0,-2],[3,0],[0,-2],[3,-1],[1,0],[1,1],[1,-1],[3,0],[0,-1],[1,0],[1,-1],[2,1],[3,0],[1,1],[1,0],[1,-1],[2,-1],[0,1],[1,0],[0,1],[2,0],[1,-1],[1,0],[0,1]],[[472,712],[1,0]],[[473,712],[2,0],[1,2],[-1,1],[2,0],[0,1],[3,0],[1,-1],[1,1],[0,1],[2,0],[1,1],[-1,0],[0,2],[1,1],[0,1],[5,0],[0,2]],[[490,724],[2,0]],[[492,724],[0,-1],[1,-1],[3,0],[1,-1],[1,0],[1,1],[0,1],[2,0],[0,-2],[1,0],[0,-2],[1,0],[0,-1],[1,-1],[1,1],[4,0],[-1,1],[1,1],[1,0],[2,1],[1,0],[0,1],[-1,0],[1,1],[0,2]],[[512,725],[1,0]],[[513,725],[0,1],[-1,0],[1,1],[1,0],[0,2],[1,0],[-1,1]],[[514,730],[5,0],[0,-1],[7,-3],[2,0],[0,-1],[4,-3],[4,-2],[1,0],[1,-1],[12,-8],[4,-2],[0,-1],[2,-1],[5,-3],[4,-1],[1,-1],[2,0],[2,-2],[1,0],[2,-1],[4,0],[0,1],[1,0],[0,1],[2,-1],[3,-3],[0,-1],[1,-1],[2,0],[2,-1],[0,-4],[1,-3],[2,-3],[1,-3],[2,-3],[0,-1],[2,-3],[1,0],[0,-1],[1,-1],[3,-5],[2,-6],[3,-6],[0,-2],[1,-1],[0,-1],[2,-8],[1,-1],[2,-5]],[[612,637],[-5,0],[-2,-1],[-1,0],[-1,-1],[-1,0],[-2,-1],[-5,0],[0,-1],[-1,-1],[0,-1],[-1,0],[-2,-1],[-3,0],[0,1],[-1,-1],[-3,0],[0,-1],[-1,1],[-2,0],[0,1],[-1,0],[0,-2],[-1,0],[-1,-2],[0,-2],[-2,-2],[-1,1],[-1,0],[-1,-1],[-1,0],[0,-2],[-1,0],[-2,-1],[-4,0],[0,-2],[1,-2],[4,0],[-2,-2],[1,-1],[-1,-1],[0,-1],[-1,-1],[-8,0],[0,1],[-2,0],[-1,-1],[-1,0],[-1,1],[-3,0],[0,-1],[-1,-1],[0,-2],[-2,0],[1,-2],[1,0],[0,-3],[-2,-2],[-1,0],[-2,-1],[3,-3],[2,0],[0,-1],[1,0],[1,-1],[-1,-1],[-1,0],[0,-1],[-1,0],[-1,-1],[2,-1],[1,-1],[1,0],[2,-1],[0,-1],[1,-2],[0,-1],[1,0],[0,-1],[1,0],[1,-1],[0,-1],[1,0],[1,-1],[4,0],[0,-1],[-1,-1],[1,0],[1,-1],[2,0],[0,-1],[-3,0],[1,-1],[-2,0],[0,-1],[-1,-1],[-1,0],[0,-1],[-4,0],[-1,-1],[-2,2],[-1,0],[-1,1],[-2,0],[0,-1],[-1,1],[-2,1],[-1,1],[-3,0],[0,-2],[-1,-1],[0,-1],[-1,0],[-1,-1],[-1,0]],[[539,570],[0,1]],[[539,571],[-1,0],[0,-2],[-1,0],[0,-3],[1,0],[0,-2],[1,0],[0,-2],[1,0],[1,-1],[3,0],[0,1],[-1,0],[1,1],[3,-1],[2,-1],[3,-2],[3,0],[0,-1],[3,0],[1,-1],[0,-1],[2,0],[2,-1],[1,-1],[2,0],[2,-2],[-1,0],[0,-2],[-1,-1],[0,-3],[1,0],[0,-1],[1,0],[1,1],[3,0],[2,-2],[2,-1],[2,0],[0,-1],[1,0],[0,-1],[2,-1],[2,0],[0,-1],[2,1],[1,1],[1,0],[1,1],[1,0],[0,1],[1,1],[3,0],[0,-1],[1,-1],[1,0],[0,1],[2,0],[0,-1],[1,-1],[0,-1],[1,-1],[3,-1],[0,1],[2,0],[0,-1],[3,0],[0,-1],[3,0],[0,1],[1,-1],[0,-1],[2,0],[0,-2],[1,0],[1,-1],[2,-1],[1,-1],[0,-1],[1,-1],[0,-1],[1,-1],[0,-2],[-1,-1],[1,0],[-1,-1],[2,0],[0,-2],[-1,0],[1,-1],[0,-1],[-1,0],[-1,-1],[-2,-1],[1,-1],[1,0],[-2,-2],[-2,0],[-1,-2],[-2,0],[0,-1],[-3,0],[-1,-1],[1,-1],[1,0],[-1,-1],[1,-1],[-1,0],[-1,-1],[1,0],[0,-3],[1,-1],[0,-3],[-1,0],[-1,1],[0,-1],[-1,0],[-1,-1],[-1,0],[0,-2],[-1,-1],[-4,0],[-1,-2]],[[599,493],[-2,2],[-1,0],[-1,1],[-2,0],[0,-1],[-1,1],[-2,0],[-2,1],[-1,0],[-3,-2],[-1,0],[0,-2],[1,0],[0,-1],[-3,0],[-1,1],[-1,0],[0,1],[-1,0],[-2,1],[-2,0],[-1,1],[-4,2],[-1,0],[-4,1],[-5,1],[-1,0],[-1,-1],[-3,0],[-3,-1],[-2,0],[-2,-1],[-3,-2],[0,-1],[-1,0],[-2,-1],[-2,1],[-1,1],[0,2],[-2,2],[-2,4],[-6,4],[-6,3],[-7,0],[-8,4],[-2,-1],[-2,0],[0,1],[-2,2],[-1,2],[-11,11],[-3,2],[-4,3],[-3,1],[-6,3],[-3,0],[0,1],[0,0],[0,3],[-3,6],[-2,3],[0,1],[-1,0],[-2,2],[-1,0],[-2,1],[-1,1],[-1,0],[-1,1],[-1,0],[-1,2],[-2,0],[0,1],[-3,0],[-1,2],[-4,2],[-3,0],[0,-1],[-3,0],[-3,3],[0,2],[-1,0],[-2,2],[0,1],[-1,0],[-1,1],[0,1],[-1,1],[0,2],[-1,0],[-2,4],[0,1],[-1,0],[-5,5],[-2,1],[-5,3],[-8,3],[-6,1],[-5,1],[-1,0],[0,1],[-1,-1],[-1,1],[-2,1],[-3,-1],[-1,0],[0,-2],[-1,-1],[-1,0],[0,-1],[-3,0],[-1,1],[-1,0],[0,1],[-3,0],[0,4],[1,1],[1,0],[0,-1],[5,0],[1,2],[0,5],[-1,2],[-2,2],[-1,0],[-1,-1],[-1,1],[-1,2],[0,2],[-2,0],[0,1],[1,0],[-1,1],[-1,0],[-4,2],[-2,2],[0,2],[-1,1],[-3,2],[-9,3],[-5,0],[-3,2],[-1,0],[0,1],[2,0],[1,2],[0,3],[1,1],[0,2],[-2,2],[-4,2],[-4,0],[-4,1],[-3,-1],[-2,0],[0,-1],[-1,0],[0,-1],[-2,0],[-1,1],[-1,0],[-1,3],[0,2],[2,0],[1,1],[-1,0],[1,1],[1,3],[1,5],[0,5],[-1,5],[-3,6],[-1,1],[-2,1],[0,1],[-1,1],[0,2],[-1,1],[0,1],[-1,0],[0,1],[-2,0],[0,2],[-3,3],[-1,0],[-1,1],[-1,0],[0,1],[-1,3],[-2,2],[1,1],[-1,0],[1,2],[-1,1],[0,2],[-1,1],[0,2],[-1,2],[0,1],[1,0],[0,4],[-1,2],[0,3],[-1,3],[-2,3],[1,1],[-2,2],[-1,2],[-2,3],[-8,6],[-3,1],[-1,1],[-1,0],[-1,1]],[[257,764],[3,2],[1,-1],[1,1],[1,0],[0,2],[1,1],[2,1],[0,1],[1,0],[1,1],[0,1],[13,0],[0,-1],[1,-1],[1,0],[1,-1],[-1,-1],[0,-1],[-1,0],[1,-1],[4,-2],[1,0],[2,-1],[0,-1],[5,0],[2,-1],[0,-1],[2,-1],[1,0],[0,-1],[2,0],[1,-2],[2,-1],[3,1],[1,0],[1,-1],[5,0],[1,-1],[2,-1],[0,-1],[2,-1],[2,1],[1,-1],[2,0],[-1,-1],[0,-1],[1,0],[0,-1],[1,0],[1,-1],[0,-2],[1,0],[4,-2],[0,-1],[4,0],[0,2],[1,1],[10,0],[1,-2],[2,0],[1,-1],[1,0],[0,-1],[1,1],[2,-2],[2,0],[2,-1],[0,-2],[1,0],[1,1],[1,0],[2,2],[0,1],[1,0],[0,1],[1,0],[2,2],[0,-1],[1,0],[-1,-1],[0,-1],[1,0],[0,-1],[2,0],[0,-1],[2,1],[1,0],[1,-1],[0,1],[3,1],[3,0],[3,-1],[4,0],[1,1],[0,1],[-1,0],[-4,2],[0,1],[7,0],[0,1],[1,0],[0,1],[2,0],[2,2],[4,0],[0,1],[1,1],[2,1],[2,-1],[0,-2],[1,-1],[1,0],[1,-1],[2,-1],[1,-1],[3,0],[0,1],[3,0],[0,-1],[1,0],[0,1],[1,-1],[0,-1],[-1,0],[0,-2]],[[489,552],[0,0]],[[571,456],[-1,0],[1,1],[1,0],[-1,-1]],[[541,472],[-1,-1],[-1,1],[2,0]],[[532,465],[0,-1],[-1,0],[0,1],[-1,1],[3,3],[1,0],[-1,-2],[-1,-1],[0,-1]],[[524,468],[-1,0],[0,2],[1,0],[0,-2]],[[467,713],[0,1],[-1,1],[0,1],[5,0],[0,-1],[1,-1],[-3,0],[-1,-1],[-1,0]],[[377,581],[-1,0],[-1,1],[0,1],[2,0],[0,-1],[-1,0],[1,-1]],[[361,589],[0,-1],[-1,0],[-3,3],[-1,0],[0,1],[1,0],[0,2],[1,0],[3,-3],[0,-1],[1,-1],[-1,0]],[[320,629],[0,0],[0,-2],[-2,0],[-1,-1],[0,0],[0,-1],[1,0],[1,-1],[1,0],[0,-2],[-1,-1],[-1,1],[-3,0],[0,1],[-1,0],[0,2],[-1,1],[-3,0],[0,-1],[1,0],[0,-1],[-1,0],[0,2],[-1,0],[-1,-1],[0,-1],[-2,0],[0,1],[-3,0],[0,-2],[-1,0],[-2,1],[-3,0],[0,-1],[-1,0],[-1,1],[-2,1],[-1,1],[0,2],[2,2],[7,0],[0,-1],[1,0],[1,-1],[1,0],[0,1],[1,0],[1,1],[-1,0],[1,1],[5,0],[-1,-1],[2,-1],[1,0],[1,1],[0,1],[2,2],[0,1],[2,2],[1,-1],[0,-1],[1,0],[1,-1],[-2,-2],[0,-1],[1,0],[0,-1]],[[311,588],[-3,0],[0,1],[0,0],[0,2],[2,0],[1,-1],[0,-2]],[[306,631],[-1,0],[0,1],[1,0],[0,-1]],[[291,611],[1,0],[0,-1],[-1,-1],[-2,1],[-1,0],[-1,1],[3,0],[0,3],[1,-1],[0,-2]],[[275,683],[-1,0],[0,1],[2,0],[-1,-1]],[[269,648],[-1,-1],[-1,0],[-1,2],[1,2],[0,1],[1,0],[1,1],[0,-1],[1,0],[0,-3],[-1,-1]],[[321,951],[1,-2],[1,-1],[2,0],[4,-1],[1,0],[2,-1],[1,-1],[1,0],[2,-1],[-1,-1],[0,-2],[1,-1],[-2,-2],[-1,0],[-2,-1],[-1,0],[-1,-1],[-2,0],[0,-2],[4,-1],[0,-1],[1,-1],[-2,-2],[2,0],[0,-4],[-1,0],[0,-1],[-1,-1],[-1,-2],[1,0],[0,-1],[1,-1],[-1,0],[0,-1],[-1,-1],[1,0],[0,-1],[-1,-2],[-3,-3],[-1,0],[-1,-1],[0,-3],[-1,0],[-1,-1],[0,-2],[-1,0],[0,-1],[2,-1],[1,0],[0,-2],[1,0],[0,-1],[1,-1],[0,-1],[-1,-1],[0,-1],[1,-1],[0,-1],[-1,0],[1,-1],[0,-2],[2,0],[1,-1],[-1,0],[-1,-1],[1,0],[0,-1],[1,-1],[3,1],[2,1],[4,0],[0,3],[1,-1],[1,0],[1,1],[5,0],[1,-1],[0,1],[7,0],[-1,-2],[-2,-1],[0,-1],[-4,-4],[-3,-4],[-1,-2],[-1,0],[-1,-1],[0,-1],[-5,-4],[0,-3],[1,-3],[0,-7],[1,-1]],[[336,857],[2,0]],[[338,857],[0,-2]],[[337,855],[1,0]],[[338,855],[1,1],[4,-1],[1,-2],[-1,-1],[-1,0],[0,-1],[1,0],[0,-1],[-1,0],[-1,-1],[0,-1],[2,0],[0,-2],[2,0],[0,-1],[-1,-1],[2,0],[1,1],[2,1],[3,-2],[3,-3],[2,0],[0,-1],[2,0],[0,-1],[3,0],[0,-2],[3,0],[2,-1],[0,-4],[4,0],[0,-2],[-1,0],[0,-1],[2,-1],[1,0],[0,-1],[3,0],[-1,1],[4,0],[0,1],[1,1],[0,-1],[1,0],[2,-1],[2,0],[-3,-1],[0,-1]],[[383,826],[-1,0]],[[382,826],[0,-2],[3,0],[2,-1],[2,0],[1,1],[0,-4],[4,0],[0,-1],[1,-1],[2,0],[1,-1],[2,0],[0,-1],[2,0],[1,-1],[-2,-1],[0,1],[-6,0],[0,1],[-1,-1],[-1,1],[0,-1],[-2,0],[0,-1],[-1,0],[-2,1],[-1,-1],[-2,0],[-1,-1],[-2,1],[-1,0],[-1,-1],[-2,2],[-3,0],[-2,1],[0,-1],[-1,-1],[-1,1],[-4,0],[-1,-1],[-1,0],[-1,-1],[-1,0],[-1,-1],[-3,0],[-1,-1],[0,1],[-2,0],[0,1],[-1,0],[0,-1],[-1,1],[-3,0],[0,1],[-5,0],[0,2],[-1,2],[-2,0],[0,-2],[-1,0]],[[341,816],[1,0]],[[342,816],[0,1],[-1,1],[0,-1],[-1,0],[-2,-2],[0,-1],[-2,-1],[0,-1],[-1,0],[-2,-1],[-6,0],[-1,1],[-1,0],[0,1],[-3,0],[-2,1],[-1,1],[-1,2],[-2,0],[-2,-1],[-1,0],[-2,1],[-1,0],[-1,1],[0,1],[-3,0],[-2,2],[-3,1],[-1,-1],[-1,0],[-2,2],[-1,-1],[-2,-1],[-3,0],[-1,1],[0,1],[-1,0],[-1,-1],[0,1],[-2,2],[-1,0],[0,1],[1,0],[0,1],[-1,0],[0,1],[-3,2],[-2,0],[-2,-2],[-2,-1],[0,1],[1,1],[0,1],[-1,1],[-1,-1],[-2,0],[0,-2],[1,0],[1,-1],[0,-1],[-1,-1],[-1,0],[-1,1],[0,1],[-3,0],[0,-4],[-1,1],[0,2],[-2,0],[-1,1],[-1,0],[0,1],[-1,1],[-1,-1],[1,-2],[-1,0],[0,-1],[-1,0],[-1,-1],[-1,0],[-2,1],[-1,1],[-3,0],[-1,1],[1,1],[0,2],[-2,0],[0,-2],[-2,-1],[0,1],[-2,0],[0,1],[-1,1],[-2,0],[0,-1],[2,-2],[-1,-1],[-2,0],[0,1],[-1,1],[-1,0],[-1,-1],[-4,0],[0,-1],[-2,0],[0,-1],[-1,0],[-1,-1],[-2,-1],[1,-1],[-1,-1],[1,0],[-1,-1],[0,-1],[-2,0],[0,-3],[-3,-3],[-2,0],[1,-1],[0,-1],[-1,0],[0,-1],[2,-2],[3,0],[0,-2],[1,-1],[0,-1],[1,0],[-2,-2],[-2,0],[0,-2],[-1,0],[-2,-1],[0,-1],[2,-1],[1,0],[1,-1],[0,-1],[-1,0],[0,-1],[-1,-1],[1,0],[1,-1],[-2,0],[-1,-1],[-1,0],[0,1],[-2,-1],[0,2],[-2,1],[0,-1],[1,-1],[-4,0],[0,-1],[1,-1],[-1,-1],[0,-3],[4,0],[1,-1],[-1,0],[0,-1],[3,0],[0,1],[2,0],[0,-1],[1,0],[2,-1],[3,0],[0,-1],[1,1],[1,0],[0,1],[2,0],[0,-2],[2,0],[0,-1],[4,0],[-1,-1],[2,-2],[0,-1],[-1,0],[0,-3],[-2,0],[0,-1],[-1,-1],[0,-1],[-1,-1],[-1,0],[0,-1],[3,0],[0,-1],[1,0],[0,1],[2,0],[3,1],[6,0],[2,-2],[1,0],[1,-1],[0,-1],[1,-2],[1,0]],[[257,764],[2,0],[1,-1],[0,-1],[1,-1],[1,0],[1,-1],[0,-1],[1,0],[1,-1],[2,-1],[2,0],[1,-1],[1,0],[1,-2],[-1,-1],[1,-1],[1,0],[-1,-1],[-1,-2],[1,-1],[1,1],[0,1],[1,1],[2,0],[0,-1],[2,0],[-2,-2],[-1,0],[-1,-1],[7,0],[0,-1],[1,-1],[-1,0],[1,-2],[1,0],[0,-1]],[[283,742],[-1,-1],[1,0],[0,1]],[[283,742],[1,0],[1,1],[2,0],[2,-2],[-1,-1],[0,-1],[-2,-1],[-1,-1]],[[285,737],[-3,0],[0,-1],[-2,0],[-1,1],[-2,1],[-1,0],[0,1],[-1,1],[-3,0],[0,1],[-1,1],[-1,0],[-2,-1],[1,-1],[0,-1],[1,0],[0,0],[1,-1],[-1,0],[-1,-1],[-1,1],[-1,0],[-3,1],[0,1],[-1,0],[-1,1],[-1,0],[0,1],[-1,0],[0,1],[-2,0],[0,1],[-3,1],[-2,0],[0,-1],[-2,2],[-1,0],[0,2],[-3,0],[0,1],[-1,0],[0,1],[-1,0],[-1,1],[-2,0],[-1,1],[0,1],[-5,0],[0,1],[-1,1],[-2,0],[0,1],[-1,0],[0,1],[-2,1],[-3,1],[-1,1],[-1,0],[-4,2],[-1,0],[-1,1],[0,-1],[-1,0],[-1,-1],[0,-2],[-2,0],[-1,1],[-2,0],[0,3],[-1,1],[-1,0],[-2,1],[-4,0],[-4,1],[-2,0],[-3,1],[-2,0],[0,1],[-1,0],[0,-1],[-4,1],[-2,0],[0,1],[-8,0],[-4,-1],[-1,0],[0,-1],[-1,0],[-1,-1],[-1,0],[-2,-1],[-1,-1],[-2,0],[-2,-1],[-3,-2],[-2,0],[-1,-1],[-1,0],[1,-1],[-1,0],[-2,-1],[-2,-2],[1,0],[0,-1],[1,0],[-1,-1],[0,-1],[-2,0],[0,-1],[-1,0],[0,-2],[1,0],[-2,-2],[-3,0],[-4,-2],[-1,0],[-3,-1],[0,-1],[-1,0],[0,-1],[-1,0],[-1,-2],[-1,-1],[0,-4],[-1,0],[-4,-4],[0,-2],[1,-1],[-1,0],[-1,-1],[-1,0],[0,-1],[-1,-1],[-3,0],[-1,-2],[-1,-1],[-2,0],[-4,-2],[-2,0],[0,-1],[-2,0],[-1,-1],[-5,0],[-1,-1],[-2,0],[0,-1],[-6,0],[-1,-1],[-1,0],[-1,-1],[-1,0],[-1,1],[-1,-1],[-1,0],[-1,-2],[-2,1],[-3,0],[-3,1],[-2,-1],[-2,0],[0,1],[-1,0],[0,1],[-1,1],[0,2],[-1,0],[0,3],[1,1],[2,0],[1,1],[2,0],[-1,1],[0,1],[1,0],[0,2],[1,0],[1,1],[2,0],[2,1],[1,0],[0,1],[2,2],[-1,0],[0,2],[1,0],[0,1],[2,0],[0,1],[1,0],[0,3],[-4,4],[1,0],[0,3],[1,1],[-5,0],[0,-2],[-5,0],[-1,-1],[-4,0],[-3,-1],[-4,0],[0,-2],[-1,1],[-5,0],[0,1],[-1,1],[-7,0],[-1,1],[0,2],[-1,0],[-1,-1],[-2,2],[-1,0],[0,1],[-1,0],[-1,1],[-1,-1],[-1,0],[-2,1],[-1,1],[-1,0],[-1,1],[-1,0],[0,-1],[-3,0],[0,1],[-2,0],[-1,1],[0,3],[-2,0],[0,1],[-1,0],[0,2],[-1,0],[-2,1],[0,2],[-2,1],[-1,0],[0,1],[1,0],[0,1],[-1,1],[1,0],[0,1],[-1,1],[3,0],[1,1],[1,0],[-1,1],[-1,0],[-2,2],[-1,0],[-1,1],[0,1],[-1,0],[0,1],[-1,2],[0,1],[1,0],[1,1],[2,0],[1,1],[0,1],[2,0],[0,3],[1,0],[0,1],[2,0],[0,1],[-1,0],[-1,1],[0,1],[1,1],[0,1],[1,0],[0,1],[7,0],[0,-1],[2,0],[-1,3],[-2,1],[-2,2],[0,2],[-2,2],[1,1],[1,2],[-1,0],[0,1],[-1,0],[-2,1],[-3,1],[-2,-2],[-1,1],[-4,0],[0,1],[-2,0],[-2,1],[0,1],[-2,0],[0,1],[-1,0],[-1,1],[-1,0],[0,1],[1,1],[-1,0],[0,1],[1,0],[0,2],[-1,2],[0,0],[0,2],[-1,0],[-1,1],[-4,0],[-1,1],[1,1],[-1,0],[0,2],[-1,0],[0,1],[-2,2],[1,1],[1,0],[2,1],[0,1],[5,0],[2,1],[1,1],[2,-1],[2,0],[2,-2],[2,0],[1,1],[1,0],[0,2],[2,0],[1,1],[2,0],[0,1],[1,0],[1,1],[-1,0],[0,1],[3,0],[0,1],[1,0],[1,-1],[0,1],[1,-1],[0,1],[2,0],[1,-1],[1,0],[0,1],[2,1],[1,1],[1,0],[1,1],[-1,1],[0,1],[1,0],[-1,1],[-1,2],[0,1],[2,0],[-1,1],[1,1],[1,0],[1,1],[0,2],[1,0],[0,1],[1,1],[-2,0],[-1,1],[-2,1],[-1,0],[0,1],[-1,1],[0,1],[-2,1],[-2,-1],[-1,1],[1,1],[-1,1],[-4,0],[1,2],[-1,1],[0,1],[-1,1],[1,1],[-2,1],[1,2],[0,1],[1,1],[0,1],[-2,1],[-5,0],[0,1],[-1,0],[0,1],[-2,0],[-3,1],[0,1],[-1,0],[-1,2],[-1,0],[1,2],[-1,0],[0,4],[1,0],[0,1],[-1,1],[1,2],[3,0],[1,-1],[0,1],[1,1],[1,0],[0,-1],[2,0],[0,1],[2,0],[1,1],[2,1],[2,0],[1,1],[0,1],[1,2],[2,0],[2,-2],[1,0],[0,-1],[2,-2],[1,0],[2,1],[1,1],[2,-2],[2,0],[0,1],[1,1],[1,0],[2,1],[1,-1],[2,1],[0,2],[3,0],[0,-1],[1,0],[1,1],[1,-1],[1,0],[1,-1],[1,0],[0,1],[2,0],[1,1],[1,0],[1,1],[2,0],[0,1],[1,1],[1,0],[0,1],[1,-1],[1,1],[0,-1],[2,0],[0,3],[3,0],[0,-1],[3,-1],[0,1],[2,-1],[1,1],[1,0],[1,-1],[0,-1],[3,0],[0,-2],[1,-1],[1,0],[1,1],[0,1],[2,0],[2,-2],[2,0],[0,1],[1,-1],[4,0],[0,1],[-1,1],[1,1],[0,2],[1,0],[2,2],[7,0],[0,1],[1,0],[0,1],[1,0],[-1,1],[1,0],[1,1],[0,1],[-1,1],[1,1],[0,2],[2,0],[4,1],[1,0],[0,1],[1,1],[2,0],[0,2],[1,1],[0,1],[-1,0],[0,2],[-1,0],[0,1],[-1,1],[-1,0],[0,1],[-1,0],[0,1],[-2,0],[2,2],[1,0],[0,1],[1,0],[1,1],[6,0],[0,1],[1,1],[0,1],[2,0],[1,1],[1,0],[-1,1],[1,1],[0,-1],[1,0],[3,2],[0,1],[-1,1],[-1,0],[0,1],[1,1],[1,-1],[1,1],[1,0],[2,2],[2,0],[4,1],[1,0],[1,-1],[0,-4],[1,-1],[-1,-1],[0,-1],[1,-1],[-1,0],[0,-3],[-1,0],[0,-1],[-1,0],[0,-1],[-1,0],[2,-2],[0,-3],[1,0],[0,-1],[2,0],[2,-1],[2,0],[0,-1],[1,-1],[1,0],[0,-1],[1,0],[0,-2],[2,0],[1,-1],[-1,0],[0,-1],[1,0],[0,-1],[1,0],[0,-1],[2,1],[1,0],[0,-1],[1,0],[1,-1],[2,0],[1,-1],[1,1],[0,1],[2,0],[1,-1],[2,-1],[2,0],[0,1],[3,-3],[1,0],[0,-1],[-1,-1],[-1,0],[0,-1],[-1,-1],[-1,0],[-1,-1],[0,-1],[-1,-1],[5,0],[0,-1],[2,-1],[1,-1],[2,0],[0,-1],[-1,-1],[1,0],[0,-1],[1,0],[0,-1],[1,0],[0,-1],[1,-1],[0,-1],[1,0],[-3,-3],[0,0],[7,0],[0,-1],[1,-1],[1,0],[0,1],[1,0],[0,1],[1,0],[0,1],[1,0],[0,1],[-1,0],[1,1],[1,0],[1,1],[0,1],[1,0],[0,1],[-1,-1],[0,1],[-1,0],[0,1],[-2,0],[0,1],[-2,0],[0,1],[-1,0],[1,1],[-1,1],[-1,0],[0,1],[1,0],[0,1],[2,0],[0,1],[-1,0],[0,2],[-1,1],[1,1],[3,1],[1,0],[1,1],[0,1],[1,0],[-1,1],[-1,2],[1,0],[3,2],[1,0],[3,3],[3,0],[0,3],[2,0],[0,2],[2,0],[0,3],[1,0],[0,1],[2,2],[0,1],[1,0],[1,1],[-1,0],[0,2],[-2,2],[1,1],[0,2],[-1,1],[-2,1],[0,2],[2,0],[0,3],[1,1],[6,0],[0,1],[1,0],[1,-1],[-1,0],[0,-1],[2,0],[0,-1],[2,-1],[1,1],[0,1],[1,1],[2,1],[0,-2],[-1,0],[0,-1],[1,0],[0,-7],[1,-1],[-1,0],[0,-1],[2,0],[2,-2],[0,-1],[3,-3],[3,0],[0,-1],[5,0],[2,1],[2,0],[0,-1],[2,0],[1,1],[0,4],[3,0],[1,-1],[1,0],[3,1],[1,1],[3,0],[4,2],[0,-1],[2,0],[1,1],[1,0],[0,-2],[2,-1],[1,0],[0,-1],[-1,0],[0,-1],[1,-1],[0,-3],[3,0],[2,-1],[0,-3],[0,0],[0,-1],[2,0],[2,1],[1,-1],[2,0],[1,1],[0,1],[2,1],[-1,2],[-2,2],[-1,0],[-1,1],[-1,2],[0,1],[1,1],[1,0],[0,2],[3,0],[0,3],[-1,0],[-1,1],[-3,0],[0,-1],[-2,0],[0,1],[-2,0],[0,1],[-1,0],[0,1],[1,1],[0,1],[-1,0],[0,3],[1,0],[0,2],[-1,0],[0,1],[1,0],[3,3],[1,0],[0,3],[1,-1],[1,0],[2,1],[3,1],[1,-1],[1,0],[2,2],[1,-1],[0,-1],[1,0],[-1,-1],[0,-3],[1,0],[1,1],[2,-2],[0,-1],[5,0],[0,1],[1,0],[1,-1],[5,0],[0,-1],[1,0]],[[225,792],[0,1],[-1,0],[0,-1],[1,0]],[[224,793],[0,0]],[[271,736],[-1,0],[-1,1],[2,0],[0,-1]],[[218,758],[-1,0],[0,1],[1,-1]],[[197,902],[-1,0],[0,1],[1,1],[0,-2]]]}