{"type":"Topology","objects":{"data":{"geometries":[{"properties":{"index":1559,"nuts_2_code":"PL21","nuts_2_name":"Ma\u0142opolskie"},"type":"Polygon","arcs":[[-59,0,-41,-40,39,-39,-28]],"id":0},{"properties":{"index":1560,"nuts_2_code":"PL92","nuts_2_name":"Mazowiecki regionalny"},"type":"MultiPolygon","arcs":[[[-83,-82,-54,-53,-52,-51,50,-50,-49,48,-48,-27,-26,-35,-34,33,-33,-32,1,-18,-17,16,-16,-15,-14,13,-13,-4,82],[85],[54]],[[24]]],"id":1},{"properties":{"index":1561,"nuts_2_code":"PL51","nuts_2_name":"Dolno\u015bl\u0105skie"},"type":"Polygon","arcs":[[-77,-76,75,-75,-7,2,-96]],"id":2},{"properties":{"index":1562,"nuts_2_code":"PL62","nuts_2_name":"Warmi\u0144sko-mazurskie"},"type":"Polygon","arcs":[[-84,-83,3,-12,-11,-10,-8,4]],"id":3},{"properties":{"index":1565,"nuts_2_code":"PL52","nuts_2_name":"Opolskie"},"type":"Polygon","arcs":[[-74,-22,-43,5,6]],"id":4},{"properties":{"index":1566,"nuts_2_code":"PL63","nuts_2_name":"Pomorskie"},"type":"Polygon","arcs":[[7,-21,-20,19,-19,-65,-91,-90,89,-89,8]],"id":5},{"properties":{"index":1567,"nuts_2_code":"PL61","nuts_2_name":"Kujawsko-pomorskie"},"type":"Polygon","arcs":[[9,10,11,12,-14,13,14,15,-17,16,17,-23,-66,18,-20,19,20],[78],[79]],"id":6},{"properties":{"index":1570,"nuts_2_code":"PL71","nuts_2_name":"\u0141\u00f3dzkie"},"type":"MultiPolygon","arcs":[[[-32,-31,-30,29,-29,-37,35,-44,21,-73,-72,71,-71,-70,-69,-68,67,-67,22,23],[24]],[[77]]],"id":7},{"properties":{"index":1572,"nuts_2_code":"PL72","nuts_2_name":"\u015awi\u0119tokrzyskie"},"type":"Polygon","arcs":[[25,26,-47,-60,27,-38,28,-30,29,30,31,32,-34,33,34],[44]],"id":8},{"properties":{"index":1573,"nuts_2_code":"PL22","nuts_2_name":"\u015al\u0105skie"},"type":"MultiPolygon","arcs":[[[35,36,37,38,-40,39,40,41,42,43]],[[44]]],"id":9},{"properties":{"index":1574,"nuts_2_code":"PL81","nuts_2_name":"Lubelskie"},"type":"MultiPolygon","arcs":[[[-81,45,-57,55,-63,-62,61,-61,46,47,-49,48,49,-51,50,51,52,53],[63]],[[54]]],"id":10},{"properties":{"index":1575,"nuts_2_code":"PL82","nuts_2_name":"Podkarpackie"},"type":"MultiPolygon","arcs":[[[55,56,57,58,59,60,-62,61,62]],[[63]]],"id":11},{"properties":{"index":1576,"nuts_2_code":"PL41","nuts_2_name":"Wielkopolskie"},"type":"MultiPolygon","arcs":[[[64,65,66,-68,67,68,69,70,-72,71,72,73,74,-76,75,76,-95,-87],[77]],[[78]],[[79]],[[98]]],"id":12},{"properties":{"index":1577,"nuts_2_code":"PL84","nuts_2_name":"Podlaskie"},"type":"Polygon","arcs":[[80,81,82,83,84]],"id":13},{"properties":{"index":1578,"nuts_2_code":"PL91","nuts_2_name":"Warszawski sto\u0142eczny"},"type":"Polygon","arcs":[[85]],"id":14},{"properties":{"index":1579,"nuts_2_code":"PL42","nuts_2_name":"Zachodniopomorskie"},"type":"MultiPolygon","arcs":[[[86,-98,87,88,-90,89,90]],[[91]],[[92]],[[93]]],"id":15},{"properties":{"index":1580,"nuts_2_code":"PL43","nuts_2_name":"Lubuskie"},"type":"Polygon","arcs":[[94,95,96,97],[98]],"id":16}],"type":"GeometryCollection"}},"bbox":[14.123472923286556,49.00285376074976,24.145281040429964,54.83534746586942],"transform":{"scale":[0.010031839957100509,0.005838332037156817],"translate":[14.123472923286556,49.00285376074976]},"arcs":[[[725,74],[-2,0],[-3,3],[-2,0],[0,-1],[-1,0],[-1,1],[-2,1],[-2,0],[0,-2],[-1,0],[-3,-3],[0,-2],[-2,-3],[0,1],[-2,0],[-1,-1],[0,2],[-2,2],[0,1],[-2,1],[-2,0],[0,-2],[-1,1],[-1,0],[-2,-1],[-2,0],[-1,-1],[1,-2],[1,0],[0,-2],[2,-1],[2,-2],[-1,-2],[-1,0],[-1,-1],[-1,1],[-2,0],[-1,-1],[-3,-2],[0,-2],[-1,-1],[-1,0],[0,-1],[1,-1],[0,-1],[-1,-1],[-1,0],[0,1],[-1,-1],[-2,-1],[-1,0],[0,-1],[-1,0],[0,1],[-2,2],[0,2],[-1,0],[-1,-1],[-1,1],[1,2],[-2,2],[-1,0],[-2,-2],[-1,0],[0,1],[-1,0],[0,1],[-2,0],[1,2],[0,0],[-2,1],[0,1],[-1,1],[-1,-1],[-1,1],[1,1],[-2,2],[1,1],[-1,1],[0,1],[-1,1],[-4,0],[-1,-1],[-1,0],[-2,-2],[-1,0],[0,1],[-1,0],[-1,1],[0,1],[-1,0],[0,-3],[-1,0],[0,-2],[-1,-1],[-1,0],[-1,-1],[-2,0],[-2,2],[-2,1],[-1,1],[0,1],[-3,2],[-4,0],[0,-3],[-1,0],[-1,1],[0,-2],[-3,-1],[0,2],[-1,1],[-1,-1],[-4,0],[0,-2],[1,0],[-1,-1],[0,-5],[-1,-1],[0,-1],[-2,1],[0,1],[-2,0],[0,-1],[-1,0],[-1,1],[-1,-1],[-1,0],[-1,1],[-1,-2],[-2,0],[0,-1],[-1,-1],[-1,0],[0,-3],[-1,-1],[-1,1],[0,1],[-1,0],[-1,-4],[0,-3],[-1,-1],[-1,-2],[-1,-1],[0,-6],[-1,-2],[-1,0],[0,-2],[1,-1],[0,-2],[-2,0],[-4,4],[-1,0],[-1,2],[0,1],[-3,2],[-1,0],[-4,1],[-3,-1],[0,-3],[-3,-3],[-3,0],[-1,1],[-1,0],[-1,1],[-1,-1],[-1,0],[-3,1],[0,1],[1,2],[0,3],[1,1],[1,3],[2,1],[0,1],[1,0],[-1,3],[-1,0],[-1,1],[0,1],[1,1],[0,4],[-1,2],[1,1],[0,3],[-1,2],[0,5],[-3,0],[-2,-1],[-1,-1],[0,-1],[-1,-1],[-2,2],[-4,1],[-1,1],[-2,0],[2,4],[-1,0],[0,4],[-1,-1],[-1,0],[-1,-1],[0,1],[-1,1],[-2,0],[0,1],[-1,0],[0,3],[-2,1],[0,3],[-1,3],[0,1],[-1,2],[0,6],[-1,0],[-1,1],[-1,0],[-2,1],[-1,2],[0,3]],[[629,400],[0,2],[-1,1],[0,2],[1,1],[0,3],[1,1],[0,2],[1,1],[0,-1],[2,0],[1,1],[1,2],[-1,1],[0,1],[1,1],[0,1],[2,0],[1,1],[0,1],[1,0],[-1,1],[0,7],[-2,0],[-1,-1],[-4,0],[0,7],[1,1],[0,4],[-2,0],[-1,1],[0,3],[-2,2],[1,1],[0,1],[-1,2],[0,1],[-2,0],[-1,1],[1,1],[0,2],[1,2],[2,1],[1,1],[1,0],[-1,1],[2,0],[1,1],[2,-2],[3,0],[0,-1],[1,0],[0,-2],[1,0],[0,1],[4,-1],[1,0],[1,-1],[3,0],[0,2],[2,1],[1,0],[0,9],[-1,0],[-1,1],[0,1],[-2,1],[-3,0],[0,3],[1,1],[0,1],[-1,1],[0,5],[-2,0],[-1,1],[1,1],[1,0],[2,-1],[1,0],[1,1],[0,1],[-1,0],[-1,2],[1,1],[0,1],[-1,0],[0,2],[-1,1],[-1,0],[-1,1],[0,2],[-4,1],[-3,0],[-1,1],[0,1],[1,1],[-2,2],[0,1],[-2,1],[-1,1],[-1,0],[-1,1],[0,-1],[-1,-1],[-1,0],[-1,1],[-2,0],[1,-1],[-1,-1],[-1,0],[-1,-1],[-3,0],[0,-2],[-2,1],[1,1],[0,1],[-2,2],[-2,-1],[-3,0],[0,3],[1,1],[3,2],[-1,1],[0,1],[-2,4],[-2,0],[-3,3],[0,1],[1,0],[3,3],[1,2],[0,2],[-1,1],[1,0],[2,1],[0,3],[-2,2],[0,1],[-4,1],[-1,-1],[-4,4],[0,2],[-3,-1],[-2,0],[0,1],[-2,0],[-1,1],[0,4],[-2,2],[0,2],[1,1],[1,4],[-1,1],[-2,1],[-1,1],[0,1],[-2,1],[-3,0],[-3,1],[0,3],[-1,0],[-1,1],[-1,2],[-3,0],[0,1],[-2,0],[-2,-2],[1,-1],[0,-1],[-2,-2],[-2,0],[-1,1],[0,1],[-1,-1],[-2,0],[0,-1],[-2,-2],[-4,0],[0,1],[-3,2],[-2,-2],[0,-1],[1,0],[-3,-1],[-3,0],[0,1],[-1,1],[1,0],[0,2],[-2,0],[0,1],[1,1],[-3,0],[-4,1],[-1,1],[0,1],[-1,-1],[-1,0],[-1,2],[-1,0],[-1,1],[1,1],[0,1],[-1,1],[-3,1],[0,1],[-2,0],[0,-1],[-1,-1],[-2,0],[0,1],[-5,0],[-1,1],[-3,0],[1,1],[0,1],[-1,1],[0,1],[-3,0],[1,1],[0,1],[1,0],[-2,2]],[[278,248],[-3,-1],[-2,-6],[2,-2],[1,0],[1,-1],[1,0],[1,-4],[-1,-1],[2,-2],[0,-2],[1,-1],[-1,0],[0,-1],[1,-1],[1,-2],[1,1],[1,0],[0,-2],[2,0],[2,-2],[1,-3],[-1,-1],[0,-1],[-1,-2],[1,-1],[0,-1],[2,-2],[-2,-2],[-1,0],[-1,2],[-2,3],[-1,-1],[0,-2],[-1,-1],[-5,0],[-2,-2],[0,-2],[-2,0],[-1,1],[-2,0],[0,-1],[-1,-2],[-1,0],[-1,-1],[0,-2],[-1,-1],[-1,-2],[0,-1],[-2,-2],[-2,0],[0,-1],[-2,-5],[-2,-1],[-1,1],[-3,1],[-1,1],[-2,0],[0,1],[-1,0],[-1,1],[0,1],[-2,2],[-1,0],[0,2],[-2,2],[0,4],[-1,1],[1,1],[0,1],[-1,2],[1,1],[-2,3],[-2,0],[-1,1],[0,2],[-2,1],[-2,4],[-1,1],[-2,4],[0,1],[-4,0],[-2,1],[0,1],[-1,1],[0,1],[-1,1],[0,1],[1,2],[-1,2],[-6,0],[0,-1],[-1,-1],[-1,0],[0,1],[-1,1],[0,1],[-1,1],[-1,0],[0,2],[-1,2],[-2,-2],[-1,1],[0,3],[-1,0],[0,4],[2,0],[0,-1],[1,0],[0,2],[-1,1],[1,0],[0,1],[1,-1],[1,1],[0,1],[1,1],[1,-1],[0,2],[1,-1],[1,0],[1,2],[1,0],[0,2],[1,1],[2,-2],[2,1],[1,2],[2,2],[1,0],[-1,2],[0,1],[1,0],[1,1],[0,2],[-1,1],[2,0],[2,2],[0,1],[-2,4],[-2,2],[-1,0],[-1,2],[0,1],[-1,0],[-1,2],[-1,0],[-1,2],[-2,1],[-1,-1],[-3,0],[0,1],[-1,0],[-4,1],[-1,-4],[0,-3],[-3,-1],[-1,0],[0,2],[-3,3],[-1,-1],[-2,2],[-2,0],[0,-1],[-4,-4],[0,-4],[-2,1],[-2,-3],[-1,2],[-2,0],[0,1],[3,3],[-2,2],[0,5],[-1,1],[0,1],[-2,1],[-2,0],[-2,-1],[-1,0],[-3,-1],[-1,-1],[-2,0],[0,4],[-2,4],[-1,1],[0,3],[-1,2],[-3,0],[0,-1],[-1,-1],[-2,0],[-2,-1],[-4,0],[-1,1],[-1,2],[-4,1],[-2,1],[0,1],[-1,1],[-8,0],[-2,2],[-3,0],[-3,3],[-2,0],[-1,-3],[-2,-2],[-3,0],[1,2],[-1,2],[0,1],[1,0],[-1,1],[1,2],[-1,2],[-4,4],[-2,0],[-3,5],[0,1],[-1,4],[0,3],[1,0],[0,1],[1,1],[0,2],[-1,1],[0,2],[-2,1],[-1,0],[-1,1],[0,2],[-3,-1],[-1,-1],[0,-1],[-1,0],[-1,1],[0,4],[-1,2],[0,-1],[-2,-1],[-1,-1],[0,-2],[-3,0],[-1,1],[0,1],[1,0],[0,1],[-3,0],[0,1],[-1,0],[-1,1],[0,-2],[-2,0],[0,2],[-2,0],[0,-1],[-1,-1],[-2,0],[-2,-4],[2,-1],[1,0],[1,1],[0,-1],[1,-2],[0,-5],[-1,-2],[-2,-1],[1,-1],[0,-2],[1,0],[-1,-1],[0,-1],[1,-4],[-1,0],[-4,-2],[-3,2],[-2,1],[0,-1],[-2,0],[-1,1],[-1,-1],[-4,0],[-1,1],[1,2],[0,1],[2,1],[0,1],[3,3],[0,1],[2,2],[0,2],[1,3],[1,1],[0,3],[1,1],[1,2],[0,2],[1,1],[0,1],[1,2],[1,1],[0,3],[1,1],[0,2],[1,1],[0,1],[-1,1],[1,2],[1,1],[0,7],[1,1],[0,4],[1,1],[-1,0],[0,1],[1,1],[-1,1],[1,0],[0,2],[1,1],[0,1],[1,1],[-1,0],[0,2],[1,0],[0,6],[-2,1],[0,1],[-1,2],[-1,1],[-2,3],[0,3],[-1,1],[1,0]],[[745,767],[-5,0],[-3,-1],[-8,-2],[0,-1],[1,-2],[-1,0],[0,-1],[-2,-2],[-3,0],[-1,-1],[-2,0],[0,-1],[-3,0],[-2,1],[-2,-2],[0,2],[-1,0],[-3,-1],[-5,-3],[-1,-1],[-4,-3],[-1,-1],[0,-1],[-2,-2],[-3,-1],[-1,-1],[-1,0],[-1,-1],[-3,3],[-3,1],[-1,0],[-2,-1],[-2,1],[-1,0],[-2,-2],[0,-3],[1,-1],[-1,-1],[0,1],[-1,-1],[0,-1],[-1,1],[-2,0],[0,-1],[-3,-3],[-2,2],[-3,1],[-5,1],[0,-2],[-2,1],[-1,0],[0,-2],[-2,0],[0,-2],[-2,-3],[-1,-1],[0,-1],[-1,-1],[-4,0],[0,-2],[-3,-1],[-1,1],[-1,-1],[0,-2],[-1,0],[-2,1],[0,-1],[-1,0],[-2,2],[-3,0],[-2,2],[-4,-6],[-1,-3],[-2,-1],[0,-1],[-1,-1],[-4,-2],[0,-1],[1,0],[1,-1],[0,-1],[-2,0],[-3,-1],[-4,0],[-3,1],[-4,1],[-3,0],[0,-1],[-1,-1],[-2,0],[0,1],[-1,1],[0,1],[-1,1],[-4,0],[0,-1],[-2,-1],[-1,1],[-1,-2],[-1,0],[0,1],[-3,-1],[-1,-1],[-4,4],[-1,0],[0,1],[-1,0],[0,1],[-1,0],[0,2],[1,3],[-1,1],[-2,0],[-1,-1],[0,-1],[-3,-2],[-2,-1],[0,-3],[1,0],[0,-4],[-2,1],[-4,1],[-2,0]],[[512,904],[0,-1],[3,0],[6,-1],[3,-1],[1,1],[0,-1],[-1,-2],[0,-1],[-1,-2],[0,-1],[-1,0],[0,-1],[2,0],[0,1],[1,0],[0,3],[1,1],[0,2],[5,5],[1,0],[2,3],[2,2],[1,0],[6,3],[5,0],[4,2],[3,3],[0,2],[1,0],[1,1],[0,2],[1,1],[1,0],[1,2],[1,0],[0,1],[-1,1],[1,1],[1,0],[3,1],[1,1],[20,-3],[11,-1],[20,-3],[3,-1],[17,-3],[7,0],[4,-1],[1,-1],[2,1],[4,0],[12,-2],[7,-1],[7,0],[12,-2],[7,0],[2,-1],[5,-1],[6,-1],[3,1],[2,-1],[5,1],[3,-1],[3,0],[1,-2],[8,2],[3,-1],[2,1],[16,0],[40,2],[8,1],[1,-1],[8,0],[2,1],[16,1],[4,0],[9,1],[3,0],[3,1],[11,0]],[[390,182],[-3,-2],[0,-3],[1,-1],[1,1],[2,0],[0,-5],[-1,0],[-3,1],[0,1],[-2,-1],[0,-1],[-3,0],[-1,-2],[-2,-3],[-5,0],[-1,-1],[-4,4],[1,1],[-1,2],[-3,0],[0,1],[-2,0],[0,5],[-2,2],[0,1],[-2,4],[0,1],[-4,4],[-1,0],[-1,-1],[0,-1],[-2,1],[-1,1],[0,2],[-2,1],[-1,1],[-2,3],[1,2],[2,0],[1,1],[4,1],[2,0],[2,2],[0,2],[1,0],[2,-1],[1,1],[0,4],[1,1],[-4,4],[0,3],[1,0],[2,4],[-1,0],[-2,1],[0,2],[-1,1],[-3,1],[0,-5],[-3,-4],[-2,0],[-2,-1],[-1,0],[-1,1],[-2,0],[-1,-1],[-4,0],[-2,1],[-3,-1],[-2,0],[0,-3],[-2,0],[0,2],[-1,2],[-2,0],[-1,1],[-3,0],[0,-3],[-1,0],[-1,1],[0,2],[-1,0],[1,1],[0,2],[1,1],[-2,2],[1,1],[0,1],[-1,0],[-4,-2],[-4,3],[-2,1],[-2,3],[-1,1],[0,4],[-1,0],[-1,1],[-2,-2],[-2,0],[-2,2],[-1,0],[0,2],[-3,0],[-3,1],[-1,0],[-2,2],[-2,0],[0,1],[-1,-1],[-2,-1],[-1,2],[-1,1],[-1,0],[-1,1],[-1,0],[-1,2]],[[278,248],[2,1],[1,1],[0,3],[1,0],[1,1],[2,0],[0,-2],[1,1],[1,-1],[0,1],[2,0],[0,-2],[3,-1],[0,2],[1,1],[0,3],[-1,1],[2,2],[0,1],[-1,1],[0,2],[1,3],[1,0],[1,1],[1,3],[1,1],[1,3],[0,1],[4,1],[7,0],[1,1],[0,1],[-1,1],[0,5],[1,0],[0,2],[-1,1],[2,2],[-1,1],[-2,1],[0,2],[1,0],[2,1],[1,2],[0,1],[1,1],[1,0],[1,-1],[0,3],[-3,3],[1,3],[1,1],[6,-2],[1,1],[0,3],[-1,0],[-2,2],[-1,0],[2,1],[1,1],[0,1],[-1,1],[0,2],[1,0],[2,1],[2,0],[0,3],[1,0],[0,2],[-4,2],[1,3],[1,0],[0,1],[2,-1],[1,0],[0,-1],[2,0],[1,1],[0,8],[3,2],[1,-1],[2,1],[1,0],[0,-1],[1,1],[0,1],[-1,0],[-1,1],[0,1],[1,-1],[3,0],[1,2],[-2,1],[-1,1],[1,2],[0,2],[1,1],[-2,2],[1,0],[0,2],[1,1],[2,0],[3,2],[-2,2],[0,1],[1,2],[0,3],[-1,1],[0,1],[-1,0],[-1,1],[0,1],[2,2],[1,0],[1,1],[1,0],[1,1],[-1,1],[2,2],[0,-2],[1,-1],[1,0],[1,-1],[2,-1],[2,1],[2,-1],[-1,1],[1,1],[3,0],[2,2],[3,0],[1,1]],[[512,904],[-1,-2],[1,0],[1,-1],[2,-1],[1,-2],[0,-2],[2,-1],[0,-3],[1,-1],[-1,-1],[0,-1],[-3,-1],[-1,0],[-3,-3],[0,-2],[1,0],[0,-1],[-2,-4],[-2,-2],[1,-1],[2,-4],[-3,-3],[5,-3],[1,0],[0,-2],[-1,0],[-1,-1],[1,-2],[0,-1],[1,-1],[1,2],[3,0],[2,-2],[4,-2],[2,0],[-2,-2],[0,-1],[-1,-3],[0,-4],[1,-1],[2,0],[0,-1],[2,-1],[1,1],[1,0],[1,1],[0,1],[3,0],[1,1],[3,0],[1,-1],[1,1],[2,0],[0,-1],[1,0],[1,1],[0,-3],[-1,-1],[-1,0],[0,-2],[-1,-3],[-2,-2],[1,-1],[-1,-1],[-1,-2],[-1,-1],[0,-2],[-2,-3],[-1,-1],[2,-2],[-1,-2],[-2,-2],[1,-1],[0,-1],[-2,2],[0,1],[-1,1],[-8,3],[-5,0],[-1,-2],[0,-2],[-1,-2],[0,-4],[-2,-4],[-2,0],[-2,-4],[-3,-3],[1,-1],[0,-3],[-1,0],[0,-5],[-3,0],[-2,-3],[-1,0],[-2,-2],[0,-4]],[[257,953],[6,0],[6,3],[3,1],[3,0],[7,4],[5,4],[2,3],[3,3],[3,1],[10,5],[1,1],[1,0],[3,2],[1,1],[2,0],[7,2],[1,1],[1,0],[14,2],[17,4],[8,3],[6,1],[1,0],[10,3],[3,1],[2,0],[6,1],[30,0],[3,-2],[1,-2],[1,0],[9,-6],[1,0],[4,-3],[2,-2],[8,-4],[5,-3],[6,-5],[3,-2],[6,-6],[1,-2],[0,-3],[-1,-1],[-1,0],[-1,1],[0,1],[-1,0],[-1,1],[0,2],[-1,2],[-1,1],[-1,2],[-6,6],[-3,2],[-1,1],[-3,2],[-1,1],[-7,4],[-1,0],[-1,1],[-4,2],[0,1],[-2,0],[-2,2],[-1,0],[-2,-4],[0,-1],[-1,-1],[0,-3],[1,-1],[1,0],[5,-5],[0,-7],[1,-1],[-1,-1],[0,-2],[4,0],[0,0],[0,-2],[1,-1],[0,-2],[1,-2],[1,-1],[2,-6],[1,-2],[-1,-1],[0,-3],[-1,0],[1,-2],[1,-3],[-1,-2],[0,-2],[1,0],[0,-1],[1,-2],[0,-1],[2,-2],[4,-3],[4,0],[0,-1],[1,0],[1,-2],[3,-3],[1,0],[8,-2],[1,-1],[5,-1],[1,-1],[3,0],[2,1],[0,1],[1,1],[0,-1],[1,0],[1,-1],[1,0],[0,-1],[1,0],[11,1],[5,0],[11,1],[7,2],[4,1],[5,1],[2,1],[1,1],[4,1],[0,1],[9,5],[1,1],[3,2],[1,1],[2,0],[-4,-4],[-2,-1],[-5,-4],[-1,0],[-5,-2],[-2,-1],[-1,-1],[-3,-2],[-1,0],[-6,-3],[-8,0],[-1,-1],[-3,-1],[0,-2],[2,0],[0,-2],[1,0],[0,-2],[-1,-1],[0,-2],[1,0],[0,-1]],[[499,785],[3,-1],[0,1],[2,-1],[2,-2],[0,-1],[-1,-2],[0,-1],[2,0],[1,-4],[-1,0],[-2,-1],[0,-1],[1,-2],[1,-1],[1,0],[0,-2],[2,-2],[-2,-2],[1,-1],[1,0]],[[510,762],[0,1]],[[510,763],[0,-3],[1,-1],[0,-2],[-2,0],[2,-2],[1,-2],[3,-2],[0,1],[1,1],[0,1],[1,1],[1,0],[1,-1],[3,1],[2,0],[1,-1],[0,-3],[1,1],[1,0],[0,-1],[2,-2],[1,0],[0,-1],[-1,-2],[3,0],[0,1],[1,1],[1,0],[0,-2],[1,1],[1,0],[0,1],[2,0],[0,-2],[1,-1],[-1,-2],[0,-2],[7,0],[0,1],[1,1],[3,0],[1,1],[3,-2],[2,0],[0,-5],[1,0],[2,-1],[-1,-1],[0,-1],[1,0],[0,-2],[-1,-1],[-2,-1],[-1,-1],[1,-1],[0,-3],[2,0],[3,-1],[0,-1],[1,-1],[0,-1],[-1,-1],[0,-3],[1,-1],[1,-5]],[[562,711],[-3,-2],[-2,-1],[0,-3],[-2,0],[-1,1],[0,-2],[-1,0],[0,-1],[-2,0],[0,1],[-2,0],[1,-3],[0,-1],[1,-2],[0,-1],[1,0],[-1,-1],[0,-4],[1,-1],[1,0],[1,-2],[1,-1],[-1,-1],[0,-2],[-1,-2],[0,-1],[1,-1],[0,-4],[-2,1],[-1,1],[-2,1],[-1,1],[-6,2],[0,-2],[2,-2],[0,-1],[-1,-1],[-3,-1],[-1,-2],[-4,1],[-4,0],[-1,-1],[1,-2],[1,-1],[1,0],[0,-1],[-1,0],[0,-2],[3,-4],[3,-3],[-3,1],[-2,-1],[0,-1]],[[532,660],[1,0]],[[533,660],[0,-1],[-3,-2],[-1,0],[-1,-1],[1,-2],[-1,-1],[2,0],[1,-2],[1,0],[0,-2],[1,-1],[1,0],[1,-1],[0,-1],[1,-1],[0,-3],[2,0],[0,-1],[-2,-2],[0,-3],[1,0],[1,-1],[0,-1]],[[538,634],[0,0],[1,0],[-3,1],[-1,1],[-2,1],[-1,1],[-2,-1],[0,-3]],[[531,634],[-1,0]],[[530,634],[0,-4],[1,-1],[0,-1],[-1,1],[-1,-1],[-1,0],[-2,-4],[-2,0],[-1,-2],[0,-1],[2,-1],[1,0],[3,-2],[-1,-2],[-1,-1],[-1,0],[-1,-2],[0,-1],[-1,-1],[-2,0],[-2,-1],[1,-3],[0,-3],[-1,1],[-2,0],[0,-1],[1,-1],[3,0],[4,-2],[-2,-1],[-2,0],[-1,-3],[1,0],[0,-1],[-1,0],[-2,-2],[0,-1],[-1,-3],[-5,0],[-1,-1],[0,-1],[2,0],[2,-2],[0,-1],[-1,0],[0,-1],[-1,-1],[1,-1],[0,-1]],[[326,769],[0,3],[1,0],[0,2],[1,2],[1,1],[0,2],[-1,2],[0,1],[1,2],[0,1],[1,1],[1,2],[2,0],[3,1],[1,0],[0,1],[1,0],[1,-2],[0,-1],[1,-1],[1,-2],[3,0],[2,1],[1,2],[4,-3],[1,0],[0,-2],[1,0],[1,1],[0,2],[-1,0],[-1,1],[1,1],[1,0],[1,-1],[5,1],[0,2],[-2,0],[0,4],[2,4],[0,1],[1,1],[0,2],[1,0],[0,1],[1,0],[0,2],[1,1],[2,-3],[0,-1],[1,0],[2,2],[3,0],[2,2],[0,1],[2,0],[0,1],[1,1],[-1,1],[-1,0],[-1,3],[-1,1],[0,2],[4,-2],[2,0],[1,-1],[1,0],[1,-1],[2,0],[0,-1],[1,0],[1,-1],[4,0],[1,2],[0,1],[1,2],[0,1],[1,2],[1,1],[2,-1],[0,-1],[1,0],[0,-1],[2,1],[2,0],[1,-1],[0,-1],[1,-2],[1,0],[0,1],[1,1],[1,0],[0,-3],[1,0],[0,1],[1,1],[0,-2],[1,1],[3,0],[2,-2],[-1,-1],[1,-1],[0,-1],[-1,0],[-1,-1],[1,-1],[3,-1],[2,0],[2,-1],[1,0],[1,-1],[2,1],[4,0],[0,-1],[1,1],[3,0],[0,-1],[1,1],[0,1],[1,1],[2,-1],[2,1],[0,-4],[1,0],[0,-2],[1,0],[1,-2],[1,0],[3,1],[-2,2],[1,1],[1,-1],[4,0],[1,2],[2,2],[1,0],[1,-1],[2,2],[0,-2],[1,-1],[2,0],[1,1],[1,0]],[[461,802],[0,1]],[[461,803],[2,1],[1,1],[1,0],[-2,-4],[-2,-3],[-1,-3],[0,-2],[2,-5],[1,1],[0,-1],[6,0],[6,-1],[2,-1],[0,-2],[1,0],[0,1],[1,1],[4,-1],[1,0],[0,1],[1,1],[2,-1],[1,0],[3,1],[4,0],[4,-2]],[[454,352],[-2,-1],[-3,3],[-1,2],[-4,0],[0,2],[-1,1],[-1,2],[1,0],[0,2],[-1,3],[-4,0],[0,-6],[-2,-1],[-1,-1],[-1,0],[0,1],[-1,1],[0,2],[-5,0],[0,2],[-1,-1],[-3,1],[0,1],[-1,1],[-4,0],[-1,-1],[-1,0],[-3,3],[-1,0],[0,1],[-8,0],[-2,1],[0,2]],[[491,570],[1,0],[0,1],[1,0],[1,1],[2,1],[1,0],[2,-1],[2,1],[1,-1],[3,1],[1,2],[0,-2],[1,0],[1,-1],[-1,2],[0,2],[3,0],[0,1],[2,2],[1,2],[2,0]],[[515,581],[2,-2],[-1,0],[0,-1],[-1,-1],[3,0],[0,-1],[1,-1],[0,-1],[-1,-1],[3,0],[1,-1],[5,0],[0,-1],[2,0],[1,1],[0,1],[2,0],[0,-1],[3,-1],[1,-1],[0,-1],[-1,-1],[1,-1],[1,0],[1,-2],[1,0],[1,1],[0,-1],[1,-1],[4,-1],[3,0],[-1,-1],[0,-1],[2,0],[0,-2],[-1,0],[1,-1],[0,-1],[3,0],[3,1],[-1,0],[0,1],[2,2],[3,-2],[0,-1],[4,0],[2,2],[0,1],[2,0],[1,1],[0,-1],[1,-1],[2,0],[2,2],[0,1],[-1,1],[2,2],[2,0],[0,-1],[3,0],[1,-2],[1,-1],[1,0],[0,-3],[3,-1],[3,0],[2,-1],[0,-1],[1,-1],[2,-1],[1,-1],[-1,-4],[-1,-1],[0,-2],[2,-2],[0,-4],[1,-1],[2,0],[0,-1],[2,0],[3,1],[0,-2],[4,-4],[1,1],[4,-1],[0,-1],[2,-2],[0,-3],[-2,-1],[-1,0],[1,-1],[0,-2],[-1,-2],[-3,-3],[-1,0],[0,-1],[3,-3],[2,0],[2,-4],[0,-1],[1,-1],[-3,-2],[-1,-1],[0,-3],[3,0],[2,1],[2,-2],[0,-1],[-1,-1],[2,-1],[0,2],[3,0],[1,1],[1,0],[1,1],[-1,1],[2,0],[1,-1],[1,0],[1,1],[0,1],[1,-1],[1,0],[1,-1],[2,-1],[0,-1],[2,-2],[-1,-1],[0,-1],[1,-1],[3,0],[4,-1],[0,-2],[1,-1],[1,0],[1,-1],[0,-2],[1,0],[0,-1],[-1,-1],[1,-2],[1,0],[0,-1],[-1,-1],[-1,0],[-2,1],[-1,0],[-1,-1],[1,-1],[2,0],[0,-5],[1,-1],[0,-1],[-1,-1],[0,-3],[3,0],[2,-1],[0,-1],[1,-1],[1,0],[0,-9],[-1,0],[-2,-1],[0,-2],[-3,0],[-1,1],[-1,0],[-4,1],[0,-1],[-1,0],[0,2],[-1,0],[0,1],[-3,0],[-2,2],[-1,-1],[-2,0],[1,-1],[-1,0],[-1,-1],[-2,-1],[-1,-2],[0,-2],[-1,-1],[1,-1],[2,0],[0,-1],[1,-2],[0,-1],[-1,-1],[2,-2],[0,-3],[1,-1],[2,0],[0,-4],[-1,-1],[0,-7],[4,0],[1,1],[2,0],[0,-7],[1,-1],[-1,0],[0,-1],[-1,-1],[-2,0],[0,-1],[-1,-1],[0,-1],[1,-1],[-1,-2],[-1,-1],[-2,0],[0,1],[-1,-1],[0,-2],[-1,-1],[0,-3],[-1,-1],[0,-2],[1,-1],[0,-1]],[[615,498],[1,0],[0,1],[-1,-1]],[[747,355],[-1,0]],[[746,355],[4,0],[0,-1],[2,1],[1,0],[1,-1],[1,-3],[1,-2],[1,0],[1,1],[2,-1],[1,-1],[0,1],[2,0],[0,2],[1,1],[0,1],[-1,0],[1,1],[2,0]],[[706,232],[-2,-1],[0,-3],[-1,-1],[-1,1],[0,2],[-2,1],[-2,0],[-1,-1],[0,-1],[-3,0],[-1,-2],[0,-1],[-2,-1],[-4,0],[-1,-1],[-1,1],[-5,0],[0,-2],[-1,-1],[-2,0],[-2,1],[-2,-2],[-2,0],[-1,-1],[0,-2],[-1,0],[-2,2],[-3,0],[-1,-1],[0,-1],[-4,-4],[-1,-2],[1,-1],[-1,-1],[-1,0],[-1,-1],[0,-1],[-2,0],[0,-2],[-3,0],[-1,1],[0,-1],[-1,1],[0,-1],[-1,-1],[-1,1],[-1,0],[0,-1],[-1,0],[-1,-1],[0,-1],[-2,0],[0,2],[-2,0],[0,-1],[-1,-1],[-3,0],[-2,1],[-1,1],[0,-1],[-1,0],[0,1],[-1,-1],[-4,0],[0,3],[-3,0],[-1,1],[0,2],[2,2],[-1,0],[-3,3],[0,1],[-1,0],[-1,1],[2,2],[1,0],[-1,1],[-1,0],[0,3],[-1,0],[0,1],[-2,2],[-2,0],[0,1],[1,1],[0,1],[-1,1],[0,1],[4,0],[1,1],[-2,2],[0,3],[-1,0],[-1,1],[0,1],[-1,1],[0,3],[-1,0],[-2,1],[0,2],[1,3],[0,2],[-1,0],[-1,1],[0,1],[-3,0],[0,2],[-2,0],[0,1],[-2,-1],[-1,0],[-1,-1],[-3,1],[0,-1],[-2,0],[-2,1],[0,1],[-1,0],[0,1],[-1,1],[-2,0],[0,-1],[-2,0],[-1,1],[-2,1],[-3,1],[0,-1],[-2,-2]],[[561,319],[3,3],[0,1],[1,3],[2,0],[2,2],[1,2],[1,1],[-1,2],[-1,0],[0,4],[3,6],[0,2],[1,1],[-1,1],[1,2],[1,1],[2,-3],[3,-1],[1,-2],[1,0],[1,-1],[0,-3],[6,-4],[0,1],[1,1],[1,2],[-1,1],[1,1],[0,1],[1,2],[0,8],[-1,0],[0,1],[-4,0],[-2,1],[0,1],[1,3],[0,7],[3,3],[0,1],[-1,1],[-2,3],[2,2],[4,1],[1,-1],[0,-1],[1,1],[4,-1],[4,0],[0,1],[3,0],[0,1],[2,0],[0,-1],[1,1]],[[607,378],[0,-1]],[[607,377],[1,-1],[1,1],[0,1],[2,0],[1,1],[0,1],[-1,0],[0,3],[-1,1],[0,2],[2,0],[0,-1],[1,-1],[4,0],[2,2],[2,-1],[0,-1],[1,-1],[1,0],[1,1],[-1,1],[0,2],[1,0],[1,2],[-3,6],[2,2],[3,0],[0,1],[1,0],[0,1],[1,0],[0,1]],[[629,400],[0,1]],[[629,401],[2,-1],[1,0],[0,-1],[4,0],[1,-3],[0,-1],[-2,0],[0,-2],[1,-1],[0,-1],[2,-1],[1,-1],[0,-1],[-1,-1],[1,-1],[0,-2],[1,-2],[2,0],[2,2],[3,0],[0,-1],[1,-1],[1,-2],[2,-1],[1,0],[1,-1],[3,-2],[0,-3],[-1,0],[-1,-2],[0,-3],[1,0],[1,2],[2,2],[4,-3],[0,-1],[1,0],[1,-1],[0,1],[2,-1],[1,0],[1,2],[-1,0],[-1,1],[2,3],[3,-2]],[[671,372],[0,-1]],[[671,371],[2,-2],[2,2],[1,2],[1,1],[1,2],[1,-2],[1,0],[3,-3],[1,0],[1,-2],[0,-2],[3,1],[-1,1],[4,0],[1,3],[1,2],[0,3],[-1,1],[1,0],[3,-1],[0,-2],[1,0],[0,-3],[-2,-2],[0,-1],[3,-3],[1,-2],[2,0],[0,-8],[8,0],[7,1],[5,0],[0,-4],[2,0],[0,-1],[1,0],[0,-3],[1,-1],[1,0],[0,-1],[2,0],[0,-1],[4,-2],[3,3],[0,1],[1,1],[0,1],[1,2],[2,0],[1,-1],[1,0],[2,1],[1,0],[2,1],[2,0],[0,1],[-1,1]],[[527,338],[-1,0],[1,-1],[0,1]],[[527,338],[1,0],[1,-2],[0,-2],[1,-1],[1,-2],[0,-1],[1,0],[1,-2],[0,-1],[-1,0],[0,-2],[1,-1],[0,-1],[2,-2],[1,1],[1,0],[2,2],[4,2],[1,0],[1,-1],[2,-3],[0,-1],[5,0],[0,-4],[2,-1],[4,-1],[2,2],[1,2]],[[561,319],[2,-2],[4,-2],[1,-1],[1,-2],[-1,-1],[0,-2],[-1,-1],[-1,1],[-1,2],[-1,0],[0,-4],[1,-1],[0,-1],[-1,-1],[-1,0],[0,-1],[-1,0],[0,-1],[-2,-1],[-1,1],[0,1],[-1,-1],[0,-1],[-1,0],[0,-4],[1,-1],[-1,0],[5,-3],[1,1],[3,0],[0,1],[1,0],[0,-3],[3,0],[1,-1],[0,-2],[1,0],[1,1],[0,-2],[-1,-1],[0,-2],[-3,0],[1,-1],[-1,-1],[3,-2],[2,0],[1,-1],[2,1],[1,-1],[-1,-1],[-1,-2],[-1,-1],[-1,1],[-2,0],[-1,-2],[-1,-3],[-3,-3],[0,-1],[-2,0],[0,-2],[5,0],[2,-2],[2,-1],[2,0],[1,-3],[0,-2],[2,-1],[2,0]],[[581,257],[0,-1],[1,-1],[0,-1],[1,-2],[-1,0],[-2,1],[-4,-1],[-1,-2],[1,0],[0,-1],[-2,-1],[-3,-1],[0,-2],[-1,0],[-1,1],[-1,0],[-1,-1],[0,1],[-1,1],[-2,-1],[-2,1],[-3,0],[-1,-1],[-2,2],[-1,-2],[0,-1],[-1,0],[-2,-1],[1,0],[0,-2],[-3,-1],[-1,0],[0,1],[-2,-2],[-1,0],[-1,1],[-3,0],[-2,2],[-2,-1],[-2,-2],[0,-1],[-1,0],[0,-5],[-1,0],[-2,1],[0,-2],[2,-1],[0,-1],[1,-1],[-1,-2],[0,-2],[-1,0],[-2,-1],[-3,3],[-1,-2],[0,-1],[-1,-1],[0,-1],[1,0],[-1,-1],[-2,-4],[-1,-1],[-1,-2],[-1,1],[-3,-1],[8,-4],[1,0],[2,-1],[1,0],[-2,-2],[0,-2],[-1,0],[-1,-1],[-1,0],[-4,-2],[-1,0],[0,-1],[1,-1],[2,0],[-1,-1],[-1,0],[0,-3],[-2,-1],[-1,-1],[-5,0],[1,-1],[-1,-1],[1,-2],[-2,0],[0,2],[-1,1],[0,-2],[-1,-1],[0,-1],[-1,-1],[-1,-2],[0,-2],[-1,-1],[1,0],[1,-1],[0,-1],[-1,0],[0,-1],[-1,1],[0,-1],[-1,1],[-2,-1],[-2,0],[0,-2],[-1,-1]],[[501,179],[0,-1]],[[501,178],[-1,0],[0,-3],[-1,-1],[0,-1],[-1,-1],[-1,-2],[1,0],[0,-3],[-1,0],[0,-1],[1,0],[0,-2],[-1,0],[-1,-1],[-1,0],[0,-1],[1,0],[2,-2],[1,0],[3,1],[1,1],[2,0],[0,-6],[1,-4],[-2,-1],[-1,-1],[-1,-2],[1,-2],[1,0],[1,1],[0,1],[2,1],[1,-1],[0,-1],[2,0],[0,1],[1,-1],[2,0],[2,-2],[0,-6],[1,-1],[0,-2],[1,-2],[1,-1],[3,-1],[1,1],[2,-2],[2,0],[0,-1],[1,0],[0,2],[3,-3],[0,-4],[-1,-1],[0,-2],[-1,0],[-1,-1],[-1,0],[-1,-2],[-2,0],[2,-2],[0,-1],[2,0],[0,-1],[3,1],[1,0],[1,-1],[0,-1],[1,-1],[1,0],[-1,-2],[0,-1],[1,-2],[0,-2],[-1,-1]],[[533,105],[-1,-1],[-2,0],[0,-2],[-2,-1],[-1,0],[0,-2],[-1,-1],[-2,-1],[-1,0],[0,-5],[-5,-2],[0,1],[-6,0],[0,-1],[-1,-1],[-1,-2],[0,-2],[-1,-1],[0,-2],[-1,-2],[1,0],[0,-3],[-1,-1],[-1,1],[-1,-1],[-1,-2],[0,-2],[1,-1],[-1,-1],[-1,0],[-2,-1],[-1,0],[-1,1],[-2,-2],[-1,1],[-1,0],[-1,2],[-2,0],[0,-1],[-1,1],[-1,-3],[-1,0],[-1,-1],[-2,0],[-2,1],[-1,-1],[-1,1],[0,2],[2,2],[0,1],[-2,4],[-1,0],[1,3],[0,2],[-1,0],[1,2],[0,2],[-2,1],[0,1],[-10,0],[-1,1],[0,1],[1,0],[-1,1],[1,0],[1,1],[0,2],[-1,1],[0,1],[-1,0],[-1,4],[1,1],[0,1],[-1,0],[-1,1],[1,2],[-1,0],[0,1],[-1,5],[0,5],[-3,1],[-2,0],[0,-1],[-1,0],[0,-1],[-2,2],[-1,0],[0,1],[-1,2],[-4,0],[0,1],[-1,0],[-3,2],[0,5],[-1,1],[0,1],[-1,1],[-1,3],[0,1],[-1,2],[0,1],[-1,1],[0,1],[-1,1],[0,1],[2,2],[0,2],[2,0],[0,1],[-1,1],[-2,0],[-1,1],[0,4],[1,1],[0,3],[-2,0],[-2,1],[0,-2],[1,-1],[-1,-1],[-5,0],[-1,2],[-1,1],[-1,0],[0,1],[-1,0],[-2,2],[-6,0],[-1,1],[-2,1],[0,-1],[1,-1],[0,-1],[-1,-1],[-1,1],[0,-3],[-3,2],[0,1],[-1,0],[-1,2],[0,4],[-4,1],[-1,0],[0,-1],[-1,1],[0,3],[-1,1],[-2,0],[0,1],[-2,-1],[0,-1],[-1,-1],[-1,0],[0,1],[-1,1],[-2,0],[-1,1],[-1,2],[0,1],[1,1],[-1,0],[0,1],[-1,0],[0,2],[-1,1],[-1,0],[0,1],[-1,1],[-1,0],[-1,1]],[[390,182],[2,4],[0,1],[2,3],[-1,0],[0,3],[-2,2],[1,0],[0,1],[1,2],[-1,0],[0,1],[1,0],[0,1],[-1,1],[2,-1],[1,1],[1,0],[1,-1],[1,0],[2,2],[2,0],[0,1],[1,0],[2,-1],[0,1],[6,1],[0,1],[-1,0],[0,2],[2,2],[2,0],[3,2],[1,1],[2,0],[2,1],[0,2],[5,-1],[2,-1],[-1,2],[1,1],[0,1],[-1,1],[-2,0],[0,1],[1,1],[-1,2],[0,3],[1,0],[0,1],[-1,0],[0,2],[-2,2],[-1,0],[-1,2],[1,0],[0,1],[2,2],[-1,0],[0,1],[1,0],[1,1],[-2,4],[0,1],[-1,1],[0,1],[1,0],[1,1],[0,5],[-1,2],[0,1],[1,1],[2,-2],[1,0],[1,1],[2,0],[0,-2],[1,-1],[2,-1],[1,2],[-1,0],[0,2],[-1,0],[0,3],[-2,0],[0,2],[-1,3],[-1,1],[0,1],[1,1],[3,1],[4,0],[5,-2],[0,1],[1,1],[4,0],[0,1],[1,2],[-2,0],[-1,2],[1,2],[0,2],[-1,1],[0,1],[-4,1],[-3,1],[0,2],[-1,1],[0,1],[1,2],[-2,0],[0,3],[-1,0],[0,2],[1,0],[-1,1],[0,2],[1,1],[1,0],[0,2],[2,1],[2,0],[0,2],[1,1],[1,0],[1,1],[-2,1],[-1,0],[-1,2],[0,1],[-1,0],[0,1],[-1,1],[0,1],[-1,0],[0,1],[3,1],[2,0],[0,5],[3,3],[3,0],[2,7],[2,4],[-1,2],[-2,0],[-1,4],[1,2],[1,0],[1,1],[1,0],[1,3],[-1,2],[0,1],[1,0],[1,1],[2,1],[-1,1],[0,1],[-2,3],[1,1],[0,1]],[[454,352],[4,1],[8,0],[0,1],[1,0],[1,1],[0,-1],[3,1],[1,0],[2,-1],[0,-2],[2,1],[0,3],[2,3],[4,-2],[1,-1],[3,-1],[1,-2],[0,-1],[2,-2],[2,-1],[1,-1],[-1,-1],[1,-1],[0,1],[1,1],[2,0],[2,-2],[0,-2],[1,-2],[1,0],[0,2],[2,0],[0,-2],[1,1],[0,-1],[2,-2],[2,0],[0,-1],[4,2],[1,1],[0,1],[1,0],[-1,2],[-1,1],[1,1],[-1,1],[1,1],[1,-1],[1,0],[2,2],[3,0],[1,-1],[0,-1],[-1,-1],[0,-1],[1,-1],[0,-1],[2,0],[1,-1],[0,-1],[-1,-1],[3,0],[1,1],[1,-1],[1,-2],[0,-1]],[[565,309],[-1,0],[1,1],[0,-1]],[[903,562],[2,-2],[0,-5],[-1,-1],[1,-2],[6,-2],[2,1],[2,0],[0,-1],[1,-1],[5,0],[1,-1],[0,-1],[1,0],[1,1],[1,-1],[0,-1],[-1,-1],[1,-1],[1,0],[0,0],[1,-1],[2,1],[0,1],[2,0],[0,-2],[2,1],[2,0],[0,-1],[-1,0],[0,-1],[-1,0],[1,-3],[2,0],[1,-3],[2,-1],[0,-2],[1,-1],[0,1],[1,1],[3,-1],[2,-1],[0,-2],[2,-2],[1,0],[0,-2],[1,0],[0,-1],[-1,0],[1,-1],[-1,-1],[1,-1],[1,-2],[0,-5],[2,-1],[0,-2],[-2,-2],[0,-2],[-3,-3],[0,-1],[1,0],[0,-2],[-1,0],[0,-1],[-2,-2],[1,-2],[0,-1],[1,-1],[-1,-1],[0,-2],[-2,0],[1,-1],[0,-4],[-1,0],[0,-2],[1,0],[1,-1],[1,-2],[1,-3],[-1,-1],[0,-2],[-1,0],[-1,-1],[0,-1],[-2,0],[0,-1],[-1,-1],[-2,0],[-3,-3],[0,-1],[-1,-1],[1,-1],[1,0],[1,-1],[0,-3],[1,0],[-1,-1],[0,-5],[-1,-1],[0,-10],[1,-1],[0,-2],[1,-1],[0,-1],[1,-1],[0,-2],[-1,-1],[0,-2],[2,-1],[1,0],[0,1],[1,-1],[1,0],[1,-3],[-1,-1],[0,-1],[1,0],[0,-1],[1,-2],[2,0],[1,1],[1,-1],[0,-2],[-1,0],[-2,-3],[1,-1],[2,-1],[1,0],[0,-2],[-1,0],[1,-2],[1,0],[0,-1],[1,-1],[0,-1],[-1,0],[-1,-1],[0,-5],[-1,0],[-2,-2],[0,-2],[-2,-4],[1,-1],[0,-2],[1,-1],[-1,-1],[4,0],[3,-2],[0,-2],[1,-1],[0,-4],[2,-2],[0,-1],[-1,0],[1,-1],[0,-1],[1,0],[2,-2],[1,0],[0,-1],[2,-1],[1,-1],[0,-2],[1,0],[0,-1],[2,0],[1,-1],[1,0],[0,-5],[-1,0],[0,-1],[1,-3],[-1,-1],[1,0],[1,-3],[1,0],[1,-1],[1,0],[1,-1],[0,-5],[1,0],[0,-1],[-1,-1],[1,-1],[0,-2],[-1,0],[0,-1],[2,0],[2,-2],[1,-2],[0,-3],[1,-2],[0,-1],[2,-2],[0,-1],[2,-2],[1,0],[2,-3],[2,-2],[2,0],[1,-1],[0,-1],[2,0],[0,-1],[2,0],[1,-1],[0,-1],[-1,-2],[-4,-2],[-5,0],[0,1],[-1,-1],[-1,1],[-3,0],[-1,-2],[-2,-3],[0,-6],[2,-1],[2,0],[2,-1],[0,-1],[-1,0],[0,-1],[1,-1],[0,-4],[2,-1],[3,0],[0,-1],[-1,-1],[1,-1],[-1,-2],[0,-2],[1,0],[1,-1],[0,-5],[1,-1],[0,-13],[-3,-10],[-1,-3],[0,-2],[-2,-5],[-2,-1],[-1,-1],[0,-1],[-1,-2],[-6,0],[-1,-1],[-6,0],[-6,-1],[-6,-2],[-2,-1],[-2,-2],[-1,-3],[0,-2],[-1,-2],[-2,-2],[-2,0],[-1,-1],[0,-2],[-1,0],[-1,-1],[-3,-5],[0,-1],[-4,-2]],[[772,308],[0,3],[-3,4],[1,3],[-2,6],[0,2],[-1,4],[-1,3],[1,3],[0,7],[-1,3],[0,2],[2,2],[-2,4]],[[766,354],[-1,1],[0,3],[-1,1],[0,5],[1,0],[0,2],[-1,2],[0,9],[2,4],[1,1],[-1,1],[0,3],[1,1],[1,0],[0,1],[2,0],[1,1],[-2,2],[-1,0],[-1,-1],[0,2],[-1,0],[-2,-1],[0,1],[2,2],[1,-1],[0,1],[1,3],[0,1],[1,1],[-1,1],[2,2]],[[770,403],[0,-1]],[[770,402],[-1,4],[-1,1],[-1,-1],[-2,1],[0,1],[-1,2],[-1,0],[-1,-1],[-1,2],[1,0],[-1,1],[1,1],[2,0],[0,1],[2,2],[2,-1],[1,-1],[1,2],[1,3],[1,4],[-2,2],[0,2],[1,1],[0,1],[-1,2],[-1,3],[0,2],[-1,0],[0,2],[-1,1],[-5,0],[-1,-1],[-6,2],[-4,2],[-1,2],[0,1],[-2,1],[0,1],[-1,1],[1,1],[1,0],[0,5],[1,1],[4,-2],[3,-2],[1,-2],[0,-1],[2,-1],[1,3],[0,2],[3,0],[0,1],[4,0],[0,1],[1,0],[0,2],[1,1],[1,0],[0,1],[2,0],[0,3],[2,1],[0,1],[-2,1],[-1,2],[1,1],[-1,0],[-1,1],[-1,0],[0,1],[-1,0],[0,1],[1,1],[0,1],[1,0],[1,2],[3,0],[0,1],[2,1],[1,-1],[2,2],[0,1],[1,0],[-1,3],[0,1],[-1,1],[-1,2],[0,1],[-1,0],[-1,-1],[-4,0],[0,-1],[-1,0],[0,2],[-1,0],[0,2],[3,1],[1,0],[0,2],[1,0],[0,2],[1,1],[0,3],[-1,1],[-1,0],[0,3],[-1,1],[0,1],[-1,0],[0,2],[1,1],[0,2],[2,2],[2,0],[1,2],[5,0],[1,2],[1,1],[2,0],[1,1],[0,1],[2,0],[2,-2],[5,-1],[2,1],[1,1],[0,2],[6,-2],[1,-1],[4,-1],[2,2],[2,4],[2,0],[0,-5],[2,-2],[1,0],[2,1],[1,1],[0,1],[5,0],[1,1],[0,1],[1,0],[1,1],[0,2],[2,3],[1,1],[2,0],[1,-1],[0,-1],[1,-1],[2,0],[0,-1],[2,-1],[4,0],[0,-2],[1,-1],[1,2],[2,0],[1,1],[0,1],[1,3],[-1,1],[0,2],[-1,2],[5,5],[0,-2],[2,-1],[1,-1],[2,0],[1,-1],[0,-1],[1,-1],[1,-2],[1,1],[2,1],[3,0],[0,-1],[1,-1],[1,0],[0,1],[1,-1]],[[872,524],[0,1]],[[872,525],[3,-1],[1,2],[-1,1],[-1,2],[0,2],[1,1],[4,0],[1,-1],[2,2],[-1,1],[-1,0],[-1,1],[-1,2],[1,1],[3,2],[1,1],[0,2],[5,0],[0,1],[1,-1],[3,0]],[[892,543],[-1,0]],[[891,543],[-2,2],[-1,2],[0,4],[3,3],[2,0],[0,1],[1,2],[1,0],[1,1],[-1,1],[3,4]],[[763,453],[0,0]],[[936,221],[0,1],[1,-1],[-1,0]],[[936,221],[-1,-1],[0,-1],[1,-1],[0,-2],[2,0],[1,-1],[0,-1]],[[939,214],[-4,-4],[-2,-1],[-2,-2],[-1,-2],[-2,-3],[-5,-4],[-2,-2],[-5,-6],[-2,-2],[-1,0],[0,-2],[-2,-2],[-2,-4],[-1,0],[-2,-1],[0,-3],[-6,-8],[-1,-2],[0,-1],[-1,0],[-2,-2],[0,-2],[-1,-2],[-1,0],[-1,-2],[-5,-6],[-3,-6],[-2,-2],[-1,0],[-1,-4],[0,-2],[-1,0],[0,-1],[-1,0],[-2,-2],[-1,-2],[-1,-1],[0,-1],[-1,-2],[-2,-2],[-2,-3],[0,-1],[-4,-4],[-1,0],[-1,-1],[0,-2],[-1,-2],[0,-1],[-1,-1],[-2,-4],[-3,-4],[-3,-5],[-2,-5],[-3,-3],[1,-4],[2,-1],[1,0],[1,-1],[1,0],[0,-2],[1,-7],[3,-11],[0,-1],[1,-2],[-1,-1],[0,-3],[1,-2],[0,-3],[-1,-2],[0,-8],[-1,-1],[-1,0],[-1,-3],[1,-1],[3,0],[-2,-1],[0,-3],[-1,0],[0,-2],[-1,-1],[0,-1],[1,-1],[0,1],[1,2],[2,0],[0,-2],[-1,-1],[0,-1],[1,-1],[4,0],[0,-3],[2,-1],[0,-1],[1,0],[1,-1],[0,-1],[1,-1],[0,1],[2,0],[-1,-1],[0,-1],[1,0],[1,-1],[2,0],[0,-1],[-1,-2],[-1,0],[0,-1],[-1,-1],[1,-1],[0,-4],[1,0],[-1,-1],[1,-1],[0,-1],[1,-1],[0,-1],[-2,-1],[-2,0],[-1,3],[-1,1],[-2,0],[0,1],[-4,4],[-2,-2],[-3,1],[-2,0],[-2,-2],[0,1],[-1,0],[0,1],[-2,0],[-2,4],[0,1],[-1,0],[-2,2],[0,1],[-2,0],[-1,-1],[-2,0],[-1,1],[-4,-1],[0,-1],[-1,1],[-1,0],[0,1],[-1,0],[0,1],[-3,0],[-1,-1],[-2,1],[-1,1],[-1,2],[0,2],[-1,0],[-1,1],[0,2],[-4,-1],[-1,-1],[-1,0],[-6,3],[-2,0],[0,2],[1,1],[-2,2],[-1,0],[-2,-2],[-1,2],[-3,1],[0,1],[-1,0],[0,1],[-3,0],[-5,2],[-2,2],[-1,0],[0,1],[1,1],[-1,1],[1,0],[0,3],[-1,1],[0,1],[1,1],[-2,2],[-1,0],[-1,2],[-2,2],[0,2],[-1,2],[0,2],[-4,0],[-1,1],[-2,0],[-1,1],[0,2],[-3,0],[-1,1],[0,2],[-1,1],[-2,-2],[-1,0],[-2,-2],[0,-3],[-2,2],[0,3],[-1,1],[-1,0],[-1,2],[-1,0],[0,2],[-1,0],[-2,1],[-1,-1],[-2,1],[-1,0],[0,2],[-1,0],[-1,1],[-1,2],[-1,0],[-2,-2],[-2,0],[-1,1],[-2,-1],[-2,0],[-1,-2],[1,-1],[-1,0],[-2,2],[-1,0],[0,-1],[-2,-2],[-1,1],[-1,-1],[-2,0],[-2,2],[0,1],[-1,1]],[[725,74],[0,4],[1,2],[0,1],[-1,0],[-1,1],[0,1],[2,0],[1,1],[0,1],[-1,0],[0,2],[-1,0],[-1,2],[0,1],[-1,2],[-1,0],[-1,1],[2,4],[-1,1],[-4,2],[0,2],[2,2],[2,4],[-1,3],[-1,1],[0,6],[-1,1],[-1,0],[0,4],[-1,1],[0,2],[-1,2],[-1,0],[-2,1],[-1,0],[-1,-1],[-1,4],[0,3],[2,0],[1,1],[0,1],[1,0],[1,-1],[1,0],[2,1],[1,1],[0,1],[1,0],[-1,2],[-1,0],[0,1],[-1,0],[0,1],[-2,1],[-4,0],[-3,2],[0,5],[3,0],[2,2],[1,3],[0,2],[-1,0],[-3,1],[-6,0],[0,-1],[-1,2],[-1,1],[0,2],[-1,2],[0,2],[-1,3],[1,2],[1,0],[1,1],[2,3],[-3,1],[-2,2],[0,1],[1,0],[1,1],[0,1],[1,1],[0,1],[-1,1],[0,1],[1,1],[1,0],[0,2],[-1,1],[1,0],[0,1],[-1,1],[-3,1],[0,1],[2,0],[0,1],[-1,1],[0,1],[1,4],[0,8],[-2,2],[1,0],[3,1],[-2,1],[-2,2],[1,1],[2,3],[1,1],[0,2],[1,1],[1,0],[2,1],[-1,2],[0,3],[-1,3]],[[706,232],[1,0],[1,1],[0,2],[2,0],[1,1],[0,2],[2,0],[0,1],[1,2],[5,4],[3,1],[3,0],[5,4],[0,5],[1,0],[3,1],[2,2],[1,0],[1,1],[2,1],[3,0],[0,-1],[2,0],[0,1],[1,1],[2,4],[2,2],[0,1],[1,0],[0,3],[1,0],[0,3],[1,1],[3,4],[2,2],[1,0],[0,1],[1,1],[1,0],[0,-1],[1,0],[1,-1],[0,3],[1,1],[0,2],[1,1],[1,0],[1,2],[1,1],[0,3],[1,1],[1,2],[-1,2],[0,2],[1,1],[1,2],[0,1],[1,3]],[[772,308],[1,-1],[0,-3],[2,0],[3,-1],[2,0],[1,1],[1,2],[2,-1],[1,0],[4,4],[0,1],[1,1],[3,0],[1,-1],[2,0],[0,-1],[2,0],[0,-1],[3,0],[0,-4],[-1,-1],[1,0],[3,-1],[2,-2],[-1,-1],[-3,-7],[1,-1],[-1,-2],[-1,-1],[0,-1],[-1,0],[-1,-2],[7,0],[0,-1],[1,0],[1,-1],[2,-4],[0,-2],[7,0],[3,-1],[3,-2],[0,-1],[2,0],[0,-1],[2,-2],[3,2],[2,0],[0,-1],[1,0],[1,-1],[0,1],[1,0],[1,-1]],[[836,269],[0,1]],[[836,270],[1,1],[2,-3],[0,-3],[-2,0],[-1,-2],[1,-1],[1,0],[0,-4],[4,0],[0,-3],[-2,-1],[-4,0],[0,-1],[2,-1],[2,1],[3,0],[0,-1],[-2,-1],[0,-1],[-1,0],[-1,-2],[-2,0],[0,2],[-1,1],[0,-2],[-4,0],[0,1],[-2,0],[0,-1],[1,-1],[-1,-1],[1,0],[0,-2],[-1,0],[0,-2],[-4,0],[-1,-4],[0,-1],[1,0],[1,1],[2,0],[0,-1],[1,-1],[0,-3],[3,-2],[0,-1],[2,0],[0,-1],[1,0],[2,1],[0,1],[5,0],[2,-1],[1,0],[1,1],[2,0],[3,-1],[2,1],[0,-2],[-2,0],[0,-1],[-1,0],[-4,-1],[-1,-1],[0,-3],[3,-1],[2,-1],[1,0],[4,-1],[1,0],[1,1],[2,1],[7,0],[0,-1],[2,0],[2,-1],[2,1],[2,0],[4,-1],[6,0],[1,-1],[2,0],[2,3],[1,2],[2,2],[1,0],[3,4],[2,3],[1,0],[3,5],[4,-2],[0,-1],[3,-3],[1,1],[4,2],[3,3],[2,1],[1,1],[2,-1],[0,-1],[-1,0],[-1,-1],[0,-1],[1,0],[1,-1],[-1,0],[0,-2],[1,0],[2,-1],[1,-1],[0,-1],[1,0],[1,-1],[-1,-2],[-2,-6],[1,1],[4,0],[2,-2],[2,1],[1,0],[1,-1]],[[842,250],[-1,-1],[0,1],[1,0]],[[276,797],[1,-2],[0,-2],[-1,-1],[1,0],[0,-2],[2,-2],[-1,0],[1,-1],[1,-2],[1,0],[0,-3],[1,-2],[0,-2],[2,1],[1,1],[2,-1],[0,-3],[-1,0],[0,-1],[1,0],[0,-2],[1,1],[2,-1],[3,1],[1,2],[2,2],[4,-1],[2,-1],[1,-1],[2,1],[8,0],[0,1],[2,-1],[1,-1],[1,0],[1,-1],[-1,-1],[1,0],[1,-1],[0,-1],[1,0],[0,-1],[1,0],[1,-1],[1,1],[2,0],[1,-1]],[[326,769],[0,-1],[-1,-3],[-1,-1],[-3,-2],[-1,-2],[-3,-3],[-1,0],[0,-4],[-1,-1],[-2,-1],[-1,-1],[-1,0],[1,-1],[0,-2],[4,-2],[2,0],[2,-1],[1,-1],[0,-1],[1,0],[0,-2],[3,-3],[0,-1],[1,-1],[0,-1],[1,-1],[1,1],[0,-1],[2,-2],[0,-1],[-1,-2],[0,-1],[-1,-1],[0,-2],[-2,0],[-2,-1],[-4,-1],[0,-1],[-1,1],[0,-1],[2,-2],[0,-2],[-1,-1],[0,-2],[1,-1],[0,-2],[1,0],[1,-1],[1,0],[2,-1],[0,-1],[-1,-1],[-3,0],[0,-2],[1,0],[-1,-5],[-1,-2],[-2,0],[1,-4],[0,-6],[-2,0],[-1,-4],[1,-1],[0,-3],[6,0],[2,2],[5,-5],[2,-1],[2,0],[2,-3],[1,-1],[0,-7],[1,0],[0,-5],[-1,0],[0,-4],[1,-2],[-1,0],[-1,-2],[0,-4],[-4,0],[-1,1],[0,1],[-2,-2],[-2,0],[0,-4],[-1,0],[2,-2],[2,0],[1,-2],[3,-2],[0,-3],[2,0],[-1,-1],[-2,0],[0,-4],[1,0],[0,1],[2,-1],[0,-1],[2,0],[0,1],[1,0],[1,2],[1,0],[0,-1],[2,1],[1,1],[0,1],[3,0],[1,1],[1,-3],[1,0],[0,-1],[-1,-1],[0,-6],[3,0],[2,1],[-1,-2],[0,-1],[1,-1],[0,-1],[-1,-1],[0,-2],[1,0],[1,1],[1,-1],[2,3],[2,2],[0,1],[-1,0],[-1,-1],[-1,1],[2,2],[3,1],[0,-3],[-1,0],[1,-1],[1,0],[0,1],[1,1],[0,1],[4,-2],[0,-1],[2,-1],[2,0],[1,1],[2,-3],[0,-1],[1,0],[0,-5],[2,-2],[0,2],[1,1],[1,-2],[0,-1],[1,0],[1,1],[0,-1],[1,-1],[1,0],[0,1],[1,-1],[-1,-2],[0,-2],[1,0],[0,2],[3,0],[1,-1],[2,-1],[0,1],[1,1],[3,0],[1,-1],[0,-1],[-1,-1],[0,-3],[1,-1],[1,1],[1,0],[0,-2],[1,0],[2,1],[3,-1],[1,0],[1,-1],[-1,-1],[0,-1],[1,-1],[2,0],[1,1],[1,0],[1,-1],[2,1],[0,1],[3,2],[4,3],[0,1],[-1,0],[0,1],[2,1],[2,-1],[1,-1],[0,-2],[-1,-2],[0,-2],[1,-1],[0,-3],[3,0],[0,1],[1,0],[1,1],[2,-1],[1,0],[0,2],[2,3],[4,-1],[0,-1],[1,0],[0,-2],[2,0],[0,-3],[3,-1],[0,1],[1,1],[0,-1],[1,-1],[3,-1],[1,0],[0,-3],[1,-2],[1,0],[2,1],[-1,-2],[0,-3],[4,0],[0,-2],[1,-1],[0,-1],[3,-3],[-1,-1],[0,-2],[1,-2],[0,1],[2,0],[0,1],[3,2],[2,-2],[3,1],[1,1],[0,1],[2,0],[2,1],[0,2],[2,0],[0,1],[-1,3],[2,-2],[1,-2],[3,0],[0,-2],[-1,0],[0,-2],[3,0],[1,-1],[0,-1],[1,-1],[1,0],[0,-1],[2,0]],[[491,570],[0,-2],[-1,0],[0,-4],[1,0],[-1,-3],[-1,-1],[7,0],[0,-1],[1,-4],[-1,0],[-2,-1],[0,-1],[-1,-1],[1,-1],[1,-2],[-1,-1],[-2,1],[-1,1],[-6,0],[0,-1],[-2,-1],[-1,0]],[[482,549],[0,-1]],[[482,548],[-1,-1],[-2,0],[-1,-2],[0,-4],[-1,-2],[0,-3],[1,0],[1,-1],[1,0],[1,-1],[-1,-3],[-1,0],[0,-4],[-3,0],[0,1],[-1,-1],[-1,1],[-2,0],[-1,-1],[-1,0],[0,-1],[-1,-2],[-1,1],[-2,-1],[-1,0],[-2,1],[-1,0],[-1,1],[-2,-1],[-1,0],[0,-7],[1,-1],[0,-2],[1,-1],[-2,-2],[0,-1],[1,0],[1,-2],[-1,-1],[-1,0],[1,-2],[1,0]],[[460,506],[0,1]],[[460,507],[0,-3],[1,-1],[0,-1],[2,-1],[-2,-3],[0,-1],[-1,-1],[0,-1],[-2,-3],[0,-1],[-1,0],[-1,-1],[0,-3],[-1,-2],[0,-2],[-4,1],[-1,1],[-1,-1],[-1,1],[-1,0],[0,1],[-1,1],[-5,0],[-1,-1],[0,-1],[-2,0],[-1,1],[0,2],[-4,0],[0,-5],[-1,0],[-1,1],[-1,0],[1,-3],[0,-2],[-1,-1],[-3,0],[2,-4],[0,-2],[-1,0],[0,-2]],[[427,470],[1,0]],[[428,470],[0,-1],[1,-1],[-2,-2],[-1,0],[1,-1],[1,-3],[-2,0],[0,-1],[-2,0],[0,-2],[-1,0],[-1,-1],[0,-3],[2,-1],[0,-3],[-2,0],[-1,-2],[2,0],[0,-1],[-1,-1],[0,-1],[-1,-1],[3,0],[0,-2],[-1,0],[1,-2],[-1,-2],[0,-3],[1,0],[-1,-1],[-1,0],[0,-1],[2,-2],[0,-1],[1,-7],[-2,-1],[-1,-1],[0,-2],[-2,-2],[0,-2],[-1,-2],[-7,3],[-3,3],[-1,0],[0,-1],[-1,-1],[-2,0],[2,-2],[0,-5],[-2,-3],[-2,1],[-2,0],[-1,-2],[0,-3],[-1,-1],[-2,1],[-1,0],[-2,-2],[1,-1],[1,0],[0,-3],[1,-2],[1,-1],[-1,0],[0,-1],[1,-1],[-1,-1],[1,-1],[-1,0],[0,-1],[1,-1],[-1,0],[0,-2],[1,0],[1,1],[1,0],[0,-1],[1,0],[1,1],[0,1],[1,-1],[0,-4],[1,-1],[0,-4],[-1,-1],[0,-3],[1,0],[-1,-3]],[[403,372],[-1,0],[-3,-1],[-2,-2],[-1,0],[-2,2],[0,-4],[-1,-1],[-1,0],[-1,-1],[-2,-1],[-1,0],[-1,-1],[-2,0],[-1,-1],[-2,-1],[-2,0],[-1,1],[-2,-2],[-3,0],[0,1],[-3,1],[-2,0],[-1,1],[0,3],[2,0],[2,6],[-1,1],[0,1],[-2,1],[-1,-1],[-2,1]],[[366,375],[-2,1],[-1,1],[-1,2],[0,3],[-1,1],[0,7],[1,0],[0,1],[-1,1],[1,1],[1,0],[0,2],[-1,0],[1,1],[0,1],[-1,0],[-1,1],[0,3],[-4,4],[1,1],[1,2],[1,0],[0,2],[1,1],[1,0],[0,1],[-2,2],[-2,0],[0,-3],[-3,0],[0,1],[-1,1],[-1,0],[0,-1],[-3,3],[-1,-1],[-1,0],[-1,-1],[0,-1],[-5,0],[-1,2],[0,2],[1,1],[-3,3],[0,5],[-1,1],[1,0],[0,2],[-1,0],[0,1],[1,1],[1,0],[1,1],[2,0],[1,2],[0,6],[-1,0],[0,1],[-1,1],[0,1],[-1,0],[-2,1],[0,3],[-2,0],[-3,3],[-1,0],[-2,1],[-3,0],[-3,1],[-5,2],[-8,-1],[-1,-1],[0,-1],[-1,1],[-2,-1],[0,-10],[-1,-1],[0,1],[-1,0],[0,1],[-1,-1],[-1,0],[-5,-1],[0,1],[-1,1],[-5,-2],[0,-1],[1,-1],[-1,0],[-1,-1],[-1,1],[-3,0],[0,-1],[-3,0],[-1,-1],[-1,0],[0,2],[-3,0],[-2,1],[0,1],[-1,1],[-1,2],[-4,-1],[-2,0],[0,-1],[-2,2],[-2,1],[0,2],[1,0],[-2,2],[-1,0],[0,3],[1,0],[0,2],[-5,0],[0,1],[-5,0],[0,1],[-2,1],[-1,0],[-1,1],[0,3],[1,0],[1,1],[0,1]],[[253,462],[0,-1]],[[253,461],[1,0],[0,1],[1,1],[-1,1],[-1,0],[-2,2],[0,4],[-4,0],[-1,1],[-1,0],[0,3],[-2,-1],[-2,0],[0,3],[-5,0],[-4,1],[-3,0]],[[429,479],[0,0]],[[357,619],[0,0]],[[329,645],[0,-1],[-1,1],[1,0]],[[903,562],[-3,-1],[-2,2]],[[898,563],[-2,2],[-2,-2],[-2,-1],[-2,0],[0,3],[1,0],[-2,4],[-4,2],[-1,-1],[0,2],[-1,1],[-1,2],[-1,1],[-3,1],[-1,0],[-3,-1],[-3,0],[-1,-1],[-4,1],[-2,1],[-2,0],[-1,1],[0,1],[-1,0],[-2,-2],[0,-1],[-1,1],[0,2],[-2,2],[-1,0],[-1,-1],[-2,0],[0,1],[-1,-1],[-2,0],[0,1],[-1,-1],[-1,1],[0,1],[-2,0],[-1,-1],[0,1],[-1,1],[-1,0],[0,2],[-1,0],[-1,1],[0,3],[1,2],[0,2],[-2,0],[0,1],[-1,0],[-1,2],[0,1],[1,3],[0,1],[1,1],[-1,1],[-1,2],[-2,2],[0,2],[-1,0],[0,1],[-2,1],[0,3],[-1,0],[-3,2],[-1,2],[1,0],[0,1],[3,1],[0,3],[1,0],[0,1],[1,0],[0,1],[-2,0],[-1,2],[1,3],[-1,0],[0,6],[1,2],[0,6],[1,2],[-1,1],[0,1],[-1,1],[-6,0],[1,-1],[-1,-1],[-2,0],[-2,-2],[0,-1],[1,-1],[-1,-1],[0,-1],[-1,-1],[0,1],[-3,0],[1,1],[-1,1],[0,4],[-1,0],[-1,1],[-2,6],[-1,2],[2,2],[0,-1],[1,-1],[3,1],[0,3],[-2,0],[-1,-1],[1,2],[0,2],[-1,2],[-1,0],[-1,-1],[-4,0],[0,1],[-1,0],[0,-5],[-3,0],[-2,-1],[-1,-1],[0,1],[-1,0],[-1,-1],[-2,1],[-1,2],[-1,-2],[0,-1],[-3,1],[-2,0],[0,2],[-1,1],[0,1],[1,2],[-2,0],[-1,-1],[0,5],[-1,1],[-1,0],[0,1],[2,0],[0,1],[2,1],[0,1],[-1,1],[0,1],[-1,1],[-2,0],[0,1],[1,0],[0,2],[-2,1],[-2,0],[0,1],[-3,0],[-4,4],[-1,2],[1,1],[1,3],[1,0],[1,-1],[2,0],[0,1],[-1,0],[-1,1],[1,1],[0,1],[1,2],[-1,1],[-1,0],[-1,-2],[-1,-1],[-4,0],[0,2],[-2,1],[0,1],[-1,2],[-2,3],[-2,0],[-1,-1],[0,1],[-4,0],[-4,4],[0,3],[1,2],[-1,2],[-1,0],[0,1],[-2,4],[1,1],[1,0],[-2,2],[-1,4],[-1,0],[-2,2],[2,1],[1,0],[0,3],[-1,1],[0,1],[1,0],[0,1],[1,1],[-1,1],[0,1],[1,0],[0,-1],[1,0],[1,-1],[0,1],[1,0],[1,-1],[3,1],[-3,2],[-1,1],[-1,0],[0,1],[-1,0],[-1,-1],[-1,1],[1,1],[-1,1],[0,1],[2,2],[-1,1],[-1,0],[0,3],[-1,1],[0,1],[-2,2],[0,3],[-1,0],[-1,1],[0,5],[-1,1],[1,1],[-1,1]],[[745,767],[2,0]],[[747,767],[3,0],[3,1],[1,1],[8,-2],[2,0],[3,-2],[4,-2],[2,1],[2,2],[0,3],[1,0],[1,1],[0,2],[3,0],[3,1],[1,1],[2,-1],[1,-2],[0,-1],[1,0],[1,1],[1,2],[0,2],[1,0],[2,1],[3,0],[0,1],[2,0],[1,1],[5,4],[1,0],[1,2],[1,0],[0,1],[1,0],[0,1],[1,0],[4,4],[0,1],[2,1],[1,0],[2,1],[0,1],[2,1],[0,1],[1,1],[3,2],[1,0],[2,2],[2,0],[0,-2],[1,-1],[3,0],[-1,1],[0,5],[4,0],[5,4],[2,2],[0,-1],[1,0],[0,-1],[2,0],[1,4],[0,2],[2,0],[0,-1],[2,1],[2,0],[2,1],[2,5],[1,2],[0,5],[2,2],[3,4],[0,10],[-3,3],[-3,2],[-1,1],[0,1],[-2,2],[0,4],[-2,2],[0,3],[-4,3],[-1,0],[-2,1],[0,5],[2,1],[2,2],[-1,1],[0,1],[-1,0],[-3,5],[0,2],[-1,-1],[0,-1],[-3,0],[0,1],[-1,0],[0,1],[-2,2],[0,1],[-1,0],[0,1],[-1,1],[0,1],[1,0],[-1,1],[-1,0],[-1,1],[0,1],[2,1],[-1,1],[2,1],[0,-1],[1,0],[0,2],[1,0],[0,3],[2,1],[1,-1],[0,1],[1,1],[1,0],[0,1],[3,0],[2,2],[1,2],[4,-1],[1,-1],[3,1],[3,3],[2,-2],[2,2],[-1,1],[0,1],[1,1],[0,2],[-1,0],[0,1],[1,0],[1,1],[0,2],[-1,2]],[[864,918],[2,2],[1,2],[1,3],[2,1],[3,0],[1,-2],[7,-1],[2,0],[1,-1],[1,0],[1,-1],[-1,-1],[-1,-2],[2,-1],[1,-1],[3,0],[1,-2],[-1,-2],[-1,0],[0,-2],[1,0],[4,-3],[2,1],[3,2],[2,-1],[-1,-2],[3,-1],[1,0],[2,-2],[2,-3],[1,-1],[2,0],[2,1],[1,-1],[3,-1],[2,0],[1,-1],[0,-1],[2,-2],[1,0],[0,-2],[1,0],[1,-1],[0,-2],[1,-1],[1,0],[0,-3],[3,0],[2,-2],[0,-1],[1,-1],[1,-3],[0,-3],[1,-1],[0,-2],[1,-1],[0,-1],[1,-1],[0,-9],[-1,0],[0,-3],[-1,0],[0,-1],[-1,0],[-1,-1],[1,-4],[1,-1],[1,-2],[0,-7],[1,-6],[0,-4],[2,0],[0,-1],[1,0],[-1,-1],[0,-1],[1,0],[0,-2],[-1,-1],[0,-5],[1,-5],[2,-2],[1,-2],[1,-8],[3,-16],[1,-3],[3,-11],[0,-2],[3,-7],[2,-6],[0,-2],[1,-2],[2,-6],[2,-5],[0,-3],[5,-14],[1,-1],[2,-1],[2,-2],[0,-2],[-1,0],[1,-3],[3,-3],[1,0],[0,-2],[1,0],[0,-4],[-2,-2],[-1,-3],[0,-3],[-1,-2],[1,-2],[0,-1],[1,-1],[1,0],[0,-2],[1,-2],[0,-1],[1,-1],[1,-6],[0,-4],[1,-2],[-2,-1],[-1,-2],[0,-6],[1,0],[0,-13],[1,-1],[0,-18],[-1,-2],[-3,-3],[0,-1],[-2,0],[-11,-11],[-3,-1],[-2,1],[-7,-2],[-2,0],[-8,-4],[-4,-3],[-1,0],[-9,-9],[-5,-7],[-4,-8],[0,-2],[-4,-4],[-3,-5],[-2,-5],[-4,-8]],[[679,609],[4,0],[0,-3],[2,0],[1,-1],[1,2],[2,-2],[2,0],[0,3],[1,-1],[1,0],[1,1],[1,0],[0,1],[1,0],[2,1],[0,-2],[-1,-1],[0,-2],[2,-1],[1,0],[0,-2],[1,-1],[1,0],[1,2],[0,1],[2,0],[3,1],[6,-1],[2,1],[1,-3],[0,-2],[3,0],[1,-3],[3,-1],[-1,-2],[3,-1],[2,0],[4,2],[1,0],[0,-2],[1,1],[2,1],[0,1],[2,0],[0,2],[1,3],[4,0],[0,1],[-1,0],[-1,1],[0,5],[1,1],[1,-1],[2,0],[0,-1],[1,-3],[1,0],[1,-2],[1,-1],[3,-1],[1,1],[3,0],[0,-2],[1,0],[1,-2],[1,-1],[0,-2],[-1,-3],[0,1],[-2,0],[-3,1],[-1,0],[2,-2],[2,-4],[0,-2],[1,-2],[0,-1],[-1,-1],[0,-1],[2,0],[0,1],[1,-3],[1,-1],[0,-1],[1,-1],[1,0],[3,-1],[0,-2],[-1,-1],[-3,-1],[-2,1],[-1,-1],[0,-1],[1,0],[0,-2],[4,0],[0,-2],[-1,-2],[3,0],[0,-5],[2,0],[1,-2],[0,1],[1,1],[1,-1],[0,-2],[1,0],[0,-1],[2,-1],[-1,-1],[-1,0],[0,-2],[1,0],[3,3],[1,0],[1,1],[1,-1],[-1,-1],[0,-1],[1,0],[1,-1],[-1,-3],[-1,-1],[-1,-2],[1,-1],[-1,-1],[0,-1],[1,-1],[0,-1],[2,0],[0,-3],[1,-4],[3,-3],[-1,-1],[-2,-1],[-2,-3],[-1,-1],[-1,0],[-2,-2],[-2,-1],[1,-2],[1,-1],[-1,-1],[1,-4],[-1,-1],[-2,1],[-3,1],[-1,-1],[0,-2],[-2,-1],[-3,0],[0,1],[-2,2],[-2,0],[-2,1],[0,1],[-1,0],[0,1],[-1,1],[-1,0],[-2,2],[-1,0],[0,-4],[-1,0],[-1,1],[0,1],[-1,0],[-1,1],[-1,2],[-1,1],[-1,-1],[-2,-1],[-1,-1],[-1,0],[-1,-2],[-1,0],[0,-2],[-1,0],[0,-1],[1,-1],[-2,-1],[-3,0],[1,-3],[0,-1],[1,0],[0,-1],[-1,-1],[-1,0],[-2,-2],[0,-1],[3,0],[0,-2],[1,-1],[1,0],[0,-1],[-3,1],[-2,0],[-2,-1],[-1,-1],[0,-1],[-1,0],[0,1],[-3,0],[-4,-1],[-2,2],[-2,-2],[1,-1],[0,-2],[-1,-1],[-1,1],[-1,0],[-4,5],[0,-1],[-1,-1],[-1,0],[0,1],[-1,0],[-1,-1],[1,2],[0,1],[-2,0],[0,3],[-3,0],[0,1],[-3,0],[-3,1],[-2,0],[-1,-1],[-2,-1],[-1,1],[-1,0],[0,-1],[-2,0],[0,-1],[-1,0],[-1,-1],[0,-1],[-3,0],[0,3],[-1,0],[-1,-1],[0,1],[-1,2],[-2,-1],[0,-1],[-1,0],[0,1],[-2,-1],[-1,0],[-3,1],[0,1],[-1,1],[-1,0],[-1,2],[-1,0],[-2,-1],[0,-1],[-3,0],[0,0],[-4,0],[0,1],[-1,0],[-1,1],[0,-3],[-2,0],[0,1],[-1,0],[-1,-1],[0,-1],[1,0],[2,-1],[-2,0],[-2,1],[0,2],[-2,1],[0,2],[-1,1],[-1,0],[0,2],[1,-1],[0,1],[1,1],[0,7],[-1,1],[1,0],[1,1],[0,2],[-10,0],[-1,-1],[0,-1],[-2,-1],[-2,0],[-1,2],[1,1],[0,1],[-1,3],[-2,2],[0,1],[0,0],[0,1],[1,0],[-1,2],[-1,0],[0,2],[-1,0],[-1,2],[0,5],[-1,0],[-1,1],[2,5],[1,-1],[2,0],[2,-1],[2,-2],[0,3],[1,1],[0,4],[-2,0],[1,1],[1,0],[0,1],[-1,1],[-1,0],[-3,1],[-2,-2],[0,-2],[-1,0],[0,4],[-1,0],[-1,-1],[-1,1],[0,-1],[-1,-1],[0,1],[-3,0],[-1,1],[1,1],[0,1],[-1,0],[0,2],[1,2],[-3,0],[1,2],[2,-1],[0,1],[1,1],[3,0],[0,1],[2,0],[1,1],[-3,0],[0,2],[1,1],[1,0],[2,1],[0,5],[-1,2],[-1,0],[0,2],[1,0],[0,1],[2,1],[0,1],[1,0],[1,1],[1,0],[2,2],[1,0],[0,1],[-1,0],[0,3],[1,1],[1,0],[3,2],[1,1],[3,0],[1,4],[0,3],[1,1],[0,1],[1,0],[2,2],[-1,3],[0,1],[-1,2],[3,3],[2,0],[1,1],[-1,1],[2,0],[3,-1],[1,1],[0,1],[1,1],[-1,1],[0,1],[1,0],[0,1],[1,2],[2,0],[0,2],[4,0],[0,-1],[1,-1],[1,0],[1,-1],[1,1],[1,0],[1,1],[0,-2],[1,-1],[-1,-1],[0,-1],[1,-1],[2,-1],[1,0],[1,-2],[0,-3],[3,-2]],[[276,797],[-2,-1],[-1,0],[-1,-2],[0,-1],[-1,-1],[-1,2],[-1,1],[-1,-1],[0,-1],[-3,-1],[-2,-1],[0,-1],[-1,-2],[-1,-1],[0,-5],[-1,0],[-1,-1],[0,-7],[-1,-1],[-2,0],[-5,-5],[-4,-1],[-7,0],[-3,-1],[-1,-1],[-2,2],[-2,1],[-1,-4],[0,-1],[2,0],[0,-1],[-2,0],[2,-8],[1,0],[1,-1],[0,-2],[1,0],[1,-1],[1,0],[0,-1],[1,-1],[1,1],[1,0],[0,-1],[1,-2],[1,-1],[1,1],[2,-2],[4,0],[0,-1],[1,-1],[0,-1],[2,-2],[2,0],[0,-1],[2,-2],[1,1],[0,-1],[-3,-1],[0,-1],[-2,-1],[-1,0],[0,-2],[-2,-2],[1,0],[0,-1],[-1,0],[0,-1],[-1,-1],[0,-1],[1,-1],[0,-2],[-1,-1],[0,-1],[-1,1],[-1,0],[0,2],[-1,1],[-3,0],[-1,-1],[0,-1],[-2,0],[0,-3],[-1,-2],[-1,-1],[0,-1],[-1,-1],[0,-1],[-2,0],[-1,1],[-2,-2],[-1,0],[0,-1],[-1,0],[-1,-1],[-1,1],[0,2],[-1,0],[0,-1],[-1,0],[1,-2],[-1,-1],[0,-2],[-1,0],[0,-1],[-1,1],[-1,-1],[0,-2],[-1,0],[0,-2],[1,-2],[0,-2],[-2,-2],[0,-1],[-2,-1],[0,-1],[-1,0],[1,-1],[-1,-1],[-4,2],[-2,0],[-2,-2],[-4,-1],[-3,-2],[-2,-1],[-6,0],[-2,1],[-1,1],[0,1],[-3,1],[-1,0],[-5,1]],[[44,620],[-7,4],[-3,2],[-1,3],[-2,1],[0,1],[-2,2],[-4,6],[-1,1],[-1,2],[-3,2],[-3,1],[-1,1],[-3,2],[0,1],[-4,4],[-1,0],[-2,1],[-4,1],[-1,0],[-1,1],[0,3],[2,3],[1,1],[1,2],[-1,2],[0,1],[-1,2],[0,8],[2,1],[1,2],[3,1],[1,1],[2,0],[1,1],[5,4],[0,1],[2,2],[2,1],[1,1],[2,6],[1,2],[0,3],[1,3],[0,2],[-1,2],[0,2],[-1,1],[1,2],[0,3],[2,1],[1,1],[0,2],[1,2],[1,0],[1,1],[0,1],[1,1],[0,1],[1,0],[-1,3],[-2,0],[-1,3],[0,2],[-1,1],[1,1],[0,2],[-1,3],[-1,1],[0,4],[-1,2],[0,1],[-1,1],[0,2],[-1,4],[1,2],[0,2],[-2,0],[0,7],[-2,1],[-1,0],[-1,3],[0,3],[-1,1],[0,2],[1,1],[0,9],[-3,3],[0,4],[-1,1],[0,1],[1,1],[0,1],[-1,1],[0,1],[-1,1],[3,0],[1,1],[0,2],[-1,1],[-1,0],[1,1],[0,2],[1,1],[2,-2],[1,-2],[7,-7],[3,-1],[3,0],[2,-1],[2,0],[4,-4],[1,-3],[2,-4],[2,-2],[0,6],[1,0],[1,1],[0,1],[1,1],[-1,1],[-1,0],[0,1],[-3,0],[0,1],[-1,1],[-2,1],[0,5],[1,5],[0,4],[1,0],[0,1],[1,0],[1,-1],[1,1],[1,0],[1,1],[0,7],[-1,2],[1,1],[0,1],[1,1],[-1,1],[0,-2],[-1,0],[-2,-2],[1,-1],[0,-1],[-1,-1],[-1,1],[0,4],[1,0],[0,1],[-1,2],[-4,2],[-4,0],[-3,1],[-4,0],[0,3],[1,1],[0,2],[-1,-1],[0,-1],[-1,0],[-1,1],[0,-1],[-2,0],[-2,-2],[2,-2],[-1,0],[-1,-1],[-3,2],[-2,0],[-2,-1],[-1,0],[-1,2],[0,2],[-1,0],[3,-6],[4,2],[1,-1],[3,-1],[1,0],[1,1],[2,0],[0,-2],[-1,0],[0,-1],[-3,-1],[-2,-1],[-2,-2],[-1,1],[-1,-1],[-4,2],[-4,4],[-1,2],[-1,0],[0,6],[-1,1],[0,1],[-1,0],[3,3],[5,-2],[0,-1],[-1,-1],[0,-1],[2,2],[0,1],[3,0],[3,-1],[5,1],[3,1],[1,1],[1,0],[0,1],[4,3],[2,2],[9,4],[6,2],[6,3],[1,1],[0,-1],[3,0],[0,1],[1,0],[0,-2],[-6,-3],[-1,0],[0,-4],[-1,-3],[1,-3],[-2,-2],[-1,-3],[-1,0],[-2,-1],[-1,-3],[0,-2],[-1,-1],[1,-3],[0,1],[1,1],[0,4],[2,2],[0,1],[1,0],[1,1],[1,2],[1,0],[0,1],[3,3],[2,-1],[0,-2],[1,0],[0,2],[1,2],[0,4],[1,0],[0,1],[-1,1],[0,3],[1,1],[2,0],[1,1],[0,3],[-1,0],[-2,-1],[-3,0],[0,-1],[-1,0],[-1,1],[1,0],[8,3],[8,2],[11,5],[5,2],[3,1],[1,0],[8,3],[2,1],[5,2],[1,1],[1,0],[2,1],[3,1],[7,1],[3,1],[7,0],[3,1],[3,2],[1,1],[4,0],[8,2],[11,5],[2,0],[4,2],[1,0],[1,1],[15,2],[7,2],[4,2],[5,4],[3,3],[4,3],[0,1],[1,1],[10,12],[1,2],[0,2],[2,0],[1,1],[3,6],[3,3],[1,2],[2,1],[4,4],[7,3],[7,1],[3,0]],[[257,953],[1,-2],[2,-3],[2,-2],[-1,0],[0,-2],[1,-3],[1,-2],[3,0],[1,-1],[1,0],[0,-2],[1,0]],[[269,937],[0,-1]],[[269,936],[0,-2],[1,-2],[1,-1],[0,-1],[-1,-1],[-1,-2],[1,-1],[1,0],[0,-2],[1,-3],[0,-1],[-1,0],[-1,-1],[-2,0],[0,-1],[1,-1],[0,-5],[-1,-1],[1,-1],[2,0],[1,-1],[1,-4],[0,-4],[-3,-3],[-2,0],[-4,-1],[-2,-1],[-1,-1],[0,1],[-1,0],[0,-2],[-2,-1],[1,-1],[0,-1],[1,0],[0,-4],[1,-1],[1,0],[0,-2],[2,-2],[0,-3],[1,0],[0,-3],[1,1],[1,-1],[0,-3],[-1,0],[0,-4],[1,0],[1,-1],[0,-2],[-1,0],[-1,-1],[0,-4],[-1,-1],[1,-2],[0,-1],[1,0],[-1,-3],[0,-1],[1,-1],[1,1],[-1,0],[0,2],[1,0],[0,1],[1,1],[0,-1],[1,0],[0,-1],[1,0],[0,-2],[2,-1],[1,0],[1,-2],[0,-2],[-2,0],[0,-1],[1,0],[0,-1],[3,-2],[1,-1],[1,0],[0,-1],[1,-1],[2,0],[0,-1],[3,0],[-1,-4],[0,-1],[-2,0],[0,-1],[-4,1],[-1,0],[0,-1],[-1,1],[0,-1],[-1,0],[-1,-1],[0,-2],[-1,0],[1,-1],[0,-3],[1,0],[2,-1],[1,-1],[0,-3],[2,0],[1,1],[0,-1],[-1,-4],[-1,-1],[-1,0],[-1,-2],[-1,0],[-3,-2],[0,-3],[1,0],[0,-2],[1,-5],[1,-6]],[[63,849],[0,-1],[-2,0],[-2,-1],[-1,0],[0,3],[1,1],[0,2],[3,-1],[1,-1],[0,-2]],[[60,846],[-1,0],[0,1],[1,-1]],[[41,800],[-1,0],[1,1],[0,-1]],[[183,692],[0,-5],[-1,-1],[0,-4],[1,-1],[-1,-1],[1,-1],[0,-2],[1,-2],[1,-1],[0,-1],[-1,-1],[1,0],[0,-3],[-1,-2],[0,-1],[1,-2],[0,-1],[-2,0],[1,-1],[0,-2],[-2,0],[0,-2],[-2,-2],[-1,1],[-2,-1],[0,-4],[2,-1],[1,0],[1,-3],[-1,0],[0,-1],[2,-4],[0,-5],[-2,0],[0,-1],[-2,-1],[-3,0],[-4,-2],[-2,1],[-1,0],[-2,-1],[2,-4],[0,-2],[-1,-1],[-1,0],[0,1],[-1,-5],[1,-1],[1,-2],[-1,0],[0,-1],[1,-2],[1,0],[0,-2],[1,0],[1,-1],[0,-4],[1,-1],[0,-1],[2,-1],[0,-1],[-2,-2],[1,-2],[1,-1],[2,0],[-1,-1],[0,-1],[2,-2],[0,-5],[1,-2],[-2,-1],[0,-1],[-1,0],[-1,1],[0,-1],[-1,-1],[-2,2],[0,2],[-2,-2],[0,-1],[1,-2],[1,0],[1,-2],[0,-2],[2,0],[1,-1],[3,-1],[0,-2],[-1,0],[0,-4],[-1,-1],[0,-1],[1,-1],[-1,-2],[1,0],[0,-3],[-1,0],[0,-4],[-1,-1],[0,-1],[-1,0],[-1,-2],[0,-1],[1,-1],[0,-5],[-1,-1],[0,-1],[1,-2],[0,-5],[1,0],[1,-1],[0,-5],[-3,-3],[-1,0],[0,-2],[2,-3],[2,0],[4,-2],[0,-1],[1,2],[0,1],[1,0],[3,-1],[0,-1],[2,-1],[0,-1],[1,-1],[0,-1],[-1,0],[0,-3],[-2,0],[0,-5],[2,-1],[0,1],[2,-2],[0,-2],[5,-1],[3,2],[2,2],[1,-1],[2,-6],[-1,-1],[0,-4],[1,-1],[-1,0],[0,-1],[-1,0],[-1,-2],[-1,0],[0,-2],[2,1],[4,-1],[1,-1],[0,-1],[2,0],[0,1],[1,-2],[0,-1],[1,0],[4,4],[0,1],[1,0],[1,-1],[1,1],[3,-2],[2,-1],[2,0],[0,-1],[-1,0],[0,-1],[3,-3],[2,-1],[-1,-1],[2,0],[0,-1],[-1,-2],[1,-2],[0,-1],[-1,-1],[0,-2],[3,0]],[[229,477],[-1,-1],[-1,-2],[-2,0],[0,-3],[-2,-2],[0,-1],[1,-1],[-1,-2],[-1,0],[0,-1],[-2,-2],[-3,0],[0,-2],[-2,0],[-1,-1],[0,-3],[-1,1],[-1,2],[-1,1],[-2,1],[1,1],[-1,1],[0,1],[-2,1],[-2,-1],[-2,0],[0,1],[1,3],[1,5],[-1,-1],[-4,0],[0,1],[-1,0],[-3,1],[-1,0],[0,1],[-1,1],[-4,0],[0,4],[-5,0],[0,-1],[-1,-1],[0,-2],[1,-1],[3,0],[-2,-1],[-2,0],[0,-2],[1,-2],[-1,0],[-1,-1],[0,-1],[-3,0],[0,-1],[-1,0],[-1,-1],[-1,1],[-2,-2],[-1,1],[-1,-4],[1,-1],[0,-1],[-1,0],[-1,-1],[-1,0],[0,-2],[1,-1],[0,-1],[1,0],[0,-1],[-1,-1],[-2,-1],[0,-3],[-1,-3],[0,-6],[-5,0],[-3,-3],[-3,0],[0,-4],[1,-2],[-2,0],[0,-1],[-2,0],[0,-2],[-1,-1],[0,-1],[-1,0],[0,-3],[-1,1],[-1,0],[0,-1],[-1,0],[0,-1],[-1,0],[0,-1],[-2,-2],[-1,0],[-1,1],[1,0],[1,2],[-1,1],[-10,9],[0,-2],[-2,0],[0,1],[-3,1],[-2,0],[-1,-1],[0,1],[-1,1],[-1,-1],[-1,-2],[0,-1],[-1,0],[0,-4],[1,-1],[0,-1],[-4,0],[0,-4],[-1,-3],[0,-4],[-1,1],[0,1],[-2,0],[-1,1],[0,1],[-1,0],[-3,3],[-1,0],[-2,-1],[-1,0],[-1,1],[0,2],[-2,0],[-5,-5],[-2,-1],[-2,0],[0,-3],[-1,-2],[-3,0],[-3,-1],[-1,-3],[1,-2],[-4,0]],[[85,404],[1,2],[-1,1],[-1,0],[0,5],[-1,0],[1,1],[0,2],[-1,1],[2,0],[0,2],[-3,5],[-2,0],[0,1],[-1,1],[-2,0],[-1,1],[0,-1],[-1,0],[-1,1],[-1,0],[-2,2],[-2,1],[-2,2],[-3,0],[-1,1],[-3,1],[0,4],[-1,0],[0,1],[1,2],[0,2],[2,2],[2,1],[0,3],[-1,1],[0,7],[-1,2],[-1,0],[0,2],[-1,0],[-3,3],[-2,3],[-1,1],[-1,2],[0,2],[1,1],[-1,0],[0,5],[-2,2],[-2,1],[-1,0],[-1,2],[0,4],[1,0],[0,1],[1,0],[-1,1],[1,1],[1,0],[3,3],[0,1],[1,1],[0,1],[1,0],[2,1],[0,3],[1,1],[0,2],[1,1],[0,1],[1,1],[-2,2],[0,3],[1,0],[1,3],[-1,1],[1,1],[0,1],[1,0],[0,1],[1,1],[0,5],[1,0],[0,2],[-2,4],[-3,1],[-1,0],[-1,3],[0,3],[-1,2],[1,1],[2,3],[0,2],[-1,1],[-1,2],[2,2],[1,2],[0,3],[-2,3],[-2,1],[-3,0],[-1,1],[-2,1],[-2,0],[-1,2],[-1,1],[0,2],[1,0],[0,1],[-1,2],[-1,1],[0,3],[-1,0],[0,6],[-2,3],[1,3],[0,4],[2,1],[1,0],[3,4],[1,1],[0,1],[2,2],[0,2],[-2,1],[0,1],[-1,2],[0,2],[1,2],[0,1],[1,1],[1,2],[0,1],[-2,1],[0,1],[-2,4],[-3,2]],[[44,620],[1,2],[1,0],[4,3],[0,1],[2,0],[2,-2],[-1,-1],[1,0],[3,-1],[3,0],[2,2],[0,2],[1,2],[1,0],[0,1],[1,1],[2,3],[0,8],[-1,1],[1,1],[1,0],[0,2],[1,1],[1,0],[2,1],[0,2],[2,0],[0,3],[-1,1],[0,2],[1,1],[1,0],[-1,1],[0,1],[2,0],[1,-1],[0,-1],[2,2],[0,1],[-1,1],[-1,0],[-1,1],[2,4],[1,1],[1,0],[0,-1],[1,-1],[1,0],[1,-1],[0,-1],[1,0],[1,-1],[0,-2],[1,0],[0,-1],[2,1],[0,1],[1,0],[2,1],[0,-1],[1,-1],[0,-1],[2,-1],[1,-1],[11,5],[1,0],[8,4],[1,-1],[0,1],[4,2],[0,1],[-2,4],[-2,1],[0,4],[2,0],[5,-2],[3,3],[0,2],[2,0],[1,2],[3,1],[2,0],[2,1],[5,2],[0,1],[2,0],[0,-2],[1,-2],[1,0],[1,-1],[2,0],[2,-1],[1,0],[1,1],[3,2],[2,0],[1,-1],[2,0],[4,2],[1,2],[-1,2],[2,2],[1,2],[0,1],[-1,1],[2,0],[1,1],[0,3],[4,2],[-1,2],[0,1],[3,1],[2,0],[1,1],[0,-1],[3,0],[4,-1],[0,-2],[2,-2],[0,-1],[-1,-2],[0,-3],[-1,0],[-2,-2]],[[176,593],[-1,1],[0,-1],[1,0]]]}