{"type":"Topology","objects":{"data":{"geometries":[{"properties":{"index":1739,"nuts_1_code":"PL8","nuts_1_name":"Makroregion wschodni"},"type":"MultiPolygon","arcs":[[[-53,-38,-8,-7,6,-6,-5,4,-4,-3,-2,-19,-18,0]],[[8]]],"id":0},{"properties":{"index":1743,"nuts_1_code":"PL9","nuts_1_name":"Makroregion wojew\u00f3dztwo mazowieckie"},"type":"MultiPolygon","arcs":[[[18,1,2,3,-5,4,5,-7,6,7,-37,-36,-35,-34,33,-33,-32,-48,-25,-24,23,-23,-22,-21,20,-20,-19],[8]],[[48]]],"id":1},{"properties":{"index":1745,"nuts_1_code":"PL4","nuts_1_name":"Makroregion p\u00f3\u0142nocno-zachodni"},"type":"MultiPolygon","arcs":[[[-46,-45,44,-44,-43,-42,-41,40,-40,-15,-14,13,-17,9,-28,-27,26,-26],[49]],[[29]],[[30]],[[10]],[[11]],[[12]]],"id":2},{"properties":{"index":1747,"nuts_1_code":"PL5","nuts_1_name":"Makroregion po\u0142udniowo-zachodni"},"type":"Polygon","arcs":[[-14,13,14,-39,-55,15,16]],"id":3},{"properties":{"index":1749,"nuts_1_code":"PL6","nuts_1_name":"Makroregion p\u00f3\u0142nocny"},"type":"Polygon","arcs":[[17,18,19,-21,20,21,22,-24,23,24,-47,25,-27,26,27,28],[29],[30]],"id":4},{"properties":{"index":1752,"nuts_1_code":"PL7","nuts_1_name":"Makroregion centralny"},"type":"MultiPolygon","arcs":[[[31,32,-34,33,34,35,36,37,-52,-51,-56,38,39,-41,40,41,42,43,-45,44,45,46,47],[48],[56]],[[49]]],"id":5},{"properties":{"index":1753,"nuts_1_code":"PL2","nuts_1_name":"Makroregion po\u0142udniowy"},"type":"MultiPolygon","arcs":[[[50,51,52,53,54,55]],[[56]]],"id":6}],"type":"GeometryCollection"}},"bbox":[14.123472923286556,49.00285376074976,24.145281040429964,54.83534746586942],"transform":{"scale":[0.010031839957100509,0.005838332037156817],"translate":[14.123472923286556,49.00285376074976]},"arcs":[[[864,918],[2,2],[1,2],[1,3],[2,1],[3,0],[1,-2],[7,-1],[2,0],[1,-1],[1,0],[1,-1],[-1,-1],[-1,-2],[2,-1],[1,-1],[3,0],[1,-2],[-1,-2],[-1,0],[0,-2],[1,0],[4,-3],[2,1],[3,2],[2,-1],[-1,-2],[3,-1],[1,0],[2,-2],[2,-3],[1,-1],[2,0],[2,1],[1,-1],[3,-1],[2,0],[1,-1],[0,-1],[2,-2],[1,0],[0,-2],[1,0],[1,-1],[0,-2],[1,-1],[1,0],[0,-3],[3,0],[2,-2],[0,-1],[1,-1],[1,-3],[0,-3],[1,-1],[0,-2],[1,-1],[0,-1],[1,-1],[0,-9],[-1,0],[0,-3],[-1,0],[0,-1],[-1,0],[-1,-1],[1,-4],[1,-1],[1,-2],[0,-7],[1,-6],[0,-4],[2,0],[0,-1],[1,0],[-1,-1],[0,-1],[1,0],[0,-2],[-1,-1],[0,-5],[1,-5],[2,-2],[1,-2],[1,-8],[3,-16],[1,-3],[3,-11],[0,-2],[3,-7],[2,-6],[0,-2],[1,-2],[2,-6],[2,-5],[0,-3],[5,-14],[1,-1],[2,-1],[2,-2],[0,-2],[-1,0],[1,-3],[3,-3],[1,0],[0,-2],[1,0],[0,-4],[-2,-2],[-1,-3],[0,-3],[-1,-2],[1,-2],[0,-1],[1,-1],[1,0],[0,-2],[1,-2],[0,-1],[1,-1],[1,-6],[0,-4],[1,-2],[-2,-1],[-1,-2],[0,-6],[1,0],[0,-13],[1,-1],[0,-18],[-1,-2],[-3,-3],[0,-1],[-2,0],[-11,-11],[-3,-1],[-2,1],[-7,-2],[-2,0],[-8,-4],[-4,-3],[-1,0],[-9,-9],[-5,-7],[-4,-8],[0,-2],[-4,-4],[-3,-5],[-2,-5],[-4,-8],[2,-2],[0,-5],[-1,-1],[1,-2],[6,-2],[2,1],[2,0],[0,-1],[1,-1],[5,0],[1,-1],[0,-1],[1,0],[1,1],[1,-1],[0,-1],[-1,-1],[1,-1],[1,0],[0,0],[1,-1],[2,1],[0,1],[2,0],[0,-2],[2,1],[2,0],[0,-1],[-1,0],[0,-1],[-1,0],[1,-3],[2,0],[1,-3],[2,-1],[0,-2],[1,-1],[0,1],[1,1],[3,-1],[2,-1],[0,-2],[2,-2],[1,0],[0,-2],[1,0],[0,-1],[-1,0],[1,-1],[-1,-1],[1,-1],[1,-2],[0,-5],[2,-1],[0,-2],[-2,-2],[0,-2],[-3,-3],[0,-1],[1,0],[0,-2],[-1,0],[0,-1],[-2,-2],[1,-2],[0,-1],[1,-1],[-1,-1],[0,-2],[-2,0],[1,-1],[0,-4],[-1,0],[0,-2],[1,0],[1,-1],[1,-2],[1,-3],[-1,-1],[0,-2],[-1,0],[-1,-1],[0,-1],[-2,0],[0,-1],[-1,-1],[-2,0],[-3,-3],[0,-1],[-1,-1],[1,-1],[1,0],[1,-1],[0,-3],[1,0],[-1,-1],[0,-5],[-1,-1],[0,-10],[1,-1],[0,-2],[1,-1],[0,-1],[1,-1],[0,-2],[-1,-1],[0,-2],[2,-1],[1,0],[0,1],[1,-1],[1,0],[1,-3],[-1,-1],[0,-1],[1,0],[0,-1],[1,-2],[2,0],[1,1],[1,-1],[0,-2],[-1,0],[-2,-3],[1,-1],[2,-1],[1,0],[0,-2],[-1,0],[1,-2],[1,0],[0,-1],[1,-1],[0,-1],[-1,0],[-1,-1],[0,-5],[-1,0],[-2,-2],[0,-2],[-2,-4],[1,-1],[0,-2],[1,-1],[-1,-1],[4,0],[3,-2],[0,-2],[1,-1],[0,-4],[2,-2],[0,-1],[-1,0],[1,-1],[0,-1],[1,0],[2,-2],[1,0],[0,-1],[2,-1],[1,-1],[0,-2],[1,0],[0,-1],[2,0],[1,-1],[1,0],[0,-5],[-1,0],[0,-1],[1,-3],[-1,-1],[1,0],[1,-3],[1,0],[1,-1],[1,0],[1,-1],[0,-5],[1,0],[0,-1],[-1,-1],[1,-1],[0,-2],[-1,0],[0,-1],[2,0],[2,-2],[1,-2],[0,-3],[1,-2],[0,-1],[2,-2],[0,-1],[2,-2],[1,0],[2,-3],[2,-2],[2,0],[1,-1],[0,-1],[2,0],[0,-1],[2,0],[1,-1],[0,-1],[-1,-2],[-4,-2],[-5,0],[0,1],[-1,-1],[-1,1],[-3,0],[-1,-2],[-2,-3],[0,-6],[2,-1],[2,0],[2,-1],[0,-1],[-1,0],[0,-1],[1,-1],[0,-4],[2,-1],[3,0],[0,-1],[-1,-1],[1,-1],[-1,-2],[0,-2],[1,0],[1,-1],[0,-5],[1,-1],[0,-13],[-3,-10],[-1,-3],[0,-2],[-2,-5],[-2,-1],[-1,-1],[0,-1],[-1,-2],[-6,0],[-1,-1],[-6,0],[-6,-1],[-6,-2],[-2,-1],[-2,-2],[-1,-3],[0,-2],[-1,-2],[-2,-2],[-2,0],[-1,-1],[0,-2],[-1,0],[-1,-1],[-3,-5],[0,-1],[-4,-2],[-4,-4],[-2,-1],[-2,-2],[-1,-2],[-2,-3],[-5,-4],[-2,-2],[-5,-6],[-2,-2],[-1,0],[0,-2],[-2,-2],[-2,-4],[-1,0],[-2,-1],[0,-3],[-6,-8],[-1,-2],[0,-1],[-1,0],[-2,-2],[0,-2],[-1,-2],[-1,0],[-1,-2],[-5,-6],[-3,-6],[-2,-2],[-1,0],[-1,-4],[0,-2],[-1,0],[0,-1],[-1,0],[-2,-2],[-1,-2],[-1,-1],[0,-1],[-1,-2],[-2,-2],[-2,-3],[0,-1],[-4,-4],[-1,0],[-1,-1],[0,-2],[-1,-2],[0,-1],[-1,-1],[-2,-4],[-3,-4],[-3,-5],[-2,-5],[-3,-3],[1,-4],[2,-1],[1,0],[1,-1],[1,0],[0,-2],[1,-7],[3,-11],[0,-1],[1,-2],[-1,-1],[0,-3],[1,-2],[0,-3],[-1,-2],[0,-8],[-1,-1],[-1,0],[-1,-3],[1,-1],[3,0],[-2,-1],[0,-3],[-1,0],[0,-2],[-1,-1],[0,-1],[1,-1],[0,1],[1,2],[2,0],[0,-2],[-1,-1],[0,-1],[1,-1],[4,0],[0,-3],[2,-1],[0,-1],[1,0],[1,-1],[0,-1],[1,-1],[0,1],[2,0],[-1,-1],[0,-1],[1,0],[1,-1],[2,0],[0,-1],[-1,-2],[-1,0],[0,-1],[-1,-1],[1,-1],[0,-4],[1,0],[-1,-1],[1,-1],[0,-1],[1,-1],[0,-1],[-2,-1],[-2,0],[-1,3],[-1,1],[-2,0],[0,1],[-4,4],[-2,-2],[-3,1],[-2,0],[-2,-2],[0,1],[-1,0],[0,1],[-2,0],[-2,4],[0,1],[-1,0],[-2,2],[0,1],[-2,0],[-1,-1],[-2,0],[-1,1],[-4,-1],[0,-1],[-1,1],[-1,0],[0,1],[-1,0],[0,1],[-3,0],[-1,-1],[-2,1],[-1,1],[-1,2],[0,2],[-1,0],[-1,1],[0,2],[-4,-1],[-1,-1],[-1,0],[-6,3],[-2,0],[0,2],[1,1],[-2,2],[-1,0],[-2,-2],[-1,2],[-3,1],[0,1],[-1,0],[0,1],[-3,0],[-5,2],[-2,2],[-1,0],[0,1],[1,1],[-1,1],[1,0],[0,3],[-1,1],[0,1],[1,1],[-2,2],[-1,0],[-1,2],[-2,2],[0,2],[-1,2],[0,2],[-4,0],[-1,1],[-2,0],[-1,1],[0,2],[-3,0],[-1,1],[0,2],[-1,1],[-2,-2],[-1,0],[-2,-2],[0,-3],[-2,2],[0,3],[-1,1],[-1,0],[-1,2],[-1,0],[0,2],[-1,0],[-2,1],[-1,-1],[-2,1],[-1,0],[0,2],[-1,0],[-1,1],[-1,2],[-1,0],[-2,-2],[-2,0],[-1,1],[-2,-1],[-2,0],[-1,-2],[1,-1],[-1,0],[-2,2],[-1,0],[0,-1],[-2,-2],[-1,1],[-1,-1],[-2,0],[-2,2],[0,1],[-1,1]],[[745,767],[1,-1],[-1,-1],[1,-1],[0,-5],[1,-1],[1,0],[0,-3],[2,-2],[0,-1],[1,-1],[0,-3],[1,0],[1,-1],[-2,-2],[0,-1],[1,-1],[-1,-1],[1,-1],[1,1],[1,0],[0,-1],[1,0],[1,-1],[3,-2],[-3,-1],[-1,1],[-1,0],[0,-1],[-1,1],[-1,0],[0,1],[-1,0],[0,-1],[1,-1],[-1,-1],[0,-1],[-1,0],[0,-1],[1,-1],[0,-3],[-1,0],[-2,-1],[2,-2],[1,0],[1,-4],[2,-2],[-1,0],[-1,-1],[2,-4],[0,-1],[1,0],[1,-2],[-1,-2],[0,-3],[4,-4],[4,0],[0,-1],[1,1],[2,0],[2,-3],[1,-2],[0,-1],[2,-1],[0,-2],[4,0],[1,1],[1,2],[1,0],[1,-1],[-1,-2],[0,-1],[-1,-1],[1,-1],[1,0],[0,-1],[-2,0],[-1,1],[-1,0],[-1,-3],[-1,-1],[1,-2],[4,-4],[3,0],[0,-1],[2,0],[2,-1],[0,-2],[-1,0],[0,-1],[2,0],[1,-1],[0,-1],[1,-1],[0,-1],[-2,-1],[0,-1],[-2,0],[0,-1],[1,0],[1,-1],[0,-5],[1,1],[2,0],[-1,-2],[0,-1],[1,-1],[0,-2],[2,0],[3,-1],[0,1],[1,2],[1,-2],[2,-1],[1,1],[1,0],[0,-1],[1,1],[2,1],[3,0],[0,5],[1,0],[0,-1],[4,0],[1,1],[1,0],[1,-2],[0,-2],[-1,-2],[1,1],[2,0],[0,-3],[-3,-1],[-1,1],[0,1],[-2,-2],[1,-2],[2,-6],[1,-1],[1,0],[0,-4],[1,-1],[-1,-1],[3,0],[0,-1],[1,1],[0,1],[1,1],[-1,1],[0,1],[2,2],[2,0],[1,1],[-1,1],[6,0],[1,-1],[0,-1],[1,-1],[-1,-2],[0,-6],[-1,-2],[0,-6],[1,0],[-1,-3],[1,-2],[2,0],[0,-1],[-1,0],[0,-1],[-1,0],[0,-3],[-3,-1],[0,-1],[-1,0],[1,-2],[3,-2],[1,0],[0,-3],[2,-1],[0,-1],[1,0],[0,-2],[2,-2],[1,-2],[1,-1],[-1,-1],[0,-1],[-1,-3],[0,-1],[1,-2],[1,0],[0,-1],[2,0],[0,-2],[-1,-2],[0,-3],[1,-1],[1,0],[0,-2],[1,0],[1,-1],[0,-1],[1,1],[2,0],[0,-1],[1,-1],[1,1],[0,-1],[2,0],[1,1],[0,-1],[2,0],[1,1],[1,0],[2,-2],[0,-2],[1,-1],[0,1],[2,2],[1,0],[0,-1],[1,-1],[2,0],[2,-1],[4,-1],[1,1],[3,0],[3,1],[1,0],[3,-1],[1,-1],[1,-2],[1,-1],[0,-2],[1,1],[4,-2],[2,-4],[-1,0],[0,-3],[2,0],[2,1],[2,2],[2,-2],[-3,-4],[1,-1],[-1,-1],[-1,0],[-1,-2],[0,-1],[-2,0],[-3,-3],[0,-4],[1,-2],[2,-2]],[[891,543],[1,0]],[[892,543],[-3,0],[-1,1],[0,-1],[-5,0],[0,-2],[-1,-1],[-3,-2],[-1,-1],[1,-2],[1,-1],[1,0],[1,-1],[-2,-2],[-1,1],[-4,0],[-1,-1],[0,-2],[1,-2],[1,-1],[-1,-2],[-3,1]],[[872,524],[0,1]],[[872,525],[-1,1],[0,-1],[-1,0],[-1,1],[0,1],[-3,0],[-2,-1],[-1,-1],[-1,2],[-1,1],[0,1],[-1,1],[-2,0],[-1,1],[-2,1],[0,2],[-5,-5],[1,-2],[0,-2],[1,-1],[-1,-3],[0,-1],[-1,-1],[-2,0],[-1,-2],[-1,1],[0,2],[-4,0],[-2,1],[0,1],[-2,0],[-1,1],[0,1],[-1,1],[-2,0],[-1,-1],[-2,-3],[0,-2],[-1,-1],[-1,0],[0,-1],[-1,-1],[-5,0],[0,-1],[-1,-1],[-2,-1],[-1,0],[-2,2],[0,5],[-2,0],[-2,-4],[-2,-2],[-4,1],[-1,1],[-6,2],[0,-2],[-1,-1],[-2,-1],[-5,1],[-2,2],[-2,0],[0,-1],[-1,-1],[-2,0],[-1,-1],[-1,-2],[-5,0],[-1,-2],[-2,0],[-2,-2],[0,-2],[-1,-1],[0,-2],[1,0],[0,-1],[1,-1],[0,-3],[1,0],[1,-1],[0,-3],[-1,-1],[0,-2],[-1,0],[0,-2],[-1,0],[-3,-1],[0,-2],[1,0],[0,-2],[1,0],[0,1],[4,0],[1,1],[1,0],[0,-1],[1,-2],[1,-1],[0,-1],[1,-3],[-1,0],[0,-1],[-2,-2],[-1,1],[-2,-1],[0,-1],[-3,0],[-1,-2],[-1,0],[0,-1],[-1,-1],[0,-1],[1,0],[0,-1],[1,0],[1,-1],[1,0],[-1,-1],[1,-2],[2,-1],[0,-1],[-2,-1],[0,-3],[-2,0],[0,-1],[-1,0],[-1,-1],[0,-2],[-1,0],[0,-1],[-4,0],[0,-1],[-3,0],[0,-2],[-1,-3],[-2,1],[0,1],[-1,2],[-3,2],[-4,2],[-1,-1],[0,-5],[-1,0],[-1,-1],[1,-1],[0,-1],[2,-1],[0,-1],[1,-2],[4,-2],[6,-2],[1,1],[5,0],[1,-1],[0,-2],[1,0],[0,-2],[1,-3],[1,-2],[0,-1],[-1,-1],[0,-2],[2,-2],[-1,-4],[-1,-3],[-1,-2],[-1,1],[-2,1],[-2,-2],[0,-1],[-2,0],[-1,-1],[1,-1],[-1,0],[1,-2],[1,1],[1,0],[1,-2],[0,-1],[2,-1],[1,1],[1,-1],[1,-4]],[[770,403],[0,-1]],[[770,402],[-2,-2],[1,-1],[-1,-1],[0,-1],[-1,-3],[0,-1],[-1,1],[-2,-2],[0,-1],[2,1],[1,0],[0,-2],[1,1],[1,0],[2,-2],[-1,-1],[-2,0],[0,-1],[-1,0],[-1,-1],[0,-3],[1,-1],[-1,-1],[-2,-4],[0,-9],[1,-2],[0,-2],[-1,0],[0,-5],[1,-1],[0,-3],[1,-1]],[[763,453],[0,0]],[[85,404],[1,2],[-1,1],[-1,0],[0,5],[-1,0],[1,1],[0,2],[-1,1],[2,0],[0,2],[-3,5],[-2,0],[0,1],[-1,1],[-2,0],[-1,1],[0,-1],[-1,0],[-1,1],[-1,0],[-2,2],[-2,1],[-2,2],[-3,0],[-1,1],[-3,1],[0,4],[-1,0],[0,1],[1,2],[0,2],[2,2],[2,1],[0,3],[-1,1],[0,7],[-1,2],[-1,0],[0,2],[-1,0],[-3,3],[-2,3],[-1,1],[-1,2],[0,2],[1,1],[-1,0],[0,5],[-2,2],[-2,1],[-1,0],[-1,2],[0,4],[1,0],[0,1],[1,0],[-1,1],[1,1],[1,0],[3,3],[0,1],[1,1],[0,1],[1,0],[2,1],[0,3],[1,1],[0,2],[1,1],[0,1],[1,1],[-2,2],[0,3],[1,0],[1,3],[-1,1],[1,1],[0,1],[1,0],[0,1],[1,1],[0,5],[1,0],[0,2],[-2,4],[-3,1],[-1,0],[-1,3],[0,3],[-1,2],[1,1],[2,3],[0,2],[-1,1],[-1,2],[2,2],[1,2],[0,3],[-2,3],[-2,1],[-3,0],[-1,1],[-2,1],[-2,0],[-1,2],[-1,1],[0,2],[1,0],[0,1],[-1,2],[-1,1],[0,3],[-1,0],[0,6],[-2,3],[1,3],[0,4],[2,1],[1,0],[3,4],[1,1],[0,1],[2,2],[0,2],[-2,1],[0,1],[-1,2],[0,2],[1,2],[0,1],[1,1],[1,2],[0,1],[-2,1],[0,1],[-2,4],[-3,2],[-7,4],[-3,2],[-1,3],[-2,1],[0,1],[-2,2],[-4,6],[-1,1],[-1,2],[-3,2],[-3,1],[-1,1],[-3,2],[0,1],[-4,4],[-1,0],[-2,1],[-4,1],[-1,0],[-1,1],[0,3],[2,3],[1,1],[1,2],[-1,2],[0,1],[-1,2],[0,8],[2,1],[1,2],[3,1],[1,1],[2,0],[1,1],[5,4],[0,1],[2,2],[2,1],[1,1],[2,6],[1,2],[0,3],[1,3],[0,2],[-1,2],[0,2],[-1,1],[1,2],[0,3],[2,1],[1,1],[0,2],[1,2],[1,0],[1,1],[0,1],[1,1],[0,1],[1,0],[-1,3],[-2,0],[-1,3],[0,2],[-1,1],[1,1],[0,2],[-1,3],[-1,1],[0,4],[-1,2],[0,1],[-1,1],[0,2],[-1,4],[1,2],[0,2],[-2,0],[0,7],[-2,1],[-1,0],[-1,3],[0,3],[-1,1],[0,2],[1,1],[0,9],[-3,3],[0,4],[-1,1],[0,1],[1,1],[0,1],[-1,1],[0,1],[-1,1],[3,0],[1,1],[0,2],[-1,1],[-1,0],[1,1],[0,2],[1,1],[2,-2],[1,-2],[7,-7],[3,-1],[3,0],[2,-1],[2,0],[4,-4],[1,-3],[2,-4],[2,-2],[0,6],[1,0],[1,1],[0,1],[1,1],[-1,1],[-1,0],[0,1],[-3,0],[0,1],[-1,1],[-2,1],[0,5],[1,5],[0,4],[1,0],[0,1],[1,0],[1,-1],[1,1],[1,0],[1,1],[0,7],[-1,2],[1,1],[0,1],[1,1],[-1,1],[0,-2],[-1,0],[-2,-2],[1,-1],[0,-1],[-1,-1],[-1,1],[0,4],[1,0],[0,1],[-1,2],[-4,2],[-4,0],[-3,1],[-4,0],[0,3],[1,1],[0,2],[-1,-1],[0,-1],[-1,0],[-1,1],[0,-1],[-2,0],[-2,-2],[2,-2],[-1,0],[-1,-1],[-3,2],[-2,0],[-2,-1],[-1,0],[-1,2],[0,2],[-1,0],[3,-6],[4,2],[1,-1],[3,-1],[1,0],[1,1],[2,0],[0,-2],[-1,0],[0,-1],[-3,-1],[-2,-1],[-2,-2],[-1,1],[-1,-1],[-4,2],[-4,4],[-1,2],[-1,0],[0,6],[-1,1],[0,1],[-1,0],[3,3],[5,-2],[0,-1],[-1,-1],[0,-1],[2,2],[0,1],[3,0],[3,-1],[5,1],[3,1],[1,1],[1,0],[0,1],[4,3],[2,2],[9,4],[6,2],[6,3],[1,1],[0,-1],[3,0],[0,1],[1,0],[0,-2],[-6,-3],[-1,0],[0,-4],[-1,-3],[1,-3],[-2,-2],[-1,-3],[-1,0],[-2,-1],[-1,-3],[0,-2],[-1,-1],[1,-3],[0,1],[1,1],[0,4],[2,2],[0,1],[1,0],[1,1],[1,2],[1,0],[0,1],[3,3],[2,-1],[0,-2],[1,0],[0,2],[1,2],[0,4],[1,0],[0,1],[-1,1],[0,3],[1,1],[2,0],[1,1],[0,3],[-1,0],[-2,-1],[-3,0],[0,-1],[-1,0],[-1,1],[1,0],[8,3],[8,2],[11,5],[5,2],[3,1],[1,0],[8,3],[2,1],[5,2],[1,1],[1,0],[2,1],[3,1],[7,1],[3,1],[7,0],[3,1],[3,2],[1,1],[4,0],[8,2],[11,5],[2,0],[4,2],[1,0],[1,1],[15,2],[7,2],[4,2],[5,4],[3,3],[4,3],[0,1],[1,1],[10,12],[1,2],[0,2],[2,0],[1,1],[3,6],[3,3],[1,2],[2,1],[4,4],[7,3],[7,1],[3,0]],[[63,849],[0,-1],[-2,0],[-2,-1],[-1,0],[0,3],[1,1],[0,2],[3,-1],[1,-1],[0,-2]],[[60,846],[-1,0],[0,1],[1,-1]],[[41,800],[-1,0],[1,1],[0,-1]],[[253,462],[0,-1]],[[253,461],[0,-1],[-1,-1],[-1,0],[0,-3],[1,-1],[1,0],[2,-1],[0,-1],[5,0],[0,-1],[5,0],[0,-2],[-1,0],[0,-3],[1,0],[2,-2],[-1,0],[0,-2],[2,-1],[2,-2],[0,1],[2,0],[4,1],[1,-2],[1,-1],[0,-1],[2,-1],[3,0],[0,-2],[1,0],[1,1],[3,0],[0,1],[3,0],[1,-1],[1,1],[1,0],[-1,1],[0,1],[5,2],[1,-1],[0,-1],[5,1],[1,0],[1,1],[0,-1],[1,0],[0,-1],[1,1],[0,10],[2,1],[1,-1],[0,1],[1,1],[8,1],[5,-2],[3,-1],[3,0],[2,-1],[1,0],[3,-3],[2,0],[0,-3],[2,-1],[1,0],[0,-1],[1,-1],[0,-1],[1,0],[0,-6],[-1,-2],[-2,0],[-1,-1],[-1,0],[-1,-1],[0,-1],[1,0],[0,-2],[-1,0],[1,-1],[0,-5],[3,-3],[-1,-1],[0,-2],[1,-2],[5,0],[0,1],[1,1],[1,0],[1,1],[3,-3],[0,1],[1,0],[1,-1],[0,-1],[3,0],[0,3],[2,0],[2,-2],[0,-1],[-1,0],[-1,-1],[0,-2],[-1,0],[-1,-2],[-1,-1],[4,-4],[0,-3],[1,-1],[1,0],[0,-1],[-1,-1],[1,0],[0,-2],[-1,0],[-1,-1],[1,-1],[0,-1],[-1,0],[0,-7],[1,-1],[0,-3],[1,-2],[1,-1],[4,-2],[1,1],[2,-1],[0,-1],[1,-1],[-2,-6],[-2,0],[0,-3],[1,-1],[2,0],[3,-1],[0,-1],[3,0],[2,2],[1,-1],[2,0],[2,1],[1,1],[2,0],[1,1],[1,0],[2,1],[1,1],[1,0],[1,1],[0,4],[2,-2],[1,0],[2,2],[3,1],[1,0]],[[390,182],[-3,-2],[0,-3],[1,-1],[1,1],[2,0],[0,-5],[-1,0],[-3,1],[0,1],[-2,-1],[0,-1],[-3,0],[-1,-2],[-2,-3],[-5,0],[-1,-1],[-4,4],[1,1],[-1,2],[-3,0],[0,1],[-2,0],[0,5],[-2,2],[0,1],[-2,4],[0,1],[-4,4],[-1,0],[-1,-1],[0,-1],[-2,1],[-1,1],[0,2],[-2,1],[-1,1],[-2,3],[1,2],[2,0],[1,1],[4,1],[2,0],[2,2],[0,2],[1,0],[2,-1],[1,1],[0,4],[1,1],[-4,4],[0,3],[1,0],[2,4],[-1,0],[-2,1],[0,2],[-1,1],[-3,1],[0,-5],[-3,-4],[-2,0],[-2,-1],[-1,0],[-1,1],[-2,0],[-1,-1],[-4,0],[-2,1],[-3,-1],[-2,0],[0,-3],[-2,0],[0,2],[-1,2],[-2,0],[-1,1],[-3,0],[0,-3],[-1,0],[-1,1],[0,2],[-1,0],[1,1],[0,2],[1,1],[-2,2],[1,1],[0,1],[-1,0],[-4,-2],[-4,3],[-2,1],[-2,3],[-1,1],[0,4],[-1,0],[-1,1],[-2,-2],[-2,0],[-2,2],[-1,0],[0,2],[-3,0],[-3,1],[-1,0],[-2,2],[-2,0],[0,1],[-1,-1],[-2,-1],[-1,2],[-1,1],[-1,0],[-1,1],[-1,0],[-1,2],[-3,-1],[-2,-6],[2,-2],[1,0],[1,-1],[1,0],[1,-4],[-1,-1],[2,-2],[0,-2],[1,-1],[-1,0],[0,-1],[1,-1],[1,-2],[1,1],[1,0],[0,-2],[2,0],[2,-2],[1,-3],[-1,-1],[0,-1],[-1,-2],[1,-1],[0,-1],[2,-2],[-2,-2],[-1,0],[-1,2],[-2,3],[-1,-1],[0,-2],[-1,-1],[-5,0],[-2,-2],[0,-2],[-2,0],[-1,1],[-2,0],[0,-1],[-1,-2],[-1,0],[-1,-1],[0,-2],[-1,-1],[-1,-2],[0,-1],[-2,-2],[-2,0],[0,-1],[-2,-5],[-2,-1],[-1,1],[-3,1],[-1,1],[-2,0],[0,1],[-1,0],[-1,1],[0,1],[-2,2],[-1,0],[0,2],[-2,2],[0,4],[-1,1],[1,1],[0,1],[-1,2],[1,1],[-2,3],[-2,0],[-1,1],[0,2],[-2,1],[-2,4],[-1,1],[-2,4],[0,1],[-4,0],[-2,1],[0,1],[-1,1],[0,1],[-1,1],[0,1],[1,2],[-1,2],[-6,0],[0,-1],[-1,-1],[-1,0],[0,1],[-1,1],[0,1],[-1,1],[-1,0],[0,2],[-1,2],[-2,-2],[-1,1],[0,3],[-1,0],[0,4],[2,0],[0,-1],[1,0],[0,2],[-1,1],[1,0],[0,1],[1,-1],[1,1],[0,1],[1,1],[1,-1],[0,2],[1,-1],[1,0],[1,2],[1,0],[0,2],[1,1],[2,-2],[2,1],[1,2],[2,2],[1,0],[-1,2],[0,1],[1,0],[1,1],[0,2],[-1,1],[2,0],[2,2],[0,1],[-2,4],[-2,2],[-1,0],[-1,2],[0,1],[-1,0],[-1,2],[-1,0],[-1,2],[-2,1],[-1,-1],[-3,0],[0,1],[-1,0],[-4,1],[-1,-4],[0,-3],[-3,-1],[-1,0],[0,2],[-3,3],[-1,-1],[-2,2],[-2,0],[0,-1],[-4,-4],[0,-4],[-2,1],[-2,-3],[-1,2],[-2,0],[0,1],[3,3],[-2,2],[0,5],[-1,1],[0,1],[-2,1],[-2,0],[-2,-1],[-1,0],[-3,-1],[-1,-1],[-2,0],[0,4],[-2,4],[-1,1],[0,3],[-1,2],[-3,0],[0,-1],[-1,-1],[-2,0],[-2,-1],[-4,0],[-1,1],[-1,2],[-4,1],[-2,1],[0,1],[-1,1],[-8,0],[-2,2],[-3,0],[-3,3],[-2,0],[-1,-3],[-2,-2],[-3,0],[1,2],[-1,2],[0,1],[1,0],[-1,1],[1,2],[-1,2],[-4,4],[-2,0],[-3,5],[0,1],[-1,4],[0,3],[1,0],[0,1],[1,1],[0,2],[-1,1],[0,2],[-2,1],[-1,0],[-1,1],[0,2],[-3,-1],[-1,-1],[0,-1],[-1,0],[-1,1],[0,4],[-1,2],[0,-1],[-2,-1],[-1,-1],[0,-2],[-3,0],[-1,1],[0,1],[1,0],[0,1],[-3,0],[0,1],[-1,0],[-1,1],[0,-2],[-2,0],[0,2],[-2,0],[0,-1],[-1,-1],[-2,0],[-2,-4],[2,-1],[1,0],[1,1],[0,-1],[1,-2],[0,-5],[-1,-2],[-2,-1],[1,-1],[0,-2],[1,0],[-1,-1],[0,-1],[1,-4],[-1,0],[-4,-2],[-3,2],[-2,1],[0,-1],[-2,0],[-1,1],[-1,-1],[-4,0],[-1,1],[1,2],[0,1],[2,1],[0,1],[3,3],[0,1],[2,2],[0,2],[1,3],[1,1],[0,3],[1,1],[1,2],[0,2],[1,1],[0,1],[1,2],[1,1],[0,3],[1,1],[0,2],[1,1],[0,1],[-1,1],[1,2],[1,1],[0,7],[1,1],[0,4],[1,1],[-1,0],[0,1],[1,1],[-1,1],[1,0],[0,2],[1,1],[0,1],[1,1],[-1,0],[0,2],[1,0],[0,6],[-2,1],[0,1],[-1,2],[-1,1],[-2,3],[0,3],[-1,1],[1,0]],[[85,404],[4,0],[-1,2],[1,3],[3,1],[3,0],[1,2],[0,3],[2,0],[2,1],[5,5],[2,0],[0,-2],[1,-1],[1,0],[2,1],[1,0],[3,-3],[1,0],[0,-1],[1,-1],[2,0],[0,-1],[1,-1],[0,4],[1,3],[0,4],[4,0],[0,1],[-1,1],[0,4],[1,0],[0,1],[1,2],[1,1],[1,-1],[0,-1],[1,1],[2,0],[3,-1],[0,-1],[2,0],[0,2],[10,-9],[1,-1],[-1,-2],[-1,0],[1,-1],[1,0],[2,2],[0,1],[1,0],[0,1],[1,0],[0,1],[1,0],[1,-1],[0,3],[1,0],[0,1],[1,1],[0,2],[2,0],[0,1],[2,0],[-1,2],[0,4],[3,0],[3,3],[5,0],[0,6],[1,3],[0,3],[2,1],[1,1],[0,1],[-1,0],[0,1],[-1,1],[0,2],[1,0],[1,1],[1,0],[0,1],[-1,1],[1,4],[1,-1],[2,2],[1,-1],[1,1],[1,0],[0,1],[3,0],[0,1],[1,1],[1,0],[-1,2],[0,2],[2,0],[2,1],[-3,0],[-1,1],[0,2],[1,1],[0,1],[5,0],[0,-4],[4,0],[1,-1],[0,-1],[1,0],[3,-1],[1,0],[0,-1],[4,0],[1,1],[-1,-5],[-1,-3],[0,-1],[2,0],[2,1],[2,-1],[0,-1],[1,-1],[-1,-1],[2,-1],[1,-1],[1,-2],[1,-1],[0,3],[1,1],[2,0],[0,2],[3,0],[2,2],[0,1],[1,0],[1,2],[-1,1],[0,1],[2,2],[0,3],[2,0],[1,2],[1,1],[3,0],[4,-1],[5,0],[0,-3],[2,0],[2,1],[0,-3],[1,0],[1,-1],[4,0],[0,-4],[2,-2],[1,0],[1,-1],[-1,-1],[0,-1],[-1,0]],[[864,918],[1,-2],[0,-2],[-1,-1],[-1,0],[0,-1],[1,0],[0,-2],[-1,-1],[0,-1],[1,-1],[-2,-2],[-2,2],[-3,-3],[-3,-1],[-1,1],[-4,1],[-1,-2],[-2,-2],[-3,0],[0,-1],[-1,0],[-1,-1],[0,-1],[-1,1],[-2,-1],[0,-3],[-1,0],[0,-2],[-1,0],[0,1],[-2,-1],[1,-1],[-2,-1],[0,-1],[1,-1],[1,0],[1,-1],[-1,0],[0,-1],[1,-1],[0,-1],[1,0],[0,-1],[2,-2],[0,-1],[1,0],[0,-1],[3,0],[0,1],[1,1],[0,-2],[3,-5],[1,0],[0,-1],[1,-1],[-2,-2],[-2,-1],[0,-5],[2,-1],[1,0],[4,-3],[0,-3],[2,-2],[0,-4],[2,-2],[0,-1],[1,-1],[3,-2],[3,-3],[0,-10],[-3,-4],[-2,-2],[0,-5],[-1,-2],[-2,-5],[-2,-1],[-2,0],[-2,-1],[0,1],[-2,0],[0,-2],[-1,-4],[-2,0],[0,1],[-1,0],[0,1],[-2,-2],[-5,-4],[-4,0],[0,-5],[1,-1],[-3,0],[-1,1],[0,2],[-2,0],[-2,-2],[-1,0],[-3,-2],[-1,-1],[0,-1],[-2,-1],[0,-1],[-2,-1],[-1,0],[-2,-1],[0,-1],[-4,-4],[-1,0],[0,-1],[-1,0],[0,-1],[-1,0],[-1,-2],[-1,0],[-5,-4],[-1,-1],[-2,0],[0,-1],[-3,0],[-2,-1],[-1,0],[0,-2],[-1,-2],[-1,-1],[-1,0],[0,1],[-1,2],[-2,1],[-1,-1],[-3,-1],[-3,0],[0,-2],[-1,-1],[-1,0],[0,-3],[-2,-2],[-2,-1],[-4,2],[-3,2],[-2,0],[-8,2],[-1,-1],[-3,-1],[-3,0]],[[747,767],[-2,0]],[[745,767],[-5,0],[-3,-1],[-8,-2],[0,-1],[1,-2],[-1,0],[0,-1],[-2,-2],[-3,0],[-1,-1],[-2,0],[0,-1],[-3,0],[-2,1],[-2,-2],[0,2],[-1,0],[-3,-1],[-5,-3],[-1,-1],[-4,-3],[-1,-1],[0,-1],[-2,-2],[-3,-1],[-1,-1],[-1,0],[-1,-1],[-3,3],[-3,1],[-1,0],[-2,-1],[-2,1],[-1,0],[-2,-2],[0,-3],[1,-1],[-1,-1],[0,1],[-1,-1],[0,-1],[-1,1],[-2,0],[0,-1],[-3,-3],[-2,2],[-3,1],[-5,1],[0,-2],[-2,1],[-1,0],[0,-2],[-2,0],[0,-2],[-2,-3],[-1,-1],[0,-1],[-1,-1],[-4,0],[0,-2],[-3,-1],[-1,1],[-1,-1],[0,-2],[-1,0],[-2,1],[0,-1],[-1,0],[-2,2],[-3,0],[-2,2],[-4,-6],[-1,-3],[-2,-1],[0,-1],[-1,-1],[-4,-2],[0,-1],[1,0],[1,-1],[0,-1],[-2,0],[-3,-1],[-4,0],[-3,1],[-4,1],[-3,0],[0,-1],[-1,-1],[-2,0],[0,1],[-1,1],[0,1],[-1,1],[-4,0],[0,-1],[-2,-1],[-1,1],[-1,-2],[-1,0],[0,1],[-3,-1],[-1,-1],[-4,4],[-1,0],[0,1],[-1,0],[0,1],[-1,0],[0,2],[1,3],[-1,1],[-2,0],[-1,-1],[0,-1],[-3,-2],[-2,-1],[0,-3],[1,0],[0,-4],[-2,1],[-4,1],[-2,0],[-3,-2],[-2,-1],[0,-3],[-2,0],[-1,1],[0,-2],[-1,0],[0,-1],[-2,0],[0,1],[-2,0],[1,-3],[0,-1],[1,-2],[0,-1],[1,0],[-1,-1],[0,-4],[1,-1],[1,0],[1,-2],[1,-1],[-1,-1],[0,-2],[-1,-2],[0,-1],[1,-1],[0,-4],[-2,1],[-1,1],[-2,1],[-1,1],[-6,2],[0,-2],[2,-2],[0,-1],[-1,-1],[-3,-1],[-1,-2],[-4,1],[-4,0],[-1,-1],[1,-2],[1,-1],[1,0],[0,-1],[-1,0],[0,-2],[3,-4],[3,-3],[-3,1],[-2,-1],[0,-1]],[[532,660],[1,0]],[[533,660],[0,-1],[-3,-2],[-1,0],[-1,-1],[1,-2],[-1,-1],[2,0],[1,-2],[1,0],[0,-2],[1,-1],[1,0],[1,-1],[0,-1],[1,-1],[0,-3],[2,0],[0,-1],[-2,-2],[0,-3],[1,0],[1,-1],[0,-1]],[[538,634],[0,0],[1,0],[-3,1],[-1,1],[-2,1],[-1,1],[-2,-1],[0,-3]],[[531,634],[-1,0]],[[530,634],[0,-4],[1,-1],[0,-1],[-1,1],[-1,-1],[-1,0],[-2,-4],[-2,0],[-1,-2],[0,-1],[2,-1],[1,0],[3,-2],[-1,-2],[-1,-1],[-1,0],[-1,-2],[0,-1],[-1,-1],[-2,0],[-2,-1],[1,-3],[0,-3],[-1,1],[-2,0],[0,-1],[1,-1],[3,0],[4,-2],[-2,-1],[-2,0],[-1,-3],[1,0],[0,-1],[-1,0],[-2,-2],[0,-1],[-1,-3],[-5,0],[-1,-1],[0,-1],[2,0],[2,-2],[0,-1],[-1,0],[0,-1],[-1,-1],[1,-1],[0,-1]],[[491,570],[-2,0],[0,1],[-1,0],[-1,1],[0,1],[-1,1],[-3,0],[0,2],[1,0],[0,2],[-3,0],[-1,2],[-2,2],[1,-3],[0,-1],[-2,0],[0,-2],[-2,-1],[-2,0],[0,-1],[-1,-1],[-3,-1],[-2,2],[-3,-2],[0,-1],[-2,0],[0,-1],[-1,2],[0,2],[1,1],[-3,3],[0,1],[-1,1],[0,2],[-4,0],[0,3],[1,2],[-2,-1],[-1,0],[-1,2],[0,3],[-1,0],[-3,1],[-1,1],[0,1],[-1,-1],[0,-1],[-3,1],[0,3],[-2,0],[0,2],[-1,0],[0,1],[-4,1],[-2,-3],[0,-2],[-1,0],[-2,1],[-1,-1],[-1,0],[0,-1],[-3,0],[0,3],[-1,1],[0,2],[1,2],[0,2],[-1,1],[-2,1],[-2,-1],[0,-1],[1,0],[0,-1],[-4,-3],[-3,-2],[0,-1],[-2,-1],[-1,1],[-1,0],[-1,-1],[-2,0],[-1,1],[0,1],[1,1],[-1,1],[-1,0],[-3,1],[-2,-1],[-1,0],[0,2],[-1,0],[-1,-1],[-1,1],[0,3],[1,1],[0,1],[-1,1],[-3,0],[-1,-1],[0,-1],[-2,1],[-1,1],[-3,0],[0,-2],[-1,0],[0,2],[1,2],[-1,1],[0,-1],[-1,0],[-1,1],[0,1],[-1,-1],[-1,0],[0,1],[-1,2],[-1,-1],[0,-2],[-2,2],[0,5],[-1,0],[0,1],[-2,3],[-1,-1],[-2,0],[-2,1],[0,1],[-4,2],[0,-1],[-1,-1],[0,-1],[-1,0],[-1,1],[1,0],[0,3],[-3,-1],[-2,-2],[1,-1],[1,1],[1,0],[0,-1],[-2,-2],[-2,-3],[-1,1],[-1,-1],[-1,0],[0,2],[1,1],[0,1],[-1,1],[0,1],[1,2],[-2,-1],[-3,0],[0,6],[1,1],[0,1],[-1,0],[-1,3],[-1,-1],[-3,0],[0,-1],[-1,-1],[-2,-1],[0,1],[-1,0],[-1,-2],[-1,0],[0,-1],[-2,0],[0,1],[-2,1],[0,-1],[-1,0],[0,4],[2,0],[1,1],[-2,0],[0,3],[-3,2],[-1,2],[-2,0],[-2,2],[1,0],[0,4],[2,0],[2,2],[0,-1],[1,-1],[4,0],[0,4],[1,2],[1,0],[-1,2],[0,4],[1,0],[0,5],[-1,0],[0,7],[-1,1],[-2,3],[-2,0],[-2,1],[-5,5],[-2,-2],[-6,0],[0,3],[-1,1],[1,4],[2,0],[0,6],[-1,4],[2,0],[1,2],[1,5],[-1,0],[0,2],[3,0],[1,1],[0,1],[-2,1],[-1,0],[-1,1],[-1,0],[0,2],[-1,1],[0,2],[1,1],[0,2],[-2,2],[0,1],[1,-1],[0,1],[4,1],[2,1],[2,0],[0,2],[1,1],[0,1],[1,2],[0,1],[-2,2],[0,1],[-1,-1],[-1,1],[0,1],[-1,1],[0,1],[-3,3],[0,2],[-1,0],[0,1],[-1,1],[-2,1],[-2,0],[-4,2],[0,2],[-1,1],[1,0],[1,1],[2,1],[1,1],[0,4],[1,0],[3,3],[1,2],[3,2],[1,1],[1,3],[0,1],[-1,1],[-2,0],[-1,-1],[-1,1],[-1,0],[0,1],[-1,0],[0,1],[-1,1],[-1,0],[1,1],[-1,1],[-1,0],[-1,1],[-2,1],[0,-1],[-8,0],[-2,-1],[-1,1],[-2,1],[-4,1],[-2,-2],[-1,-2],[-3,-1],[-2,1],[-1,-1],[0,2],[-1,0],[0,1],[1,0],[0,3],[-2,1],[-1,-1],[-2,-1],[0,2],[-1,2],[0,3],[-1,0],[-1,2],[-1,1],[1,0],[-2,2],[0,2],[-1,0],[1,1],[0,2],[-1,2],[-1,6],[-1,5],[0,2],[-1,0],[0,3],[3,2],[1,0],[1,2],[1,0],[1,1],[1,4],[0,1],[-1,-1],[-2,0],[0,3],[-1,1],[-2,1],[-1,0],[0,3],[-1,1],[1,0],[0,2],[1,1],[1,0],[0,1],[1,-1],[0,1],[1,0],[4,-1],[0,1],[2,0],[0,1],[1,4],[-3,0],[0,1],[-2,0],[-1,1],[0,1],[-1,0],[-1,1],[-3,2],[0,1],[-1,0],[0,1],[2,0],[0,2],[-1,2],[-1,0],[-2,1],[0,2],[-1,0],[0,1],[-1,0],[0,1],[-1,-1],[0,-1],[-1,0],[0,-2],[1,0],[-1,-1],[-1,1],[0,1],[1,3],[-1,0],[0,1],[-1,2],[1,1],[0,4],[1,1],[1,0],[0,2],[-1,1],[-1,0],[0,4],[1,0],[0,3],[-1,1],[-1,-1],[0,3],[-1,0],[0,3],[-2,2],[0,2],[-1,0],[-1,1],[0,4],[-1,0],[0,1],[-1,1],[2,1],[0,2],[1,0],[0,-1],[1,1],[2,1],[4,1],[2,0],[3,3],[0,4],[-1,4],[-1,1],[-2,0],[-1,1],[1,1],[0,5],[-1,1],[0,1],[2,0],[1,1],[1,0],[0,1],[-1,3],[0,2],[-1,0],[-1,1],[1,2],[1,1],[0,1],[-1,1],[-1,2],[0,2]],[[269,937],[0,-1]],[[269,936],[-1,0],[0,2],[-1,0],[-1,1],[-3,0],[-1,2],[-1,3],[0,2],[1,0],[-2,2],[-2,3],[-1,2]],[[257,953],[6,0],[6,3],[3,1],[3,0],[7,4],[5,4],[2,3],[3,3],[3,1],[10,5],[1,1],[1,0],[3,2],[1,1],[2,0],[7,2],[1,1],[1,0],[14,2],[17,4],[8,3],[6,1],[1,0],[10,3],[3,1],[2,0],[6,1],[30,0],[3,-2],[1,-2],[1,0],[9,-6],[1,0],[4,-3],[2,-2],[8,-4],[5,-3],[6,-5],[3,-2],[6,-6],[1,-2],[0,-3],[-1,-1],[-1,0],[-1,1],[0,1],[-1,0],[-1,1],[0,2],[-1,2],[-1,1],[-1,2],[-6,6],[-3,2],[-1,1],[-3,2],[-1,1],[-7,4],[-1,0],[-1,1],[-4,2],[0,1],[-2,0],[-2,2],[-1,0],[-2,-4],[0,-1],[-1,-1],[0,-3],[1,-1],[1,0],[5,-5],[0,-7],[1,-1],[-1,-1],[0,-2],[4,0],[0,0],[0,-2],[1,-1],[0,-2],[1,-2],[1,-1],[2,-6],[1,-2],[-1,-1],[0,-3],[-1,0],[1,-2],[1,-3],[-1,-2],[0,-2],[1,0],[0,-1],[1,-2],[0,-1],[2,-2],[4,-3],[4,0],[0,-1],[1,0],[1,-2],[3,-3],[1,0],[8,-2],[1,-1],[5,-1],[1,-1],[3,0],[2,1],[0,1],[1,1],[0,-1],[1,0],[1,-1],[1,0],[0,-1],[1,0],[11,1],[5,0],[11,1],[7,2],[4,1],[5,1],[2,1],[1,1],[4,1],[0,1],[9,5],[1,1],[3,2],[1,1],[2,0],[-4,-4],[-2,-1],[-5,-4],[-1,0],[-5,-2],[-2,-1],[-1,-1],[-3,-2],[-1,0],[-6,-3],[-8,0],[-1,-1],[-3,-1],[0,-2],[2,0],[0,-2],[1,0],[0,-2],[-1,-1],[0,-2],[1,0],[0,-2],[3,0],[6,-1],[3,-1],[1,1],[0,-1],[-1,-2],[0,-1],[-1,-2],[0,-1],[-1,0],[0,-1],[2,0],[0,1],[1,0],[0,3],[1,1],[0,2],[5,5],[1,0],[2,3],[2,2],[1,0],[6,3],[5,0],[4,2],[3,3],[0,2],[1,0],[1,1],[0,2],[1,1],[1,0],[1,2],[1,0],[0,1],[-1,1],[1,1],[1,0],[3,1],[1,1],[20,-3],[11,-1],[20,-3],[3,-1],[17,-3],[7,0],[4,-1],[1,-1],[2,1],[4,0],[12,-2],[7,-1],[7,0],[12,-2],[7,0],[2,-1],[5,-1],[6,-1],[3,1],[2,-1],[5,1],[3,-1],[3,0],[1,-2],[8,2],[3,-1],[2,1],[16,0],[40,2],[8,1],[1,-1],[8,0],[2,1],[16,1],[4,0],[9,1],[3,0],[3,1],[11,0]],[[357,619],[0,0]],[[329,645],[-1,0],[1,-1],[0,1]],[[629,400],[0,1]],[[629,401],[2,-1],[1,0],[0,-1],[4,0],[1,-3],[0,-1],[-2,0],[0,-2],[1,-1],[0,-1],[2,-1],[1,-1],[0,-1],[-1,-1],[1,-1],[0,-2],[1,-2],[2,0],[2,2],[3,0],[0,-1],[1,-1],[1,-2],[2,-1],[1,0],[1,-1],[3,-2],[0,-3],[-1,0],[-1,-2],[0,-3],[1,0],[1,2],[2,2],[4,-3],[0,-1],[1,0],[1,-1],[0,1],[2,-1],[1,0],[1,2],[-1,0],[-1,1],[2,3],[3,-2]],[[671,372],[0,-1]],[[671,371],[2,-2],[2,2],[1,2],[1,1],[1,2],[1,-2],[1,0],[3,-3],[1,0],[1,-2],[0,-2],[3,1],[-1,1],[4,0],[1,3],[1,2],[0,3],[-1,1],[1,0],[3,-1],[0,-2],[1,0],[0,-3],[-2,-2],[0,-1],[3,-3],[1,-2],[2,0],[0,-8],[8,0],[7,1],[5,0],[0,-4],[2,0],[0,-1],[1,0],[0,-3],[1,-1],[1,0],[0,-1],[2,0],[0,-1],[4,-2],[3,3],[0,1],[1,1],[0,1],[1,2],[2,0],[1,-1],[1,0],[2,1],[1,0],[2,1],[2,0],[0,1],[-1,1]],[[747,355],[-1,0]],[[746,355],[4,0],[0,-1],[2,1],[1,0],[1,-1],[1,-3],[1,-2],[1,0],[1,1],[2,-1],[1,-1],[0,1],[2,0],[0,2],[1,1],[0,1],[-1,0],[1,1],[2,0]],[[766,354],[2,-4],[-2,-2],[0,-2],[1,-3],[0,-7],[-1,-3],[1,-3],[1,-4],[0,-2],[2,-6],[-1,-3],[3,-4],[0,-3],[-1,-3],[0,-1],[-1,-2],[-1,-1],[0,-2],[1,-2],[-1,-2],[-1,-1],[0,-3],[-1,-1],[-1,-2],[-1,0],[-1,-1],[0,-2],[-1,-1],[0,-3],[-1,1],[-1,0],[0,1],[-1,0],[-1,-1],[0,-1],[-1,0],[-2,-2],[-3,-4],[-1,-1],[0,-3],[-1,0],[0,-3],[-1,0],[0,-1],[-2,-2],[-2,-4],[-1,-1],[0,-1],[-2,0],[0,1],[-3,0],[-2,-1],[-1,-1],[-1,0],[-2,-2],[-3,-1],[-1,0],[0,-5],[-5,-4],[-3,0],[-3,-1],[-5,-4],[-1,-2],[0,-1],[-2,0],[0,-2],[-1,-1],[-2,0],[0,-2],[-1,-1],[-1,0]],[[454,352],[-2,-1],[-3,3],[-1,2],[-4,0],[0,2],[-1,1],[-1,2],[1,0],[0,2],[-1,3],[-4,0],[0,-6],[-2,-1],[-1,-1],[-1,0],[0,1],[-1,1],[0,2],[-5,0],[0,2],[-1,-1],[-3,1],[0,1],[-1,1],[-4,0],[-1,-1],[-1,0],[-3,3],[-1,0],[0,1],[-8,0],[-2,1],[0,2]],[[403,372],[1,3],[-1,0],[0,3],[1,1],[0,4],[-1,1],[0,4],[-1,1],[0,-1],[-1,-1],[-1,0],[0,1],[-1,0],[-1,-1],[-1,0],[0,2],[1,0],[-1,1],[0,1],[1,0],[-1,1],[1,1],[-1,1],[0,1],[1,0],[-1,1],[-1,2],[0,3],[-1,0],[-1,1],[2,2],[1,0],[2,-1],[1,1],[0,3],[1,2],[2,0],[2,-1],[2,3],[0,5],[-2,2],[2,0],[1,1],[0,1],[1,0],[3,-3],[7,-3],[1,2],[0,2],[2,2],[0,2],[1,1],[2,1],[-1,7],[0,1],[-2,2],[0,1],[1,0],[1,1],[-1,0],[0,3],[1,2],[-1,2],[1,0],[0,2],[-3,0],[1,1],[0,1],[1,1],[0,1],[-2,0],[1,2],[2,0],[0,3],[-2,1],[0,3],[1,1],[1,0],[0,2],[2,0],[0,1],[2,0],[-1,3],[-1,1],[1,0],[2,2],[-1,1],[0,1]],[[427,470],[1,0]],[[428,470],[0,2],[1,0],[0,2],[-2,4],[3,0],[1,1],[0,2],[-1,3],[1,0],[1,-1],[1,0],[0,5],[4,0],[0,-2],[1,-1],[2,0],[0,1],[1,1],[5,0],[1,-1],[0,-1],[1,0],[1,-1],[1,1],[1,-1],[4,-1],[0,2],[1,2],[0,3],[1,1],[1,0],[0,1],[2,3],[0,1],[1,1],[0,1],[2,3],[-2,1],[0,1],[-1,1],[0,3]],[[460,507],[0,-1]],[[460,506],[-1,0],[-1,2],[1,0],[1,1],[-1,2],[-1,0],[0,1],[2,2],[-1,1],[0,2],[-1,1],[0,7],[1,0],[2,1],[1,-1],[1,0],[2,-1],[1,0],[2,1],[1,-1],[1,2],[0,1],[1,0],[1,1],[2,0],[1,-1],[1,1],[0,-1],[3,0],[0,4],[1,0],[1,3],[-1,1],[-1,0],[-1,1],[-1,0],[0,3],[1,2],[0,4],[1,2],[2,0],[1,1]],[[482,549],[0,-1]],[[482,548],[1,0],[2,1],[0,1],[6,0],[1,-1],[2,-1],[1,1],[-1,2],[-1,1],[1,1],[0,1],[2,1],[1,0],[-1,4],[0,1],[-7,0],[1,1],[1,3],[-1,0],[0,4],[1,0],[0,2]],[[491,570],[1,0],[0,1],[1,0],[1,1],[2,1],[1,0],[2,-1],[2,1],[1,-1],[3,1],[1,2],[0,-2],[1,0],[1,-1],[-1,2],[0,2],[3,0],[0,1],[2,2],[1,2],[2,0]],[[515,581],[2,-2],[-1,0],[0,-1],[-1,-1],[3,0],[0,-1],[1,-1],[0,-1],[-1,-1],[3,0],[1,-1],[5,0],[0,-1],[2,0],[1,1],[0,1],[2,0],[0,-1],[3,-1],[1,-1],[0,-1],[-1,-1],[1,-1],[1,0],[1,-2],[1,0],[1,1],[0,-1],[1,-1],[4,-1],[3,0],[-1,-1],[0,-1],[2,0],[0,-2],[-1,0],[1,-1],[0,-1],[3,0],[3,1],[-1,0],[0,1],[2,2],[3,-2],[0,-1],[4,0],[2,2],[0,1],[2,0],[1,1],[0,-1],[1,-1],[2,0],[2,2],[0,1],[-1,1],[2,2],[2,0],[0,-1],[3,0],[1,-2],[1,-1],[1,0],[0,-3],[3,-1],[3,0],[2,-1],[0,-1],[1,-1],[2,-1],[1,-1],[-1,-4],[-1,-1],[0,-2],[2,-2],[0,-4],[1,-1],[2,0],[0,-1],[2,0],[3,1],[0,-2],[4,-4],[1,1],[4,-1],[0,-1],[2,-2],[0,-3],[-2,-1],[-1,0],[1,-1],[0,-2],[-1,-2],[-3,-3],[-1,0],[0,-1],[3,-3],[2,0],[2,-4],[0,-1],[1,-1],[-3,-2],[-1,-1],[0,-3],[3,0],[2,1],[2,-2],[0,-1],[-1,-1],[2,-1],[0,2],[3,0],[1,1],[1,0],[1,1],[-1,1],[2,0],[1,-1],[1,0],[1,1],[0,1],[1,-1],[1,0],[1,-1],[2,-1],[0,-1],[2,-2],[-1,-1],[0,-1],[1,-1],[3,0],[4,-1],[0,-2],[1,-1],[1,0],[1,-1],[0,-2],[1,0],[0,-1],[-1,-1],[1,-2],[1,0],[0,-1],[-1,-1],[-1,0],[-2,1],[-1,0],[-1,-1],[1,-1],[2,0],[0,-5],[1,-1],[0,-1],[-1,-1],[0,-3],[3,0],[2,-1],[0,-1],[1,-1],[1,0],[0,-9],[-1,0],[-2,-1],[0,-2],[-3,0],[-1,1],[-1,0],[-4,1],[0,-1],[-1,0],[0,2],[-1,0],[0,1],[-3,0],[-2,2],[-1,-1],[-2,0],[1,-1],[-1,0],[-1,-1],[-2,-1],[-1,-2],[0,-2],[-1,-1],[1,-1],[2,0],[0,-1],[1,-2],[0,-1],[-1,-1],[2,-2],[0,-3],[1,-1],[2,0],[0,-4],[-1,-1],[0,-7],[4,0],[1,1],[2,0],[0,-7],[1,-1],[-1,0],[0,-1],[-1,-1],[-2,0],[0,-1],[-1,-1],[0,-1],[1,-1],[-1,-2],[-1,-1],[-2,0],[0,1],[-1,-1],[0,-2],[-1,-1],[0,-3],[-1,-1],[0,-2],[1,-1],[0,-2]],[[615,498],[1,0],[0,1],[-1,-1]],[[429,479],[0,0]],[[527,338],[-1,0],[1,-1],[0,1]],[[527,338],[1,0],[1,-2],[0,-2],[1,-1],[1,-2],[0,-1],[1,0],[1,-2],[0,-1],[-1,0],[0,-2],[1,-1],[0,-1],[2,-2],[1,1],[1,0],[2,2],[4,2],[1,0],[1,-1],[2,-3],[0,-1],[5,0],[0,-4],[2,-1],[4,-1],[2,2],[1,2],[2,-2],[4,-2],[1,-1],[1,-2],[-1,-1],[0,-2],[-1,-1],[-1,1],[-1,2],[-1,0],[0,-4],[1,-1],[0,-1],[-1,-1],[-1,0],[0,-1],[-1,0],[0,-1],[-2,-1],[-1,1],[0,1],[-1,-1],[0,-1],[-1,0],[0,-4],[1,-1],[-1,0],[5,-3],[1,1],[3,0],[0,1],[1,0],[0,-3],[3,0],[1,-1],[0,-2],[1,0],[1,1],[0,-2],[-1,-1],[0,-2],[-3,0],[1,-1],[-1,-1],[3,-2],[2,0],[1,-1],[2,1],[1,-1],[-1,-1],[-1,-2],[-1,-1],[-1,1],[-2,0],[-1,-2],[-1,-3],[-3,-3],[0,-1],[-2,0],[0,-2],[5,0],[2,-2],[2,-1],[2,0],[1,-3],[0,-2],[2,-1],[2,0],[2,2],[0,1],[3,-1],[2,-1],[1,-1],[2,0],[0,1],[2,0],[1,-1],[0,-1],[1,0],[0,-1],[2,-1],[2,0],[0,1],[3,-1],[1,1],[1,0],[2,1],[0,-1],[2,0],[0,-2],[3,0],[0,-1],[1,-1],[1,0],[0,-2],[-1,-3],[0,-2],[2,-1],[1,0],[0,-3],[1,-1],[0,-1],[1,-1],[1,0],[0,-3],[2,-2],[-1,-1],[-4,0],[0,-1],[1,-1],[0,-1],[-1,-1],[0,-1],[2,0],[2,-2],[0,-1],[1,0],[0,-3],[1,0],[1,-1],[-1,0],[-2,-2],[1,-1],[1,0],[0,-1],[3,-3],[1,0],[-2,-2],[0,-2],[1,-1],[3,0],[0,-3],[4,0],[1,1],[0,-1],[1,0],[0,1],[1,-1],[2,-1],[3,0],[1,1],[0,1],[2,0],[0,-2],[2,0],[0,1],[1,1],[1,0],[0,1],[1,0],[1,-1],[1,1],[0,1],[1,-1],[0,1],[1,-1],[3,0],[0,2],[2,0],[0,1],[1,1],[1,0],[1,1],[-1,1],[1,2],[4,4],[0,1],[1,1],[3,0],[2,-2],[1,0],[0,2],[1,1],[2,0],[2,2],[2,-1],[2,0],[1,1],[0,2],[5,0],[1,-1],[1,1],[4,0],[2,1],[0,1],[1,2],[3,0],[0,1],[1,1],[2,0],[2,-1],[0,-2],[1,-1],[1,1],[0,3],[2,1]],[[706,232],[1,-3],[0,-3],[1,-2],[-2,-1],[-1,0],[-1,-1],[0,-2],[-1,-1],[-2,-3],[-1,-1],[2,-2],[2,-1],[-3,-1],[-1,0],[2,-2],[0,-8],[-1,-4],[0,-1],[1,-1],[0,-1],[-2,0],[0,-1],[3,-1],[1,-1],[0,-1],[-1,0],[1,-1],[0,-2],[-1,0],[-1,-1],[0,-1],[1,-1],[0,-1],[-1,-1],[0,-1],[-1,-1],[-1,0],[0,-1],[2,-2],[3,-1],[-2,-3],[-1,-1],[-1,0],[-1,-2],[1,-3],[0,-2],[1,-2],[0,-2],[1,-1],[1,-2],[0,1],[6,0],[3,-1],[1,0],[0,-2],[-1,-3],[-2,-2],[-3,0],[0,-5],[3,-2],[4,0],[2,-1],[0,-1],[1,0],[0,-1],[1,0],[1,-2],[-1,0],[0,-1],[-1,-1],[-2,-1],[-1,0],[-1,1],[-1,0],[0,-1],[-1,-1],[-2,0],[0,-3],[1,-4],[1,1],[1,0],[2,-1],[1,0],[1,-2],[0,-2],[1,-1],[0,-4],[1,0],[1,-1],[0,-6],[1,-1],[1,-3],[-2,-4],[-2,-2],[0,-2],[4,-2],[1,-1],[-2,-4],[1,-1],[1,0],[1,-2],[0,-1],[1,-2],[1,0],[0,-2],[1,0],[0,-1],[-1,-1],[-2,0],[0,-1],[1,-1],[1,0],[0,-1],[-1,-2],[0,-4]],[[725,74],[-2,0],[-3,3],[-2,0],[0,-1],[-1,0],[-1,1],[-2,1],[-2,0],[0,-2],[-1,0],[-3,-3],[0,-2],[-2,-3],[0,1],[-2,0],[-1,-1],[0,2],[-2,2],[0,1],[-2,1],[-2,0],[0,-2],[-1,1],[-1,0],[-2,-1],[-2,0],[-1,-1],[1,-2],[1,0],[0,-2],[2,-1],[2,-2],[-1,-2],[-1,0],[-1,-1],[-1,1],[-2,0],[-1,-1],[-3,-2],[0,-2],[-1,-1],[-1,0],[0,-1],[1,-1],[0,-1],[-1,-1],[-1,0],[0,1],[-1,-1],[-2,-1],[-1,0],[0,-1],[-1,0],[0,1],[-2,2],[0,2],[-1,0],[-1,-1],[-1,1],[1,2],[-2,2],[-1,0],[-2,-2],[-1,0],[0,1],[-1,0],[0,1],[-2,0],[1,2],[0,0],[-2,1],[0,1],[-1,1],[-1,-1],[-1,1],[1,1],[-2,2],[1,1],[-1,1],[0,1],[-1,1],[-4,0],[-1,-1],[-1,0],[-2,-2],[-1,0],[0,1],[-1,0],[-1,1],[0,1],[-1,0],[0,-3],[-1,0],[0,-2],[-1,-1],[-1,0],[-1,-1],[-2,0],[-2,2],[-2,1],[-1,1],[0,1],[-3,2],[-4,0],[0,-3],[-1,0],[-1,1],[0,-2],[-3,-1],[0,2],[-1,1],[-1,-1],[-4,0],[0,-2],[1,0],[-1,-1],[0,-5],[-1,-1],[0,-1],[-2,1],[0,1],[-2,0],[0,-1],[-1,0],[-1,1],[-1,-1],[-1,0],[-1,1],[-1,-2],[-2,0],[0,-1],[-1,-1],[-1,0],[0,-3],[-1,-1],[-1,1],[0,1],[-1,0],[-1,-4],[0,-3],[-1,-1],[-1,-2],[-1,-1],[0,-6],[-1,-2],[-1,0],[0,-2],[1,-1],[0,-2],[-2,0],[-4,4],[-1,0],[-1,2],[0,1],[-3,2],[-1,0],[-4,1],[-3,-1],[0,-3],[-3,-3],[-3,0],[-1,1],[-1,0],[-1,1],[-1,-1],[-1,0],[-3,1],[0,1],[1,2],[0,3],[1,1],[1,3],[2,1],[0,1],[1,0],[-1,3],[-1,0],[-1,1],[0,1],[1,1],[0,4],[-1,2],[1,1],[0,3],[-1,2],[0,5],[-3,0],[-2,-1],[-1,-1],[0,-1],[-1,-1],[-2,2],[-4,1],[-1,1],[-2,0],[2,4],[-1,0],[0,4],[-1,-1],[-1,0],[-1,-1],[0,1],[-1,1],[-2,0],[0,1],[-1,0],[0,3],[-2,1],[0,3],[-1,3],[0,1],[-1,2],[0,6],[-1,0],[-1,1],[-1,0],[-2,1],[-1,2],[0,3],[-1,-1],[-2,0],[0,-2],[-2,-1],[-1,0],[0,-2],[-1,-1],[-2,-1],[-1,0],[0,-5],[-5,-2],[0,1],[-6,0],[0,-1],[-1,-1],[-1,-2],[0,-2],[-1,-1],[0,-2],[-1,-2],[1,0],[0,-3],[-1,-1],[-1,1],[-1,-1],[-1,-2],[0,-2],[1,-1],[-1,-1],[-1,0],[-2,-1],[-1,0],[-1,1],[-2,-2],[-1,1],[-1,0],[-1,2],[-2,0],[0,-1],[-1,1],[-1,-3],[-1,0],[-1,-1],[-2,0],[-2,1],[-1,-1],[-1,1],[0,2],[2,2],[0,1],[-2,4],[-1,0],[1,3],[0,2],[-1,0],[1,2],[0,2],[-2,1],[0,1],[-10,0],[-1,1],[0,1],[1,0],[-1,1],[1,0],[1,1],[0,2],[-1,1],[0,1],[-1,0],[-1,4],[1,1],[0,1],[-1,0],[-1,1],[1,2],[-1,0],[0,1],[-1,5],[0,5],[-3,1],[-2,0],[0,-1],[-1,0],[0,-1],[-2,2],[-1,0],[0,1],[-1,2],[-4,0],[0,1],[-1,0],[-3,2],[0,5],[-1,1],[0,1],[-1,1],[-1,3],[0,1],[-1,2],[0,1],[-1,1],[0,1],[-1,1],[0,1],[2,2],[0,2],[2,0],[0,1],[-1,1],[-2,0],[-1,1],[0,4],[1,1],[0,3],[-2,0],[-2,1],[0,-2],[1,-1],[-1,-1],[-5,0],[-1,2],[-1,1],[-1,0],[0,1],[-1,0],[-2,2],[-6,0],[-1,1],[-2,1],[0,-1],[1,-1],[0,-1],[-1,-1],[-1,1],[0,-3],[-3,2],[0,1],[-1,0],[-1,2],[0,4],[-4,1],[-1,0],[0,-1],[-1,1],[0,3],[-1,1],[-2,0],[0,1],[-2,-1],[0,-1],[-1,-1],[-1,0],[0,1],[-1,1],[-2,0],[-1,1],[-1,2],[0,1],[1,1],[-1,0],[0,1],[-1,0],[0,2],[-1,1],[-1,0],[0,1],[-1,1],[-1,0],[-1,1]],[[390,182],[2,4],[0,1],[2,3],[-1,0],[0,3],[-2,2],[1,0],[0,1],[1,2],[-1,0],[0,1],[1,0],[0,1],[-1,1],[2,-1],[1,1],[1,0],[1,-1],[1,0],[2,2],[2,0],[0,1],[1,0],[2,-1],[0,1],[6,1],[0,1],[-1,0],[0,2],[2,2],[2,0],[3,2],[1,1],[2,0],[2,1],[0,2],[5,-1],[2,-1],[-1,2],[1,1],[0,1],[-1,1],[-2,0],[0,1],[1,1],[-1,2],[0,3],[1,0],[0,1],[-1,0],[0,2],[-2,2],[-1,0],[-1,2],[1,0],[0,1],[2,2],[-1,0],[0,1],[1,0],[1,1],[-2,4],[0,1],[-1,1],[0,1],[1,0],[1,1],[0,5],[-1,2],[0,1],[1,1],[2,-2],[1,0],[1,1],[2,0],[0,-2],[1,-1],[2,-1],[1,2],[-1,0],[0,2],[-1,0],[0,3],[-2,0],[0,2],[-1,3],[-1,1],[0,1],[1,1],[3,1],[4,0],[5,-2],[0,1],[1,1],[4,0],[0,1],[1,2],[-2,0],[-1,2],[1,2],[0,2],[-1,1],[0,1],[-4,1],[-3,1],[0,2],[-1,1],[0,1],[1,2],[-2,0],[0,3],[-1,0],[0,2],[1,0],[-1,1],[0,2],[1,1],[1,0],[0,2],[2,1],[2,0],[0,2],[1,1],[1,0],[1,1],[-2,1],[-1,0],[-1,2],[0,1],[-1,0],[0,1],[-1,1],[0,1],[-1,0],[0,1],[3,1],[2,0],[0,5],[3,3],[3,0],[2,7],[2,4],[-1,2],[-2,0],[-1,4],[1,2],[1,0],[1,1],[1,0],[1,3],[-1,2],[0,1],[1,0],[1,1],[2,1],[-1,1],[0,1],[-2,3],[1,1],[0,1]],[[454,352],[4,1],[8,0],[0,1],[1,0],[1,1],[0,-1],[3,1],[1,0],[2,-1],[0,-2],[2,1],[0,3],[2,3],[4,-2],[1,-1],[3,-1],[1,-2],[0,-1],[2,-2],[2,-1],[1,-1],[-1,-1],[1,-1],[0,1],[1,1],[2,0],[2,-2],[0,-2],[1,-2],[1,0],[0,2],[2,0],[0,-2],[1,1],[0,-1],[2,-2],[2,0],[0,-1],[4,2],[1,1],[0,1],[1,0],[-1,2],[-1,1],[1,1],[-1,1],[1,1],[1,-1],[1,0],[2,2],[3,0],[1,-1],[0,-1],[-1,-1],[0,-1],[1,-1],[0,-1],[2,0],[1,-1],[0,-1],[-1,-1],[3,0],[1,1],[1,-1],[1,-2],[0,-1]],[[565,309],[-1,0],[1,1],[0,-1]]]}