{"type":"Topology","objects":{"data":{"geometries":[{"properties":{"index":1738,"nuts_1_code":"RO4","nuts_1_name":"Macroregiunea Patru"},"type":"Polygon","arcs":[[-23,0,-2]],"id":0},{"properties":{"index":1746,"nuts_1_code":"RO1","nuts_1_name":"Macroregiunea Unu"},"type":"Polygon","arcs":[[-6,-5,4,-4,-24,1,2]],"id":1},{"properties":{"index":1748,"nuts_1_code":"RO2","nuts_1_name":"Macroregiunea Doi"},"type":"MultiPolygon","arcs":[[[-21,-20,19,-19,-18,17,-17,3,-5,4,5,6]],[[7]],[[8]],[[9]],[[10]],[[-14,11]],[[12]],[[13,-14]],[[14]],[[15]]],"id":2},{"properties":{"index":1751,"nuts_1_code":"RO3","nuts_1_name":"Macroregiunea Trei"},"type":"Polygon","arcs":[[16,-18,17,18,-20,19,20,21,22,23]],"id":3}],"type":"GeometryCollection"}},"bbox":[20.264360822716,43.619531387487854,29.70170587138027,48.263444074907156],"transform":{"scale":[0.009446791840504775,0.00464856124866797],"translate":[20.264360822716,43.619531387487854]},"arcs":[[[465,22],[-6,6],[-3,1],[-4,1],[-5,0],[-5,-4],[0,-1],[-1,0],[0,-1],[-2,-2],[-7,-5],[-6,0],[-1,-1],[-2,0],[-4,-2],[-5,0],[-2,1],[-5,2],[-3,1],[-9,9],[-2,1],[-1,0],[-2,-1],[-4,0],[-4,1],[-1,1],[-1,0],[-5,4],[-2,1],[-2,2],[-2,3],[-1,1],[-4,0],[-4,-1],[-1,-1],[-1,0],[0,-1],[-2,0],[-7,2],[-2,1],[0,3],[-3,4],[-3,0],[-3,2],[-2,1],[-5,0],[-2,-1],[-11,0],[-2,-2],[-10,-5],[-3,-3],[-7,-1],[-7,3],[-4,1],[-1,1],[-1,0],[0,1],[-1,0],[-2,1],[-1,0],[-2,1],[-1,0],[-1,1],[0,1],[-1,1],[0,1],[-1,1],[0,10],[1,1],[2,6],[0,4],[1,4],[1,3],[5,3],[6,2],[1,0],[1,1],[3,6],[0,3],[1,1],[0,1],[-1,2],[-2,3],[-3,2],[-8,0],[0,1],[-1,1],[-1,0],[0,2],[-1,0],[0,1],[-1,2],[-1,0],[-3,3],[-3,2],[-4,4],[-2,3],[0,1],[-2,1],[-1,1],[-2,0],[0,1],[-2,0],[-2,2],[0,3],[1,5],[0,5],[-2,2],[-1,2],[-3,0],[-6,2],[0,1],[-1,0],[-1,3],[-3,4],[-2,10],[0,7],[-3,3],[0,1],[-1,2],[-1,5],[1,2],[1,0],[5,-2],[4,4],[0,10],[3,3],[3,1],[4,-3],[3,-4],[2,-1],[6,4],[1,1],[-1,3],[0,1],[-3,5],[-1,3],[-2,2],[-2,1],[0,1],[-1,1],[-1,0],[-3,-1],[-1,0],[-6,5],[0,1],[-1,0],[0,1],[-5,7],[-1,3],[-3,4],[-1,0],[0,1],[-4,-2],[-3,-4],[-1,-2],[-2,-1],[-4,0],[-3,-4],[0,-1],[-1,-3],[-2,-2],[0,-1],[-1,-4],[0,-2],[-3,-5],[-1,-2],[-1,-3],[-1,-6],[-2,-3],[0,-3],[-1,-2],[-3,-3],[-1,0],[-2,1],[-4,5],[-2,4],[0,2],[-1,1],[-2,3],[-2,4],[1,2],[0,3],[-1,2],[-1,1],[-1,2],[0,4],[-1,1],[-4,1],[-4,2],[-2,0],[-6,2],[-3,-1],[-2,3],[-5,-2],[-3,0],[-3,2],[-6,-1],[-1,2],[-1,4],[0,7],[-1,4],[-2,4],[-3,2],[-2,1],[-4,0],[-4,1],[-5,-1],[-3,3],[0,3],[-2,4],[-1,1],[0,7],[1,2],[2,0],[0,1],[2,-1],[1,2],[2,-1],[1,-1],[0,2],[1,-1],[4,0],[3,3],[4,1],[0,4],[-1,2],[0,3],[-9,6],[-2,1],[-1,0],[-3,3],[0,1],[1,1],[-1,1],[-2,1],[0,1],[-1,1],[0,1],[-2,2],[2,2],[2,0],[1,2],[1,0],[1,-1],[3,2],[0,1],[-1,2],[2,3],[1,2],[1,3],[-1,3],[1,3],[0,1],[2,0],[3,2],[0,3],[-2,4],[-1,1],[-1,0],[0,2],[-1,2],[-5,3],[0,1],[-3,4],[-1,-1],[0,-1],[-2,1],[-2,0],[-2,2],[0,1],[-1,0],[-1,1],[-1,-1],[-2,1],[-2,-2],[-3,3],[-2,1],[-1,0],[-2,3],[1,2],[-1,1],[-1,2],[-1,5],[0,3],[-1,0],[0,-1],[-1,0],[0,0],[-1,-1],[0,-1],[-1,-1],[-1,0],[-1,-1],[-1,0],[-2,-1],[0,1],[-2,3],[-2,0],[0,3],[-4,-1],[-1,3],[-1,1],[-2,3],[-2,2],[-2,4],[-1,0],[0,2],[-2,5],[-2,0],[-3,2],[0,2],[1,0],[0,4],[-1,0],[0,2],[-4,3],[-6,0],[0,3],[-1,2],[1,0],[3,3],[3,4],[-1,3],[0,1],[-1,2],[0,1],[-2,4],[-1,0],[-1,-1],[0,1],[-1,6],[1,2],[1,0],[0,1],[1,4],[1,1],[0,7],[-1,1],[1,2],[0,9],[1,2],[0,1],[1,5],[-4,2],[-1,-4],[0,-3],[-1,0],[-3,1],[-2,-1],[0,-1],[-2,1],[0,1],[-1,1],[0,2],[-1,5],[-2,0],[0,2],[-1,2],[1,2],[0,2],[-1,1],[-4,6],[-1,-1],[-1,0],[0,2],[-1,0],[-1,3],[0,1],[-1,4],[-2,0],[0,-2],[-3,-1],[-2,4],[-1,5],[-1,4],[-4,4],[-1,-1],[-3,0],[-6,7],[1,1],[0,1],[-1,3],[-1,4],[0,2],[-1,2],[-2,2],[0,1],[-1,3],[-3,2],[0,1],[-1,2],[1,0],[0,1],[-1,1],[0,1],[1,1],[1,3],[1,2],[2,1],[0,-1],[4,3],[1,1],[0,-2],[1,-2],[0,1],[1,0],[2,-1],[0,1],[2,-2],[3,-1],[2,0],[3,6],[0,2],[1,2],[2,-2],[2,0],[2,-2],[2,-3],[2,-2],[1,0],[1,-2],[1,-1],[1,-2],[2,2],[0,3],[2,0],[1,-1],[1,0],[0,2],[1,1],[0,1],[1,0],[1,1],[0,4],[1,1],[1,0],[-1,1],[0,3],[2,-1],[2,0],[-1,5],[0,3],[-1,2],[1,1],[2,4],[3,0],[0,1],[3,0],[1,1],[2,0],[1,1],[1,-1],[0,-1],[1,-2],[4,-1],[0,2],[2,1],[1,-1],[0,-2],[1,0],[1,-1],[2,0],[3,1],[1,-2],[1,-1],[3,-2],[0,3],[1,-1],[0,1],[1,0],[1,2],[1,0],[0,3],[1,5],[1,0],[2,1],[0,-2],[3,0],[1,2],[-1,2],[1,4],[0,1],[2,1],[0,9],[1,4],[1,0],[0,1],[1,1],[6,-2],[1,1],[0,1],[1,4],[1,2],[0,4],[-1,1],[0,1],[-2,2],[-1,0],[-1,5],[1,6],[0,2],[1,1],[1,0],[1,4],[2,4],[-2,2],[0,1],[1,5],[1,3],[3,0],[1,1],[1,0],[1,-1],[0,-1],[3,-1],[1,2],[0,3],[3,1]],[[451,422],[-1,1],[-1,0],[-2,-2],[0,-1],[-1,0],[0,2],[-2,0],[-1,1],[0,1],[-2,-2],[-3,0],[-2,1],[-1,-1],[-4,-2],[0,2],[-1,-2],[-2,-1],[-1,-1],[-1,0],[-1,-1],[-1,0],[0,-1],[-1,-1],[0,-1],[-3,0],[-2,-2],[0,-2],[-1,0],[-4,-2],[-1,0],[-1,-1],[-2,0],[-1,-1],[-1,1],[-3,0],[-1,1],[-1,0],[-2,1],[-2,2],[-2,0],[0,-1],[-1,1],[-2,1],[0,-1],[-1,0],[-4,1],[-1,0],[-1,-1],[-1,0],[-1,-1],[-2,0],[-2,2],[-1,0],[-2,-1],[-3,0],[-2,-2],[-1,-2],[-2,-1],[-1,-1],[-2,0],[-2,-1],[-1,-3],[-1,-1],[-1,-3],[-2,-1],[-1,0],[-1,-1],[-1,1],[0,2],[-1,-1],[-2,2],[0,1],[-1,2],[1,1],[-2,3],[-1,4],[-1,1],[-1,0],[0,2],[-2,2],[-1,0],[-1,1],[-1,2],[0,2],[-1,2],[-1,-1],[-1,0],[0,1],[-2,0],[-1,1],[-2,0],[-1,2],[0,4],[1,2],[-2,2],[-1,-1],[-3,-1],[0,1],[-1,2],[1,2],[3,3],[1,2],[1,0],[0,2],[-4,4],[-2,4],[1,2],[0,3],[1,4],[-1,3],[-1,1],[-1,0],[-1,3],[1,0],[0,1],[-1,1],[0,3],[-1,2],[-1,3],[0,4],[1,1],[-1,1],[1,1],[0,2],[-1,0],[-1,3],[-1,0],[1,3],[2,0],[0,2],[-1,0],[0,1],[-3,0],[-2,1],[-1,1],[-1,3],[-1,4],[0,3],[-1,1],[0,12],[-1,1],[0,-1],[-1,-1],[-2,1],[-2,-2],[-1,1],[-1,0],[-3,1],[-1,1],[-3,1],[0,4],[-1,0],[0,3],[-1,1],[1,1],[0,2],[-1,2],[-2,0],[1,3],[-1,1],[0,1],[-1,2],[3,1],[0,1],[2,-2],[1,3],[-1,2],[-1,1],[0,2],[1,1],[-2,3],[-1,1],[0,2],[-2,1],[-1,0],[-1,-1],[-2,1],[-1,0],[-1,1],[-1,0],[0,1],[-1,1],[0,1],[-2,3],[0,3],[-1,1],[2,4],[-1,2],[-1,1],[-1,3],[0,3],[-1,1],[-3,1],[-1,0],[-1,1],[-1,0],[-2,-1],[0,-1],[-1,0],[-3,-1],[-1,1],[0,1],[-1,1],[-1,0],[-1,2],[-2,1],[-1,0],[0,1],[-2,1],[-2,0],[-1,1],[0,3],[-1,0],[-1,1],[-1,2],[0,2],[-1,0],[0,-1],[-2,-2],[-3,0],[-2,1],[-1,1],[-1,0],[-1,-1],[-2,0],[-1,-1],[-4,-1],[-5,0],[-3,1],[0,2],[-1,0],[-1,2],[-1,0],[-3,4],[1,0],[0,1],[-2,2],[-1,0],[-1,2],[0,5],[-2,2],[0,7],[-1,0],[-3,-2],[-1,-1],[-1,0],[-1,1],[-1,-1],[-2,2],[0,1],[-1,0],[0,1],[-1,-2],[-1,1],[-3,4],[1,1],[-1,3],[0,3],[-1,1],[0,2],[1,3],[-1,2],[-2,0],[-1,1],[-1,-1],[-1,0],[0,1],[-1,1],[-1,0],[-1,1],[0,4],[-1,-1],[0,1],[-1,0],[-1,-1],[-3,3],[0,1],[-1,1],[0,-2],[-1,-1],[-1,-3],[-2,-1],[-2,0],[0,-1],[-1,0],[-3,1],[-2,2],[-3,0],[1,1],[2,4],[0,3],[-4,2],[-1,-1],[0,-1],[-2,0],[-1,-1],[-3,-2],[-3,0],[-3,2],[-2,-1],[0,1],[-1,-1],[-2,0],[-1,1],[-5,0],[-1,-2],[0,-1],[-1,-1],[-2,0],[-3,1],[-1,0],[-1,-3],[1,-1],[0,-2],[-1,-1],[1,0],[0,-4],[-2,1],[-1,3],[0,2],[-1,2],[-2,0],[0,3],[-1,2],[-1,-1],[-1,0],[-1,1],[-1,0],[0,-1],[-2,-1]],[[125,652],[1,2],[0,1],[-1,0],[-1,1],[0,2],[-1,2],[0,1],[1,1],[2,-2],[0,1],[2,1],[2,-2],[1,2],[1,1],[0,2],[2,2],[0,3],[-5,5],[0,2],[1,2],[1,1],[1,0],[1,4],[0,8],[4,4],[3,1],[1,0],[1,2],[0,3],[1,1],[-1,2],[0,1],[-1,2],[0,4],[1,1],[3,0],[1,2],[1,0],[1,3],[0,-1],[1,0],[1,2],[0,1],[-1,1],[0,4],[1,0],[0,2],[1,0],[-1,4],[-2,1],[-1,4],[3,1],[0,1],[2,3],[0,1],[1,0],[1,1],[-1,2],[2,3],[2,2],[3,1],[1,-1],[1,0],[0,5],[1,0],[0,3],[1,6],[3,2],[2,1],[0,7],[-1,1],[0,4],[2,5],[1,0],[0,1],[1,1],[0,1],[-1,2],[1,2],[1,4],[0,1],[3,6],[0,2],[1,2],[0,1],[2,1],[1,1],[3,0],[1,-1],[1,0],[2,5],[0,12],[-1,0],[-2,5],[1,1],[0,4],[1,4],[3,4],[0,-1],[1,-1],[1,1],[0,1],[-1,1],[0,2],[2,2],[1,0],[0,-1],[2,4],[1,1],[1,2],[0,2],[4,-1],[1,0],[1,1],[1,3],[0,3],[1,2],[0,4],[1,0],[1,2],[0,4],[1,2],[2,1],[1,0],[0,5],[1,3],[0,-1],[2,0],[3,3],[1,2],[0,1],[-1,2],[1,0],[3,-3],[4,-1],[2,0],[0,-1],[2,0],[0,2],[1,3],[0,6],[1,1],[0,1],[2,0],[2,2],[0,-1],[6,-6],[1,-2],[6,0],[1,1],[4,1],[2,2],[1,0],[0,1],[2,3],[0,3],[1,1],[0,2],[5,0],[2,2],[0,1],[-1,3],[-1,1],[1,1],[0,2],[-1,1],[0,2],[1,0],[2,-1],[1,0],[4,4],[1,0],[2,3],[3,6],[1,0],[1,2],[2,0],[2,1],[-1,7],[-1,0],[0,1],[-1,1],[0,1],[1,1],[1,0],[2,-2],[1,1],[1,-1],[2,-1],[0,-2],[2,0],[0,-1],[2,2],[4,2],[2,0],[1,1],[-1,1],[0,1],[1,0],[0,1],[1,2],[-1,1],[0,1],[1,1],[0,4],[1,1],[0,1],[1,1],[-1,0],[0,1],[3,3],[0,1],[2,2],[0,1],[2,0],[0,-4],[1,0],[0,-1],[4,-1],[2,0],[0,2],[2,0],[0,-3],[1,-2],[1,0],[0,-1],[-1,-2],[0,-1],[1,-3],[2,-1],[0,1],[1,0],[1,-2],[1,0],[0,-1],[-1,-1],[2,-2],[1,1],[2,-3],[1,-1],[1,0],[1,-1],[0,-1],[2,-1],[1,0],[1,-1],[1,-2],[3,0],[2,-2],[1,1],[0,2],[2,3],[0,3],[1,2],[0,-1],[1,-1],[3,-1],[2,0],[0,1],[3,0],[1,-1],[1,0],[0,-1],[3,-3],[1,0],[4,2],[0,-1],[1,0],[0,1],[5,0],[2,-2],[3,0],[0,-2],[1,0],[1,-2],[0,-1],[1,-3],[0,-1],[2,-2],[2,2],[1,0],[2,1],[3,0],[1,1],[0,2],[1,1],[0,-1],[1,0],[1,1],[1,-1],[2,1],[2,-1],[0,-2],[4,0],[4,-3],[0,-3],[1,-2],[2,0],[1,-1],[1,1],[1,0],[1,1],[2,-1],[1,0],[2,-2],[1,-2],[4,2],[2,0],[2,1],[2,3],[1,0],[2,-2],[4,2],[0,4],[1,2],[1,1],[2,1],[1,1],[0,1],[2,-1],[3,-1],[1,-1],[3,-1],[0,1],[1,1],[3,0],[1,2],[2,-1],[1,-3],[1,0],[0,-1],[1,1],[2,-1],[0,-2],[1,-3],[2,-2],[0,-1],[2,-3],[-1,-3],[0,-4],[2,-2],[2,0],[0,-3],[2,0],[1,1],[2,-2],[0,-1],[1,1],[0,1],[2,-1],[0,-2],[2,-1],[3,0],[0,-2],[-1,-1],[1,-2],[1,-1],[0,-3],[1,-1],[1,0],[0,-2],[1,-2],[1,-1],[1,-3],[0,-3],[2,0],[2,1],[3,0]],[[615,406],[1,2],[1,0],[1,3],[2,4],[0,1],[1,1],[1,2],[0,2],[2,2],[0,-3],[1,-2],[1,2],[0,5],[1,0],[0,3],[1,1],[1,0],[0,1],[1,1],[2,0],[1,1],[1,-2],[0,-4],[2,-1],[0,-1],[1,-1],[0,2],[2,2],[1,0],[0,2],[1,1],[0,1],[1,1],[0,9],[1,3],[0,3],[1,1],[1,2],[0,2],[1,0],[0,2],[1,1],[1,0],[0,2],[-1,1],[1,2],[0,8],[1,2],[-1,0],[-1,4],[0,9],[1,2],[0,2],[-1,1],[0,4],[1,2],[0,1],[1,0],[0,2],[-1,2],[1,2],[-1,2],[1,2],[3,3],[1,2],[0,4],[1,1],[0,8],[-2,4],[1,1],[0,1],[-3,3],[0,2],[-1,0],[-2,1],[-1,1],[0,1],[1,2],[1,0],[0,4],[-3,0],[-1,-1],[0,5],[-1,2],[0,1],[-1,2],[0,2],[1,0],[0,4],[-1,4],[-2,2],[-3,1],[-2,0],[0,3],[-1,2],[0,1],[1,2],[1,1],[0,2],[1,1],[0,4],[1,2],[0,1],[-2,2],[-3,-1],[-1,-1],[0,-1],[-1,-3],[-2,-1],[-3,0],[-1,1],[-1,0],[-1,1],[0,2],[1,2],[0,1],[1,1],[0,8],[-1,0],[-3,2],[-3,1],[-4,0],[-1,1],[0,1],[1,1],[-2,1],[-1,0],[-1,-1],[-1,0]],[[609,600],[0,1]],[[609,601],[-1,0],[0,-1],[-1,0],[0,5],[-1,2],[1,0],[1,1],[0,3],[1,0],[0,1],[-1,1],[1,0],[0,2],[-1,1],[1,2],[5,0],[0,-1],[1,-1],[1,5],[0,2],[-1,2],[-1,0],[-2,2],[-1,2],[0,5],[-1,1],[-1,3],[-1,2],[-1,1],[-1,3],[0,2],[1,1],[1,2],[1,0],[-3,9],[-1,0],[0,4],[-4,0],[-1,1],[-4,0],[-1,-3],[2,-4],[0,-4],[-4,0],[-2,4],[-1,1],[0,2],[-4,5],[0,6],[1,1],[-1,1],[0,7],[1,2],[0,2],[-1,1],[0,1],[1,0],[-2,2],[-1,3],[0,1],[1,0],[1,2],[-1,2],[-1,0],[0,-3],[-1,0],[-1,1],[0,1],[1,1],[0,1],[1,2],[-1,2],[0,2],[2,5],[1,2],[0,3],[3,-1],[2,-1],[2,1],[-1,0],[-2,4],[0,4],[-1,2],[-1,1],[-1,-1],[0,-1],[-1,0],[-1,3],[0,4],[-1,1],[-1,3],[0,4],[-1,0],[-2,3],[0,4],[-1,1],[-6,3],[-1,0],[-1,1],[-1,-1],[-2,2],[-1,-1],[-1,-2],[-1,-1],[-1,0],[-2,1],[-4,0],[0,1],[-1,3],[0,2],[-1,2],[-1,0],[-1,2],[-2,1],[-4,4],[-2,4],[0,1],[1,1],[-1,1],[-1,-1],[-3,0],[-1,-1],[-1,1],[-1,0],[-1,-1],[-3,-2],[-1,0],[-1,-2],[0,-2],[-1,-2],[0,-2],[1,-2],[0,-1],[-1,0],[-1,-2],[-4,-2],[-1,0],[-1,2],[0,1],[-2,1],[-1,0],[-1,2],[0,1],[-2,0],[-2,-2],[0,-1],[-2,0],[-1,2],[-1,-1],[-2,0],[-3,4],[0,10],[-1,1],[0,4],[-1,2],[1,2],[0,1],[1,1],[1,2],[1,3],[-2,1],[-1,1],[-2,3],[-1,1],[2,3],[2,1],[2,2],[-1,4],[0,2],[-1,0],[0,8],[-1,-1],[-2,2],[0,2],[-3,4],[-1,1],[-1,0],[-1,1],[2,0],[3,3],[1,-2],[2,-2],[0,3],[1,1],[1,0],[0,1],[2,2],[-1,1],[-1,-1],[-2,4],[-1,1],[0,1],[1,1],[1,0],[1,1],[0,2],[2,1],[0,4],[-1,1],[-1,0],[0,1],[-2,4],[0,3],[-2,0],[-3,2],[-1,2],[-4,4],[0,3],[2,0],[1,2],[2,2],[4,2],[1,0],[0,4],[-3,1],[0,1],[-2,2],[-3,4],[-2,2],[-1,0],[0,5]],[[496,884],[4,0],[1,-1],[0,1],[1,1],[3,-1],[0,-1],[1,2],[1,1],[0,1],[1,0],[5,3],[1,1],[0,1],[2,3],[1,2],[1,0],[1,1],[0,3],[2,4],[0,1],[1,1],[1,2],[0,1],[2,2],[0,5],[1,2],[1,1],[2,-1],[1,0],[2,3],[1,0],[0,1],[1,0],[0,1],[3,0],[11,2],[1,1],[14,2],[1,0],[3,2],[2,0],[6,-1],[3,0],[1,1],[0,-1],[1,0],[3,-1],[4,3],[2,2],[0,1],[1,0],[2,1],[2,-1],[1,-1],[2,0],[0,1],[1,1],[0,1],[3,0],[1,-1],[1,0],[0,1],[2,0],[3,1],[2,1],[4,1],[4,-2],[1,0],[2,2],[0,-1],[1,0],[3,1],[2,2],[1,2],[1,5],[0,2],[1,2],[0,1],[6,6],[1,4],[0,2],[1,2],[0,2],[1,1],[0,1],[1,1],[1,2],[1,1],[0,4],[1,2],[1,0],[0,1],[1,0],[0,-1],[1,2],[1,1],[1,-1],[-1,-1],[3,0],[0,1],[2,1],[1,-1],[1,1],[-1,0],[0,1],[2,1],[1,0],[0,1],[1,1],[4,0],[0,-1],[2,0],[2,1],[0,1],[1,1],[1,-1],[1,0],[0,1],[-1,1],[1,2],[1,1],[1,-1],[3,0],[0,1],[-1,1],[2,0],[0,2],[1,0],[1,-1],[1,1],[0,-2],[1,-1],[2,1],[0,2],[1,1],[1,-1],[0,-1],[1,-2],[1,1],[0,2],[1,-1],[0,-2],[2,1],[3,-1],[1,1],[2,1],[2,-2],[0,-4],[2,1],[1,-2],[0,-1],[3,-3],[1,0],[1,-1],[0,-1],[-1,-1],[0,-1],[1,-1],[1,1],[0,3],[2,0],[1,-1],[1,-2],[-1,-2],[-1,-1],[0,-1],[1,-1],[3,0],[2,-2],[0,-1],[-1,-1],[-2,2],[-1,0],[0,-3],[1,-1],[4,-2],[1,1],[1,2],[1,0],[0,-2],[1,0],[0,-7],[-1,-1],[1,-2],[1,0],[0,-3],[4,-4],[0,-3],[2,-1],[0,-2],[-1,0],[0,-3],[1,0],[0,1],[1,0],[1,1],[1,-1],[-1,-1],[0,-3],[4,0],[-1,-4],[0,-1],[-1,-1],[4,-4],[-1,-1],[-1,-2],[-1,-3],[3,-2],[2,-2],[1,-7],[0,-5],[4,-2],[0,-1],[-1,-1],[-1,0],[0,1],[-1,-1],[0,-3],[1,0],[1,1],[0,-2],[-1,0],[1,-2],[1,0],[0,-1],[1,-2],[0,-1],[1,0],[0,-4],[1,0],[1,-1],[0,-2],[1,1],[0,-1],[-1,-1],[0,-2],[1,-1],[0,-1],[-1,0],[-1,1],[-1,0],[0,1],[-1,-3],[0,-1],[1,-1],[1,-2],[1,0],[-1,-2],[0,-1],[2,-2],[0,-3],[2,-2],[0,-2],[1,-1],[0,-1],[1,-2],[2,-1],[1,-1],[0,-1],[2,-3],[1,-2],[1,-1],[3,-1],[0,-1],[-1,-2],[1,-1],[0,-2],[1,0],[0,-2],[2,-2],[-1,0],[0,-1],[1,-1],[1,0],[0,-1],[-1,0],[0,-2],[1,-2],[0,-1],[2,-2],[1,0],[0,-1],[1,-1],[1,1],[0,-1],[1,0],[0,1],[2,0],[0,0],[1,-1],[1,-2],[1,-1],[0,-2],[-1,-2],[0,-4],[2,-2],[0,-2],[1,0],[0,-2],[-1,0],[-1,-1],[0,-4],[1,-1],[0,1],[1,1],[0,-1],[-1,-1],[1,-1],[1,1],[0,-5],[1,0],[0,-2],[1,0],[-1,-1],[0,-1],[-2,0],[1,-1],[0,-1],[1,1],[0,-1],[1,0],[1,1],[0,-2],[1,-1],[0,-1],[1,-1],[1,1],[2,0],[0,-1],[1,0],[0,-3],[1,0],[0,1],[2,0],[-1,1],[1,1],[0,-1],[1,-1],[1,1],[0,-1],[1,-1],[0,-2],[1,-1],[0,-2],[1,-1],[0,-3],[-1,1],[0,-2],[1,0],[0,-2],[2,0],[0,-2],[1,-1],[0,-5],[1,-1],[1,0],[0,-4],[1,-2],[-1,-2],[-1,-1],[0,-1],[3,-1],[2,-1],[1,-1],[0,-1],[-1,1],[-2,-2],[1,-1],[1,0],[2,-2],[1,0],[0,0],[1,-2],[0,-1],[2,-1],[0,-3],[1,0],[1,-1],[2,-1],[1,0],[1,-2],[-1,-1],[2,0],[0,-2],[1,1],[1,-2],[1,0],[0,-2],[3,-1],[1,1],[0,1],[1,-1],[0,-1],[-1,-2],[1,0],[1,-1],[0,-1],[1,0],[0,-1],[2,-2],[0,-1],[2,-1],[-2,-4],[1,-1],[1,0],[0,-5],[1,-1],[0,-1],[1,0],[-1,-2],[0,-1],[-2,-2],[0,-1],[2,-1],[1,0],[0,-4],[-1,0],[1,-2],[1,-3],[-1,-1],[0,-5],[1,0],[0,-1],[1,-3],[2,-1],[0,-2],[1,-1],[0,1],[1,-2],[0,-3],[1,0],[0,-2],[-1,-1],[1,-2],[0,-2],[1,0],[0,-2],[1,-1],[1,-2],[0,-5],[1,-1],[0,1],[1,-1],[0,-1],[1,0],[0,-6],[1,-1],[-1,-1],[1,-1],[-1,-1],[1,-1],[0,-5],[-1,-1],[0,-4],[-1,0],[0,-4],[1,-2],[-1,0],[-1,-3],[0,-1],[1,0],[0,-3],[-1,0],[0,-2],[-1,0],[0,-3],[1,1],[1,-2],[0,-3],[2,0],[0,-3],[1,-1],[-1,-1],[0,-2],[1,0],[0,-4],[-1,-2],[-2,-1],[1,-1],[-1,-1],[0,-1],[1,0],[0,-2],[-2,1],[0,-2],[-2,-3],[0,-3],[-1,-1],[-1,0],[1,-2],[1,0],[0,-2],[-1,0],[0,-1],[1,-1],[1,-2],[-1,-2],[-1,-1],[-1,0],[0,-2],[-1,0],[0,-2],[-1,1],[-1,0],[0,-2],[-1,0],[0,1],[-1,-2],[0,-3],[1,-1],[0,-1],[-1,0],[-1,-2],[-1,0],[-1,-4],[1,-3],[0,0],[1,0],[0,-4],[1,1],[1,-1],[0,-1],[-1,0],[0,-1],[1,0],[-1,-1],[0,-2],[1,0],[-1,-2],[-1,-1],[0,-4],[1,-1],[0,-1],[-1,0],[0,-2],[-1,-2],[1,0],[-2,-2],[0,-2],[1,0],[-1,-2],[-1,0],[-1,-2],[1,-1],[0,-1],[-1,0],[0,-1],[1,0],[1,-1],[0,-1],[-1,-1],[-1,-2],[0,-3],[1,-1],[-1,-1],[0,-1],[1,0],[0,-3],[1,0],[-1,-2],[1,-1],[0,-4],[1,-1],[0,-4],[1,-1],[0,-3],[-1,-2],[1,-1],[-1,0],[0,-4],[2,0],[0,-2],[-1,-2],[-1,-1],[-1,0],[1,-1],[0,-2],[-1,-1],[1,-1],[-1,-1],[1,-2],[-1,-1],[2,-2],[0,-3],[-1,0],[1,-2],[1,-1],[2,0],[0,-3],[-1,-1],[1,-2],[0,-2],[1,-1],[0,-5],[1,-2],[-1,-1],[0,-3],[1,-2],[0,-2],[-1,-4],[1,-1],[0,-1],[-2,-2],[-1,-2],[-1,0],[0,-1],[-2,2],[0,-1],[-1,0],[0,-1],[-2,-2],[0,-1],[1,-1],[2,-3],[0,-1],[1,-2],[0,1],[2,0],[0,-2],[1,0],[0,-1],[1,-5],[0,-8],[1,-1],[1,-3],[1,-2],[2,-2],[2,0],[3,-2],[2,-3],[1,-2],[0,-8],[3,-7],[2,-6],[1,-2],[5,-4],[4,-2],[0,-1],[1,0],[1,-1],[1,0],[1,-1],[1,0],[2,-2],[1,0],[0,-1],[1,0],[1,-1],[1,0],[0,-1],[1,0],[0,-1],[1,0],[0,-1],[1,0],[1,-1],[7,0],[5,-3],[2,-2],[2,0],[2,1],[1,1],[1,0],[3,1],[1,1],[0,3],[-2,1],[-1,1],[-2,4],[1,1],[2,1],[2,0],[1,2],[0,2],[-1,1],[-2,1],[1,2],[2,1],[1,0],[2,-2],[1,-2],[3,0],[2,-2],[3,-5],[2,-1],[2,2],[0,3],[-1,2],[2,4],[1,0],[3,3],[2,1],[2,2],[2,1],[3,2],[2,1],[5,3],[2,1],[1,1],[1,3],[2,1],[4,4],[2,-1],[1,-1],[2,0],[1,1],[0,1],[1,2],[2,0],[2,-2],[7,0],[1,1],[1,-1],[0,-1],[10,-5],[2,0],[3,-4],[1,0],[0,-1],[1,0],[0,-1],[1,-1],[1,-2],[1,-1],[1,-3],[1,-1],[0,-1],[1,0],[0,-1],[1,-2],[0,-3],[1,-1],[0,-9],[-1,-1],[0,-3],[1,-5],[1,-2],[0,-2],[-2,1],[-2,0],[-1,1],[0,-7],[1,-3],[1,-1],[5,0],[-1,-3],[-2,-5],[-2,-6],[0,-2],[-1,-3],[-2,-34],[0,-6],[-1,0],[0,-6],[-1,-2],[-3,-7],[1,3],[-2,0],[-2,-2],[-21,-3],[-9,-2],[-9,-3],[-6,-4],[-4,-4],[-6,-8],[-4,-7],[-5,-9],[-1,-5],[-2,-4],[-5,-15],[-3,-7],[-1,-2],[-7,-12],[-6,-11],[-1,-5],[-1,-2],[0,-2],[-1,1],[0,0],[-2,0],[0,-2],[-2,-2],[-1,0],[-1,-5],[0,-15],[1,-2],[1,0],[1,-1],[0,-7],[1,-1],[0,-2],[-1,0],[0,-2],[-1,-1],[0,0],[0,-2],[1,0],[0,1],[1,-1],[-1,-1],[-1,0],[2,-2],[-1,0],[-1,-1],[0,-7],[1,0],[0,2],[1,1],[1,-4],[-2,-1],[-1,0],[-1,-2],[2,-8],[1,-6],[0,-6],[-1,-1],[0,-3],[-1,-2],[-1,-3],[0,-6],[-1,0],[0,-1],[-1,-1],[0,-1],[-1,-4],[0,-7],[-1,-2],[0,-2],[-1,-2],[0,-2],[-1,-2],[0,-1],[1,-1],[-1,-1],[0,-10],[-2,-1],[-13,0],[-2,1],[-4,1],[-3,2],[-8,0],[-3,1],[-1,0],[-2,1],[-5,3],[-3,2],[-2,2],[-9,7],[-1,0],[-1,1],[-2,1],[-1,1],[-1,7],[0,1],[-1,5],[-2,8],[0,4],[-1,2],[0,4],[-1,2],[-2,3],[-5,-6],[-4,-4],[-2,0],[-6,-1],[-1,-1],[-2,0],[-2,1],[0,1],[-1,5],[-3,9],[-3,4],[-2,-5],[-1,-3],[-2,1],[-4,0],[-7,1],[-2,1],[-2,-1],[-2,0],[-2,-1],[-2,0],[0,1],[-1,1],[0,1],[-2,2],[0,2],[-1,2],[-3,2],[-4,2],[0,2],[-1,0],[0,2],[-1,1],[0,2],[1,0],[0,1],[-1,1],[0,2]],[[986,256],[-1,-1],[0,1],[1,0]],[[984,254],[0,0]],[[984,253],[-1,0],[1,1],[0,-1]],[[981,249],[-2,-1],[-4,0],[-1,1],[0,1],[2,-1],[2,0],[2,1],[2,2],[1,0],[-1,-2],[-1,-1]],[[889,116],[1,0],[0,-1],[-1,0]],[[889,106],[0,0]],[[889,116],[0,-1]],[[889,109],[-1,0],[1,1],[0,-1]],[[825,730],[-1,0],[-1,1],[1,1],[0,-1],[1,-1]],[[615,406],[1,-3],[1,-2],[2,-2],[1,0],[3,-4],[0,-6],[-1,-3],[0,-1],[1,-1],[2,-1],[-1,-3],[-1,-2],[1,-3],[1,0],[2,-1],[0,-2],[2,-4],[1,-1],[1,0],[0,-1],[1,-1],[0,-2],[-1,0],[-2,-2],[-1,-3],[-1,-1],[2,-1],[1,1],[1,-1],[0,-3],[1,-2],[-1,-1],[1,-2],[0,-1],[1,-2],[0,-1],[1,-2]],[[634,340],[0,2]],[[634,342],[1,0],[1,-1],[1,0],[2,-1],[1,2],[1,0],[1,2],[3,-1],[-1,-3],[0,-4],[1,0],[0,-1],[-1,-3],[3,-1],[2,4],[3,0],[1,1],[1,2],[2,2],[0,-10],[1,-3],[-1,0],[0,-1],[-1,-1],[0,-11],[-1,0],[0,-1],[1,0],[1,-1],[2,-5],[0,-4],[1,-2]],[[658,301],[1,0]],[[659,301],[0,-3],[1,0],[0,-1],[1,1],[0,2],[2,0],[0,-1],[2,-2],[1,0],[2,-6],[0,-2],[2,0],[0,-2],[-5,-3],[-2,0],[1,-5],[0,-1],[1,1],[1,0],[1,-3],[2,-4],[1,0],[1,-2],[1,-1],[-1,0],[1,-2],[-1,-1],[2,-4],[0,-1],[1,-4],[1,1],[0,1],[3,-3],[1,0],[4,2],[0,-2],[3,0],[3,1],[4,-4],[0,1],[1,1],[0,-1],[1,0],[1,1],[1,2],[2,-2],[1,2],[0,1],[3,-3],[1,0],[6,-4],[0,1],[2,4],[1,1],[1,2],[4,-4],[1,-2],[5,-2],[1,-1],[-1,-4],[0,-2],[-1,-2],[4,-2],[1,1],[1,0],[1,-1],[0,1],[1,0],[1,-1],[1,3],[-2,2],[0,1],[-1,1],[-1,0],[0,4],[6,0],[2,-1],[0,-3],[3,-4],[2,3],[1,2],[1,3],[2,-2],[1,2],[2,3],[3,-2],[0,-1],[1,-3],[1,1],[0,1],[1,-1],[1,0],[0,-1],[3,6],[1,-1],[1,-2],[3,-2],[0,1],[2,0],[0,-2],[3,0],[0,2],[-1,1],[1,0],[1,-1],[6,0],[0,-1],[5,0],[0,-1],[1,0],[7,-1],[0,1],[2,2],[1,0],[0,1],[-2,2],[0,1],[2,2],[1,-1],[2,0],[1,2],[0,1],[1,-1],[1,0],[0,1],[2,0],[0,-5],[1,-3],[0,-1],[3,0],[1,-1],[1,0],[0,-2],[-1,-6],[0,-2],[1,-2],[0,-2],[1,0],[3,-2],[1,-3],[1,-1],[2,0],[2,-2],[1,-2],[1,-1],[3,-5],[1,-2],[0,-5],[-1,-2],[-1,-1],[1,-4],[0,-1],[2,-3],[1,-6],[0,-3],[2,-1],[2,-2],[1,-4],[0,-5],[1,0],[0,-2],[1,-1],[-1,-1],[0,-1],[-2,-2],[-1,0],[0,-1],[-1,-1],[0,-1],[-1,-2],[-2,-2],[-2,-5],[0,-5],[-1,-4],[0,-1],[-1,-1],[-1,-2],[0,-1],[-1,-1],[-2,-4],[0,-1],[-2,-3],[-2,-2],[-2,0],[-2,1],[-3,-1],[-3,0],[-3,-2],[-2,-1],[-3,-3],[0,-1],[-2,-2],[0,-1],[-1,-1],[-3,0],[-1,1],[-3,0],[0,1],[-3,0],[-1,-1],[-2,0],[-3,-2],[-2,-2],[-1,0],[0,-1],[-1,-1],[-1,0],[0,-1],[-1,0],[0,-1],[-1,-1],[0,-1],[-1,-1],[-2,-1],[-1,-1],[0,-1],[-1,-1],[0,-1],[-4,0],[-1,1],[-3,0],[-1,-1],[-1,0],[-1,1],[-2,0],[-1,1],[0,1],[-4,0],[0,-1],[-2,-2]],[[742,109],[-1,0],[-2,-1],[0,-1],[-6,0],[-1,1],[0,1],[-2,2],[-1,0],[0,1],[-5,0],[0,-1],[-2,0],[0,-1],[-1,1],[-2,0],[0,1],[-1,0],[-1,1],[-1,0],[-2,-2],[-1,0],[0,-1],[-4,0],[-1,1],[-1,0],[-1,1],[-2,0],[-1,-1],[-1,0],[0,-1],[-2,-2],[-1,0],[-1,-1],[-1,0],[0,-1],[-1,0],[-1,-2],[-1,0],[0,-1],[-2,-1],[-4,-4],[-3,0],[-1,1],[-3,0],[-2,-1],[-3,-3],[-1,0],[-1,-1],[-2,0],[0,-1],[-2,0],[-1,1],[-4,0],[-1,-1],[-1,0],[-1,-1],[-1,0],[-1,-1],[-4,0],[-2,-1],[-3,0],[-1,1],[-1,0],[-1,-1],[-4,0],[-1,-1],[-1,0],[-1,-1],[-1,0],[-2,-2],[-1,0],[0,-1],[-1,-1],[-1,0],[0,-1],[-1,0],[0,-1],[-1,0],[-1,-1],[-1,0],[-2,-2],[-5,0],[-1,-1],[-1,0],[0,-1],[-1,0],[-1,-1],[-1,0],[-1,-1],[-1,-2],[-1,-1],[0,-2],[-1,-3],[-1,-2],[0,-3],[-1,0],[0,-1],[-1,0],[0,-1],[-1,0],[0,-1],[-1,0],[-1,-1],[-1,0],[-5,-5],[0,-1],[-1,0],[0,-1],[-1,-1],[0,-1],[-1,-2],[-1,-1],[0,-2],[-1,0],[0,-1],[-1,-1],[0,-1],[-1,-1],[0,-2],[-1,0],[0,-3],[-1,-1],[0,-1],[-1,0],[0,-1],[-1,-1],[0,-1],[-1,0],[-1,-1],[0,-1],[-1,0],[-1,-1],[-1,0],[-1,-1],[0,-2],[-1,-3],[-1,-1],[0,-1],[-2,-2],[-1,0],[0,-1],[-1,0],[0,-1],[-2,0],[0,-1],[-1,0],[0,1],[-5,0],[-2,-2],[-1,0],[0,-1],[-2,-1],[-3,-2],[-4,-4],[-3,0],[-2,1],[-2,0],[-2,-1],[-1,-1],[-6,-4],[-3,0],[0,1],[-1,0],[-7,7],[-2,3],[-2,0],[-2,2],[-2,1],[-2,2],[-2,1],[-2,0],[-3,-3],[-5,0],[-1,1],[-2,0],[0,1],[-1,0],[0,1],[-1,0],[-3,3],[0,1],[-1,1],[0,1],[-4,0],[-1,-1],[-9,-3],[-1,0],[-3,1],[-3,-1],[-1,-1],[-4,-3],[-3,0],[-4,1],[-4,6]],[[465,22],[1,4],[-1,1],[-1,0],[1,2],[1,0],[1,-1],[0,2],[1,0],[0,3],[1,0],[0,2],[2,1],[3,1],[0,2],[-1,2],[1,1],[1,0],[0,1],[-1,1],[-1,-1],[-1,1],[-4,0],[1,1],[0,1],[2,-1],[1,1],[-2,3],[0,3],[-1,0],[0,2],[-1,0],[-2,-1],[0,4],[1,0],[0,3],[-2,0],[-2,5],[0,1],[-1,0],[0,2],[1,1],[1,0],[-1,1],[-1,3],[-1,1],[-2,0],[0,1],[1,1],[0,1],[-1,1],[1,0],[0,2],[-1,-1],[0,1],[1,1],[0,4],[6,3],[6,2],[0,1],[-1,0],[0,1],[1,0],[-1,1],[0,2],[2,0],[3,2],[0,1],[3,0],[1,1],[0,1],[3,1],[2,0],[0,-1],[1,2],[0,4],[-1,4],[-1,1],[-1,2],[-2,2],[0,5],[-1,1],[-1,2],[1,2],[2,3],[2,2],[0,1],[-1,0],[-1,1],[1,1],[-1,1],[1,1],[0,8],[-1,1],[1,2],[1,1],[0,2],[1,0],[0,2],[-1,0],[-1,2],[-1,6],[3,2],[4,0],[0,5],[-1,1],[-6,0],[0,-2],[-1,1],[-2,0],[0,1],[-2,0],[-2,-1],[-1,1],[1,1],[0,2],[-1,3],[1,1],[0,6],[1,2],[-3,0],[0,6],[-1,0],[1,6],[0,2],[1,1],[0,2],[-2,0],[1,2],[0,1],[-1,4],[-1,1],[-1,7],[1,2],[0,1],[-1,3],[0,3],[-1,9],[-1,0],[2,3],[1,0],[0,1],[1,0],[0,1],[-1,0],[-1,2],[-3,2],[-2,-1],[-3,-1],[0,1],[-2,4],[-2,0],[0,4],[-1,1],[1,3],[0,1],[-1,1],[-1,2],[0,2],[-1,0],[0,1],[-1,3],[0,4],[-1,1],[0,6],[-1,1],[-1,0],[0,-1],[-1,-2],[0,-2],[-1,-1],[0,-4],[-1,0],[0,-3],[-2,-2],[0,-1],[-1,0],[-2,-2],[0,2],[-2,0],[-1,2],[3,6],[1,1],[1,3],[0,1],[1,2],[0,3],[-1,0],[0,5],[2,2],[1,2],[-1,2],[-1,-1],[-1,0],[1,2],[0,3],[1,3],[2,2],[0,2],[-2,1],[0,2],[2,2],[2,4],[-1,2],[-2,1],[-2,0],[2,3],[0,1],[1,0],[0,3],[-1,0],[0,1],[-1,1],[1,3],[1,-1],[0,-1],[1,0],[0,9],[-2,2],[0,2],[1,0],[1,1],[0,1],[1,1],[-2,2],[-1,0],[-1,1],[1,1],[0,1],[-1,2],[-1,-1],[-1,5],[1,1],[-1,1],[1,1],[1,2],[0,2],[-1,1],[2,2],[-1,3],[0,1],[-1,0],[1,1],[0,6],[-1,0],[-1,4],[0,2],[1,1],[2,-2],[1,0],[0,1],[-1,4],[1,1],[0,1],[-2,6],[-1,7],[0,2],[2,2],[1,0],[2,2],[0,7],[-1,2],[1,2],[2,3],[-1,2],[0,5],[-1,2]],[[451,422],[3,1],[1,-1],[1,0],[3,3],[2,1],[1,1],[3,0],[0,-2],[1,0],[2,2],[3,0],[2,1],[0,-1],[2,0],[2,1],[1,0],[2,-1],[1,1],[2,-1],[1,-1],[0,-1],[8,0],[3,-3],[2,2],[2,0],[0,-1],[4,0],[1,1],[2,0],[4,-2],[1,1],[1,0],[3,-3],[0,-2],[1,0],[1,-1],[0,-1],[1,-2],[2,-2],[1,-3],[2,0],[1,1],[1,-2],[1,0],[0,-1],[1,-3],[0,-5],[2,-4],[0,-1],[1,-1],[0,-1],[-1,-1],[-1,-2],[0,-1],[1,-1],[1,-2],[3,3],[1,-2],[0,-5],[1,-2],[3,1],[2,1],[4,-1],[1,3],[-1,3],[1,2],[0,1],[2,2],[2,1],[0,1],[1,1],[2,0],[1,2],[2,2],[2,-1],[0,-1],[1,0],[4,2],[1,-2],[1,0],[1,1],[0,1],[1,1],[1,2],[1,1],[0,2],[1,-1],[1,0],[2,1],[1,1],[2,-3],[1,-1],[2,-4],[2,1],[2,-1],[1,2],[2,1],[0,-1],[1,-1],[1,0],[2,-6],[0,-2],[1,-1],[1,0],[1,-1],[1,0],[0,3],[2,1],[0,1],[1,3],[-1,1],[1,1],[0,6],[2,2],[1,3],[2,-2],[3,-1],[1,1],[2,0],[1,-2],[0,-1],[1,-1],[0,-1],[1,0],[2,-2],[1,1],[1,0],[0,4],[1,1]]]}