{"type":"Topology","objects":{"data":{"geometries":[{"properties":{"index":1619,"nuts_2_code":"RO22","nuts_2_name":"Sud-Est"},"type":"MultiPolygon","arcs":[[[0,-14,-13,12,-12,-11,10,-10,-25,-34,-33,32,-32]],[[1]],[[2]],[[3]],[[4]],[[-8,5]],[[6]],[[7,-8]],[[8]]],"id":0},{"properties":{"index":1621,"nuts_2_code":"RO31","nuts_2_name":"Sud-Muntenia"},"type":"Polygon","arcs":[[9,-11,10,11,-13,12,13,14,-17,-26],[15]],"id":1},{"properties":{"index":1622,"nuts_2_code":"RO32","nuts_2_name":"Bucure\u015fti-Ilfov"},"type":"Polygon","arcs":[[15]],"id":2},{"properties":{"index":1625,"nuts_2_code":"RO41","nuts_2_name":"Sud-Vest Oltenia"},"type":"Polygon","arcs":[[16,17,-21,19,-19,-27]],"id":3},{"properties":{"index":1628,"nuts_2_code":"RO42","nuts_2_name":"Vest"},"type":"Polygon","arcs":[[-28,18,19,20,21,-23]],"id":4},{"properties":{"index":1637,"nuts_2_code":"RO11","nuts_2_name":"Nord-Vest"},"type":"Polygon","arcs":[[-38,-31,-30,29,-29,22,23]],"id":5},{"properties":{"index":1640,"nuts_2_code":"RO12","nuts_2_name":"Centru"},"type":"Polygon","arcs":[[-36,35,-35,24,25,26,27,28,-30,29,30,-37]],"id":6},{"properties":{"index":1642,"nuts_2_code":"RO21","nuts_2_name":"Nord-Est"},"type":"MultiPolygon","arcs":[[[31,-33,32,33,34,-36,35,36,37,38]],[[39]]],"id":7}],"type":"GeometryCollection"}},"bbox":[20.264360822716,43.619531387487854,29.70170587138027,48.263444074907156],"transform":{"scale":[0.009446791840504775,0.00464856124866797],"translate":[20.264360822716,43.619531387487854]},"arcs":[[[831,535],[1,0],[-2,-2],[0,-2],[1,0],[-1,-2],[-1,0],[-1,-2],[1,-1],[0,-1],[-1,0],[0,-1],[1,0],[1,-1],[0,-1],[-1,-1],[-1,-2],[0,-3],[1,-1],[-1,-1],[0,-1],[1,0],[0,-3],[1,0],[-1,-2],[1,-1],[0,-4],[1,-1],[0,-4],[1,-1],[0,-3],[-1,-2],[1,-1],[-1,0],[0,-4],[2,0],[0,-2],[-1,-2],[-1,-1],[-1,0],[1,-1],[0,-2],[-1,-1],[1,-1],[-1,-1],[1,-2],[-1,-1],[2,-2],[0,-3],[-1,0],[1,-2],[1,-1],[2,0],[0,-3],[-1,-1],[1,-2],[0,-2],[1,-1],[0,-5],[1,-2],[-1,-1],[0,-3],[1,-2],[0,-2],[-1,-4],[1,-1],[0,-1],[-2,-2],[-1,-2],[-1,0],[0,-1],[-2,2],[0,-1],[-1,0],[0,-1],[-2,-2],[0,-1],[1,-1],[2,-3],[0,-1],[1,-2],[0,1],[2,0],[0,-2],[1,0],[0,-1],[1,-5],[0,-8],[1,-1],[1,-3],[1,-2],[2,-2],[2,0],[3,-2],[2,-3],[1,-2],[0,-8],[3,-7],[2,-6],[1,-2],[5,-4],[4,-2],[0,-1],[1,0],[1,-1],[1,0],[1,-1],[1,0],[2,-2],[1,0],[0,-1],[1,0],[1,-1],[1,0],[0,-1],[1,0],[0,-1],[1,0],[0,-1],[1,0],[1,-1],[7,0],[5,-3],[2,-2],[2,0],[2,1],[1,1],[1,0],[3,1],[1,1],[0,3],[-2,1],[-1,1],[-2,4],[1,1],[2,1],[2,0],[1,2],[0,2],[-1,1],[-2,1],[1,2],[2,1],[1,0],[2,-2],[1,-2],[3,0],[2,-2],[3,-5],[2,-1],[2,2],[0,3],[-1,2],[2,4],[1,0],[3,3],[2,1],[2,2],[2,1],[3,2],[2,1],[5,3],[2,1],[1,1],[1,3],[2,1],[4,4],[2,-1],[1,-1],[2,0],[1,1],[0,1],[1,2],[2,0],[2,-2],[7,0],[1,1],[1,-1],[0,-1],[10,-5],[2,0],[3,-4],[1,0],[0,-1],[1,0],[0,-1],[1,-1],[1,-2],[1,-1],[1,-3],[1,-1],[0,-1],[1,0],[0,-1],[1,-2],[0,-3],[1,-1],[0,-9],[-1,-1],[0,-3],[1,-5],[1,-2],[0,-2],[-2,1],[-2,0],[-1,1],[0,-7],[1,-3],[1,-1],[5,0],[-1,-3],[-2,-5],[-2,-6],[0,-2],[-1,-3],[-2,-34],[0,-6],[-1,0],[0,-6],[-1,-2],[-3,-7],[1,3],[-2,0],[-2,-2],[-21,-3],[-9,-2],[-9,-3],[-6,-4],[-4,-4],[-6,-8],[-4,-7],[-5,-9],[-1,-5],[-2,-4],[-5,-15],[-3,-7],[-1,-2],[-7,-12],[-6,-11],[-1,-5],[-1,-2],[0,-2],[-1,1],[0,0],[-2,0],[0,-2],[-2,-2],[-1,0],[-1,-5],[0,-15],[1,-2],[1,0],[1,-1],[0,-7],[1,-1],[0,-2],[-1,0],[0,-2],[-1,-1],[0,0],[0,-2],[1,0],[0,1],[1,-1],[-1,-1],[-1,0],[2,-2],[-1,0],[-1,-1],[0,-7],[1,0],[0,2],[1,1],[1,-4],[-2,-1],[-1,0],[-1,-2],[2,-8],[1,-6],[0,-6],[-1,-1],[0,-3],[-1,-2],[-1,-3],[0,-6],[-1,0],[0,-1],[-1,-1],[0,-1],[-1,-4],[0,-7],[-1,-2],[0,-2],[-1,-2],[0,-2],[-1,-2],[0,-1],[1,-1],[-1,-1],[0,-10],[-2,-1],[-13,0],[-2,1],[-4,1],[-3,2],[-8,0],[-3,1],[-1,0],[-2,1],[-5,3],[-3,2],[-2,2],[-9,7],[-1,0],[-1,1],[-2,1],[-1,1],[-1,7],[0,1],[-1,5],[-2,8],[0,4],[-1,2],[0,4],[-1,2],[-2,3],[-5,-6],[-4,-4],[-2,0],[-6,-1],[-1,-1],[-2,0],[-2,1],[0,1],[-1,5],[-3,9],[-3,4],[-2,-5],[-1,-3],[-2,1],[-4,0],[-7,1],[-2,1],[-2,-1],[-2,0],[-2,-1],[-2,0],[0,1],[-1,1],[0,1],[-2,2],[0,2],[-1,2],[-3,2],[-4,2],[0,2],[-1,0],[0,2],[-1,1],[0,2],[1,0],[0,1],[-1,1],[0,2]],[[986,256],[-1,-1],[0,1],[1,0]],[[984,254],[0,0]],[[984,253],[-1,0],[1,1],[0,-1]],[[981,249],[-2,-1],[-4,0],[-1,1],[0,1],[2,-1],[2,0],[2,1],[2,2],[1,0],[-1,-2],[-1,-1]],[[889,116],[1,0],[0,-1],[-1,0]],[[889,106],[0,0]],[[889,116],[0,-1]],[[889,109],[-1,0],[1,1],[0,-1]],[[615,406],[1,-3],[1,-2],[2,-2],[1,0],[3,-4],[0,-6],[-1,-3],[0,-1],[1,-1],[2,-1],[-1,-3],[-1,-2],[1,-3],[1,0],[2,-1],[0,-2],[2,-4],[1,-1],[1,0],[0,-1],[1,-1],[0,-2],[-1,0],[-2,-2],[-1,-3],[-1,-1],[2,-1],[1,1],[1,-1],[0,-3],[1,-2],[-1,-1],[1,-2],[0,-1],[1,-2],[0,-1],[1,-2]],[[634,340],[0,2]],[[634,342],[1,0],[1,-1],[1,0],[2,-1],[1,2],[1,0],[1,2],[3,-1],[-1,-3],[0,-4],[1,0],[0,-1],[-1,-3],[3,-1],[2,4],[3,0],[1,1],[1,2],[2,2],[0,-10],[1,-3],[-1,0],[0,-1],[-1,-1],[0,-11],[-1,0],[0,-1],[1,0],[1,-1],[2,-5],[0,-4],[1,-2]],[[658,301],[1,0]],[[659,301],[0,-3],[1,0],[0,-1],[1,1],[0,2],[2,0],[0,-1],[2,-2],[1,0],[2,-6],[0,-2],[2,0],[0,-2],[-5,-3],[-2,0],[1,-5],[0,-1],[1,1],[1,0],[1,-3],[2,-4],[1,0],[1,-2],[1,-1],[-1,0],[1,-2],[-1,-1],[2,-4],[0,-1],[1,-4],[1,1],[0,1],[3,-3],[1,0],[4,2],[0,-2],[3,0],[3,1],[4,-4],[0,1],[1,1],[0,-1],[1,0],[1,1],[1,2],[2,-2],[1,2],[0,1],[3,-3],[1,0],[6,-4],[0,1],[2,4],[1,1],[1,2],[4,-4],[1,-2],[5,-2],[1,-1],[-1,-4],[0,-2],[-1,-2],[4,-2],[1,1],[1,0],[1,-1],[0,1],[1,0],[1,-1],[1,3],[-2,2],[0,1],[-1,1],[-1,0],[0,4],[6,0],[2,-1],[0,-3],[3,-4],[2,3],[1,2],[1,3],[2,-2],[1,2],[2,3],[3,-2],[0,-1],[1,-3],[1,1],[0,1],[1,-1],[1,0],[0,-1],[3,6],[1,-1],[1,-2],[3,-2],[0,1],[2,0],[0,-2],[3,0],[0,2],[-1,1],[1,0],[1,-1],[6,0],[0,-1],[5,0],[0,-1],[1,0],[7,-1],[0,1],[2,2],[1,0],[0,1],[-2,2],[0,1],[2,2],[1,-1],[2,0],[1,2],[0,1],[1,-1],[1,0],[0,1],[2,0],[0,-5],[1,-3],[0,-1],[3,0],[1,-1],[1,0],[0,-2],[-1,-6],[0,-2],[1,-2],[0,-2],[1,0],[3,-2],[1,-3],[1,-1],[2,0],[2,-2],[1,-2],[1,-1],[3,-5],[1,-2],[0,-5],[-1,-2],[-1,-1],[1,-4],[0,-1],[2,-3],[1,-6],[0,-3],[2,-1],[2,-2],[1,-4],[0,-5],[1,0],[0,-2],[1,-1],[-1,-1],[0,-1],[-2,-2],[-1,0],[0,-1],[-1,-1],[0,-1],[-1,-2],[-2,-2],[-2,-5],[0,-5],[-1,-4],[0,-1],[-1,-1],[-1,-2],[0,-1],[-1,-1],[-2,-4],[0,-1],[-2,-3],[-2,-2],[-2,0],[-2,1],[-3,-1],[-3,0],[-3,-2],[-2,-1],[-3,-3],[0,-1],[-2,-2],[0,-1],[-1,-1],[-3,0],[-1,1],[-3,0],[0,1],[-3,0],[-1,-1],[-2,0],[-3,-2],[-2,-2],[-1,0],[0,-1],[-1,-1],[-1,0],[0,-1],[-1,0],[0,-1],[-1,-1],[0,-1],[-1,-1],[-2,-1],[-1,-1],[0,-1],[-1,-1],[0,-1],[-4,0],[-1,1],[-3,0],[-1,-1],[-1,0],[-1,1],[-2,0],[-1,1],[0,1],[-4,0],[0,-1],[-2,-2]],[[742,109],[-1,0],[-2,-1],[0,-1],[-6,0],[-1,1],[0,1],[-2,2],[-1,0],[0,1],[-5,0],[0,-1],[-2,0],[0,-1],[-1,1],[-2,0],[0,1],[-1,0],[-1,1],[-1,0],[-2,-2],[-1,0],[0,-1],[-4,0],[-1,1],[-1,0],[-1,1],[-2,0],[-1,-1],[-1,0],[0,-1],[-2,-2],[-1,0],[-1,-1],[-1,0],[0,-1],[-1,0],[-1,-2],[-1,0],[0,-1],[-2,-1],[-4,-4],[-3,0],[-1,1],[-3,0],[-2,-1],[-3,-3],[-1,0],[-1,-1],[-2,0],[0,-1],[-2,0],[-1,1],[-4,0],[-1,-1],[-1,0],[-1,-1],[-1,0],[-1,-1],[-4,0],[-2,-1],[-3,0],[-1,1],[-1,0],[-1,-1],[-4,0],[-1,-1],[-1,0],[-1,-1],[-1,0],[-2,-2],[-1,0],[0,-1],[-1,-1],[-1,0],[0,-1],[-1,0],[0,-1],[-1,0],[-1,-1],[-1,0],[-2,-2],[-5,0],[-1,-1],[-1,0],[0,-1],[-1,0],[-1,-1],[-1,0],[-1,-1],[-1,-2],[-1,-1],[0,-2],[-1,-3],[-1,-2],[0,-3],[-1,0],[0,-1],[-1,0],[0,-1],[-1,0],[0,-1],[-1,0],[-1,-1],[-1,0],[-5,-5],[0,-1],[-1,0],[0,-1],[-1,-1],[0,-1],[-1,-2],[-1,-1],[0,-2],[-1,0],[0,-1],[-1,-1],[0,-1],[-1,-1],[0,-2],[-1,0],[0,-3],[-1,-1],[0,-1],[-1,0],[0,-1],[-1,-1],[0,-1],[-1,0],[-1,-1],[0,-1],[-1,0],[-1,-1],[-1,0],[-1,-1],[0,-2],[-1,-3],[-1,-1],[0,-1],[-2,-2],[-1,0],[0,-1],[-1,0],[0,-1],[-2,0],[0,-1],[-1,0],[0,1],[-5,0],[-2,-2],[-1,0],[0,-1],[-2,-1],[-3,-2],[-4,-4],[-3,0],[-2,1],[-2,0],[-2,-1],[-1,-1],[-6,-4],[-3,0],[0,1],[-1,0],[-7,7],[-2,3],[-2,0],[-2,2],[-2,1],[-2,2],[-2,1],[-2,0],[-3,-3],[-5,0],[-1,1],[-2,0],[0,1],[-1,0],[0,1],[-1,0],[-3,3],[0,1],[-1,1],[0,1],[-4,0],[-1,-1],[-9,-3],[-1,0],[-3,1],[-3,-1],[-1,-1],[-4,-3],[-3,0],[-4,1],[-4,6]],[[639,247],[3,-4],[0,-1],[2,-2],[0,-1],[1,-1],[2,-1],[-1,-1],[0,-5],[-2,-2],[-1,1],[-1,-2],[0,-1],[1,0],[1,-1],[1,-2],[0,-5],[1,0],[1,-2],[0,-1],[2,0],[1,-3],[-1,-1],[-2,-3],[0,-1],[-1,-3],[-1,-1],[1,0],[0,-1],[-1,0],[-2,-4],[0,1],[2,-3],[1,-2],[3,3],[2,-3],[0,-1],[-1,-3],[0,1],[-1,0],[-1,-2],[-3,-4],[2,-1],[0,-2],[1,-1],[1,0],[0,-2],[3,0],[1,1],[2,-1],[0,1],[1,0],[-1,-1],[0,-2],[-1,-1],[0,-1],[-4,0],[0,-2],[-1,-2],[-1,-1],[0,1],[-1,0],[-3,-2],[0,-2],[-1,0],[-1,-1],[0,-1],[-1,-1],[0,3],[-2,2],[-1,2],[-2,-2],[-1,0],[1,-1],[1,0],[1,-1],[1,0],[0,-2],[1,0],[0,-4],[2,0],[-1,-2],[0,-1],[-1,-1],[-2,0],[-1,-2],[0,1],[-3,-4],[1,-2],[1,-1],[-2,-4],[1,-1],[-2,0],[-1,-2],[0,-1],[-2,-3],[-1,1],[-2,-4],[1,0],[0,-1],[-1,-1],[-2,1],[0,-1],[-1,-1],[-1,0],[0,-1],[-3,2],[-1,1],[-2,1],[0,1],[-1,2],[-2,1],[-1,0],[-1,1],[-2,4],[-1,0],[-1,1],[-1,0],[-2,-6],[0,1],[2,6],[0,3],[-3,2],[0,-2],[-2,0],[0,2],[-2,2],[-1,0],[-1,-1],[-1,2],[-1,1],[-1,0],[0,1],[1,1],[-1,1],[-1,0],[-1,1],[-1,2],[0,3],[-1,0],[-1,1],[-1,0],[0,2],[4,4],[0,1],[-1,1],[-1,0],[0,1],[2,2],[-1,1],[0,4],[-1,1],[1,3],[1,-2],[0,-3],[1,-1],[0,1],[1,0],[2,-2],[1,5],[-1,1],[0,1],[-1,0],[1,3],[2,4],[-3,5],[-1,3],[0,1],[4,2],[1,1],[6,9],[0,2],[-5,5],[0,2],[2,0],[2,2],[0,2],[-1,0],[0,1],[-1,1],[1,1],[1,0],[1,2],[-1,0],[-1,3],[0,4],[-1,1],[0,3],[1,0],[0,-3],[2,2],[1,-2],[1,1],[0,1],[3,0],[1,-1],[0,-1],[1,1],[1,0],[0,2],[1,0],[1,-1],[0,-1],[1,0],[0,4],[1,2],[1,-1],[0,-2],[2,-1],[1,1],[0,1],[1,0],[2,-1],[1,-1],[0,1],[1,1],[0,-1],[1,0],[4,-2],[1,-1],[1,1],[0,3],[1,0],[1,-1],[0,3],[3,0]],[[451,422],[1,-2],[0,-5],[1,-2],[-2,-3],[-1,-2],[1,-2],[0,-7],[-2,-2],[-1,0],[-2,-2],[0,-2],[1,-7],[2,-6],[0,-1],[-1,-1],[1,-4],[0,-1],[-1,0],[-2,2],[-1,-1],[0,-2],[1,-4],[1,0],[0,-6],[-1,-1],[1,0],[0,-1],[1,-3],[-2,-2],[1,-1],[0,-2],[-1,-2],[-1,-1],[1,-1],[-1,-1],[1,-5],[1,1],[1,-2],[0,-1],[-1,-1],[1,-1],[1,0],[2,-2],[-1,-1],[0,-1],[-1,-1],[-1,0],[0,-2],[2,-2],[0,-9],[-1,0],[0,1],[-1,1],[-1,-3],[1,-1],[0,-1],[1,0],[0,-3],[-1,0],[0,-1],[-2,-3],[2,0],[2,-1],[1,-2],[-2,-4],[-2,-2],[0,-2],[2,-1],[0,-2],[-2,-2],[-1,-3],[0,-3],[-1,-2],[1,0],[1,1],[1,-2],[-1,-2],[-2,-2],[0,-5],[1,0],[0,-3],[-1,-2],[0,-1],[-1,-3],[-1,-1],[-3,-6],[1,-2],[2,0],[0,-2],[2,2],[1,0],[0,1],[2,2],[0,3],[1,0],[0,4],[1,1],[0,2],[1,2],[0,1],[1,0],[1,-1],[0,-6],[1,-1],[0,-4],[1,-3],[0,-1],[1,0],[0,-2],[1,-2],[1,-1],[0,-1],[-1,-3],[1,-1],[0,-4],[2,0],[2,-4],[0,-1],[3,1],[2,1],[3,-2],[1,-2],[1,0],[0,-1],[-1,0],[0,-1],[-1,0],[-2,-3],[1,0],[1,-9],[0,-3],[1,-3],[0,-1],[-1,-2],[1,-7],[1,-1],[1,-4],[0,-1],[-1,-2],[2,0],[0,-2],[-1,-1],[0,-2],[-1,-6],[1,0],[0,-6],[3,0],[-1,-2],[0,-6],[-1,-1],[1,-3],[0,-2],[-1,-1],[1,-1],[2,1],[2,0],[0,-1],[2,0],[1,-1],[0,2],[6,0],[1,-1],[0,-5],[-4,0],[-3,-2],[1,-6],[1,-2],[1,0],[0,-2],[-1,0],[0,-2],[-1,-1],[-1,-2],[1,-1],[0,-8],[-1,-1],[1,-1],[-1,-1],[1,-1],[1,0],[0,-1],[-2,-2],[-2,-3],[-1,-2],[1,-2],[1,-1],[0,-5],[2,-2],[1,-2],[1,-1],[1,-4],[0,-4],[-1,-2],[0,1],[-2,0],[-3,-1],[0,-1],[-1,-1],[-3,0],[0,-1],[-3,-2],[-2,0],[0,-2],[1,-1],[-1,0],[0,-1],[1,0],[0,-1],[-6,-2],[-6,-3],[0,-4],[-1,-1],[0,-1],[1,1],[0,-2],[-1,0],[1,-1],[0,-1],[-1,-1],[0,-1],[2,0],[1,-1],[1,-3],[1,-1],[-1,0],[-1,-1],[0,-2],[1,0],[0,-1],[2,-5],[2,0],[0,-3],[-1,0],[0,-4],[2,1],[1,0],[0,-2],[1,0],[0,-3],[2,-3],[-1,-1],[-2,1],[0,-1],[-1,-1],[4,0],[1,-1],[1,1],[1,-1],[0,-1],[-1,0],[-1,-1],[1,-2],[0,-2],[-3,-1],[-2,-1],[0,-2],[-1,0],[0,-3],[-1,0],[0,-2],[-1,1],[-1,0],[-1,-2],[1,0],[1,-1],[-1,-4]],[[465,22],[-6,6],[-3,1],[-4,1],[-5,0],[-5,-4],[0,-1],[-1,0],[0,-1],[-2,-2],[-7,-5],[-6,0],[-1,-1],[-2,0],[-4,-2],[-5,0],[-2,1],[-5,2],[-3,1],[-9,9],[-2,1],[-1,0],[-2,-1],[-4,0],[-4,1],[-1,1],[-1,0],[-5,4],[-2,1],[-2,2],[-2,3],[-1,1],[-4,0],[-4,-1],[-1,-1],[-1,0],[0,-1],[-2,0],[-7,2],[-2,1],[0,3],[-3,4],[-3,0],[-3,2],[-2,1],[-5,0],[-2,-1],[-11,0],[-2,-2],[-10,-5],[-3,-3],[-7,-1],[-7,3],[-4,1],[-1,1],[-1,0],[0,1],[-1,0],[-2,1],[-1,0],[-2,1],[-1,0],[-1,1],[0,1],[-1,1],[0,1],[-1,1],[0,10],[1,1],[2,6],[0,4],[1,4],[1,3],[5,3],[6,2],[1,0],[1,1],[3,6],[0,3],[1,1],[0,1],[-1,2],[-2,3],[-3,2],[-8,0],[0,1],[-1,1],[-1,0],[0,2],[-1,0],[0,1],[-1,2],[-1,0],[-3,3],[-3,2],[-4,4],[-2,3],[0,1],[-2,1],[-1,1],[-2,0],[0,1],[-2,0],[-2,2],[0,3],[1,5],[0,5],[-2,2],[-1,2],[-3,0],[-6,2],[0,1],[-1,0],[-1,3],[-3,4],[-2,10],[0,7],[-3,3],[0,1],[-1,2],[-1,5],[1,2],[1,0],[5,-2],[4,4],[0,10],[3,3],[3,1],[4,-3],[3,-4],[2,-1],[6,4],[1,1],[-1,3],[0,1],[-3,5],[-1,3],[-2,2],[-2,1],[0,1],[-1,1],[-1,0],[-3,-1],[-1,0],[-6,5],[0,1],[-1,0],[0,1],[-5,7],[-1,3],[-3,4],[-1,0],[0,1],[-4,-2],[-3,-4],[-1,-2],[-2,-1],[-4,0],[-3,-4],[0,-1],[-1,-3],[-2,-2],[0,-1],[-1,-4],[0,-2],[-3,-5],[-1,-2],[-1,-3],[-1,-6],[-2,-3],[0,-3],[-1,-2],[-3,-3],[-1,0],[-2,1],[-4,5],[-2,4],[0,2],[-1,1],[-2,3],[-2,4],[1,2],[0,3],[-1,2],[-1,1]],[[353,399],[0,-5],[-2,-4],[0,-2],[1,-1],[0,-5],[1,-2],[0,-2],[-1,-1],[0,-4],[-2,-1],[-2,-2],[-1,0],[-1,-1],[0,-1],[-1,0],[-4,-4],[-1,0],[0,-2],[-3,-1],[-1,1],[-4,3],[0,4],[-2,0],[0,1],[-1,-1],[0,-1],[-3,0],[-2,-2],[0,-2],[-2,-3],[0,1],[-2,2],[-1,-1],[-3,0],[-3,-2],[-1,-2],[0,-2],[-1,0],[-2,1],[-1,0],[0,-1],[-2,0],[0,1],[-1,1],[0,-1],[-1,0],[0,-1],[-2,2],[-3,0],[-1,-2],[-1,-1],[0,-1],[-1,-1],[-1,0],[-3,-2],[-2,0],[-1,1],[-1,-1],[-1,0],[-1,1],[0,2],[-1,0],[-1,-1]],[[284,354],[0,-5],[-3,0],[2,2],[1,3]],[[284,354],[1,2],[-3,1],[-1,0],[-4,-3],[-2,-1],[0,3],[-2,0],[-1,2],[-1,0],[0,-1],[-1,-1],[-2,-1],[-2,-2],[0,2],[-1,0],[-1,-1],[-1,0],[-2,-2],[-1,0],[-1,1],[-1,0],[0,-1],[-1,-1],[-1,1],[0,-1],[-1,-2],[-1,-1],[-2,-1],[0,-3],[-2,-2],[-1,0],[-2,-1],[0,-2],[-1,0],[-1,-2],[0,-2],[-2,-3],[0,-1],[2,-4],[2,-1],[3,0],[2,-2],[1,-2],[0,-3],[-2,-2],[0,-1],[-5,-10],[-2,0],[-1,-2],[0,-2],[-3,-6],[-2,-2],[-1,0],[-1,-3],[1,-1],[1,0],[0,-3],[-1,0],[-2,-1],[1,-2],[0,-6],[-1,-1],[0,-5],[-1,-2],[0,-1],[-1,-2],[0,-1],[-1,-1],[0,-3],[-1,0],[0,-3],[-2,-4],[0,-5],[-1,-2],[0,-3],[-2,-1],[0,1],[-1,1],[0,-1],[-1,0],[0,-1],[-1,0],[0,-1],[-2,-2],[0,3],[-1,4],[-1,1],[-2,0],[-2,1],[-3,0],[-2,3],[0,2],[-1,1],[-2,1],[-1,1],[0,-4],[-1,-1],[0,-1],[-1,-2],[1,-3],[0,-3],[-1,-1],[0,-1],[-1,-1],[-1,0],[-1,1],[-1,-2],[0,-7],[-1,-3],[0,-6],[1,-2],[2,-1],[0,-5],[-2,-5],[0,-2],[-1,-1],[-1,3],[-1,-1],[0,-1],[-2,1],[-2,5],[-1,1],[-1,-2],[-1,-1],[-4,-1],[-1,-1]],[[185,211],[-1,2],[0,4],[-1,1],[-4,1],[-4,2],[-2,0],[-6,2],[-3,-1],[-2,3],[-5,-2],[-3,0],[-3,2],[-6,-1],[-1,2],[-1,4],[0,7],[-1,4],[-2,4],[-3,2],[-2,1],[-4,0],[-4,1],[-5,-1],[-3,3],[0,3],[-2,4],[-1,1],[0,7],[1,2],[2,0],[0,1],[2,-1],[1,2],[2,-1],[1,-1],[0,2],[1,-1],[4,0],[3,3],[4,1],[0,4],[-1,2],[0,3],[-9,6],[-2,1],[-1,0],[-3,3],[0,1],[1,1],[-1,1],[-2,1],[0,1],[-1,1],[0,1],[-2,2],[2,2],[2,0],[1,2],[1,0],[1,-1],[3,2],[0,1],[-1,2],[2,3],[1,2],[1,3],[-1,3],[1,3],[0,1],[2,0],[3,2],[0,3],[-2,4],[-1,1],[-1,0],[0,2],[-1,2],[-5,3],[0,1],[-3,4],[-1,-1],[0,-1],[-2,1],[-2,0],[-2,2],[0,1],[-1,0],[-1,1],[-1,-1],[-2,1],[-2,-2],[-3,3],[-2,1],[-1,0],[-2,3],[1,2],[-1,1],[-1,2],[-1,5],[0,3],[-1,0],[0,-1],[-1,0],[0,0],[-1,-1],[0,-1],[-1,-1],[-1,0],[-1,-1],[-1,0],[-2,-1],[0,1],[-2,3],[-2,0],[0,3],[-4,-1],[-1,3],[-1,1],[-2,3],[-2,2],[-2,4],[-1,0],[0,2],[-2,5],[-2,0],[-3,2],[0,2],[1,0],[0,4],[-1,0],[0,2],[-4,3],[-6,0],[0,3],[-1,2],[1,0],[3,3],[3,4],[-1,3],[0,1],[-1,2],[0,1],[-2,4],[-1,0],[-1,-1],[0,1],[-1,6],[1,2],[1,0],[0,1],[1,4],[1,1],[0,7],[-1,1],[1,2],[0,9],[1,2],[0,1],[1,5],[-4,2],[-1,-4],[0,-3],[-1,0],[-3,1],[-2,-1],[0,-1],[-2,1],[0,1],[-1,1],[0,2],[-1,5],[-2,0],[0,2],[-1,2],[1,2],[0,2],[-1,1],[-4,6],[-1,-1],[-1,0],[0,2],[-1,0],[-1,3],[0,1],[-1,4],[-2,0],[0,-2],[-3,-1],[-2,4],[-1,5],[-1,4],[-4,4],[-1,-1],[-3,0],[-6,7],[1,1],[0,1],[-1,3],[-1,4],[0,2],[-1,2],[-2,2],[0,1],[-1,3],[-3,2],[0,1],[-1,2],[1,0],[0,1],[-1,1],[0,1],[1,1],[1,3],[1,2],[2,1],[0,-1],[4,3],[1,1],[0,-2],[1,-2],[0,1],[1,0],[2,-1],[0,1],[2,-2],[3,-1],[2,0],[3,6],[0,2],[1,2],[2,-2],[2,0],[2,-2],[2,-3],[2,-2],[1,0],[1,-2],[1,-1],[1,-2],[2,2],[0,3],[2,0],[1,-1],[1,0],[0,2],[1,1],[0,1],[1,0],[1,1],[0,4],[1,1],[1,0],[-1,1],[0,3],[2,-1],[2,0],[-1,5],[0,3],[-1,2],[1,1],[2,4],[3,0],[0,1],[3,0],[1,1],[2,0],[1,1],[1,-1],[0,-1],[1,-2],[4,-1],[0,2],[2,1],[1,-1],[0,-2],[1,0],[1,-1],[2,0],[3,1],[1,-2],[1,-1],[3,-2],[0,3],[1,-1],[0,1],[1,0],[1,2],[1,0],[0,3],[1,5],[1,0],[2,1],[0,-2],[3,0],[1,2],[-1,2],[1,4],[0,1],[2,1],[0,9],[1,4],[1,0],[0,1],[1,1],[6,-2],[1,1],[0,1],[1,4],[1,2],[0,4],[-1,1],[0,1],[-2,2],[-1,0],[-1,5],[1,6],[0,2],[1,1],[1,0],[1,4],[2,4],[-2,2],[0,1],[1,5],[1,3],[3,0],[1,1],[1,0],[1,-1],[0,-1],[3,-1],[1,2],[0,3],[3,1]],[[255,599],[-1,0],[0,-1],[-2,-2],[-3,0],[-2,1],[-1,1],[-1,0],[-1,-1],[-2,0],[-1,-1],[-4,-1],[-5,0],[-3,1],[0,2],[-1,0],[-1,2],[-1,0],[-3,4],[1,0],[0,1],[-2,2],[-1,0],[-1,2],[0,5],[-2,2],[0,7],[-1,0],[-3,-2],[-1,-1],[-1,0],[-1,1],[-1,-1],[-2,2],[0,1],[-1,0],[0,1],[-1,-2],[-1,1],[-3,4],[1,1],[-1,3],[0,3],[-1,1],[0,2],[1,3],[-1,2],[-2,0],[-1,1],[-1,-1],[-1,0],[0,1],[-1,1],[-1,0],[-1,1],[0,4],[-1,-1],[0,1],[-1,0],[-1,-1],[-3,3],[0,1],[-1,1],[0,-2],[-1,-1],[-1,-3],[-2,-1],[-2,0],[0,-1],[-1,0],[-3,1],[-2,2],[-3,0],[1,1],[2,4],[0,3],[-4,2],[-1,-1],[0,-1],[-2,0],[-1,-1],[-3,-2],[-3,0],[-3,2],[-2,-1],[0,1],[-1,-1],[-2,0],[-1,1],[-5,0],[-1,-2],[0,-1],[-1,-1],[-2,0],[-3,1],[-1,0],[-1,-3],[1,-1],[0,-2],[-1,-1],[1,0],[0,-4],[-2,1],[-1,3],[0,2],[-1,2],[-2,0],[0,3],[-1,2],[-1,-1],[-1,0],[-1,1],[-1,0],[0,-1],[-2,-1]],[[125,652],[1,2],[0,1],[-1,0],[-1,1],[0,2],[-1,2],[0,1],[1,1],[2,-2],[0,1],[2,1],[2,-2],[1,2],[1,1],[0,2],[2,2],[0,3],[-5,5],[0,2],[1,2],[1,1],[1,0],[1,4],[0,8],[4,4],[3,1],[1,0],[1,2],[0,3],[1,1],[-1,2],[0,1],[-1,2],[0,4],[1,1],[3,0],[1,2],[1,0],[1,3],[0,-1],[1,0],[1,2],[0,1],[-1,1],[0,4],[1,0],[0,2],[1,0],[-1,4],[-2,1],[-1,4],[3,1],[0,1],[2,3],[0,1],[1,0],[1,1],[-1,2],[2,3],[2,2],[3,1],[1,-1],[1,0],[0,5],[1,0],[0,3],[1,6],[3,2],[2,1],[0,7],[-1,1],[0,4],[2,5],[1,0],[0,1],[1,1],[0,1],[-1,2],[1,2],[1,4],[0,1],[3,6],[0,2],[1,2],[0,1],[2,1],[1,1],[3,0],[1,-1],[1,0],[2,5],[0,12],[-1,0],[-2,5],[1,1],[0,4],[1,4],[3,4],[0,-1],[1,-1],[1,1],[0,1],[-1,1],[0,2],[2,2],[1,0],[0,-1],[2,4],[1,1],[1,2],[0,2],[4,-1],[1,0],[1,1],[1,3],[0,3],[1,2],[0,4],[1,0],[1,2],[0,4],[1,2],[2,1],[1,0],[0,5],[1,3],[0,-1],[2,0],[3,3],[1,2],[0,1],[-1,2],[1,0],[3,-3],[4,-1],[2,0],[0,-1],[2,0],[0,2],[1,3],[0,6],[1,1],[0,1],[2,0],[2,2],[0,-1],[6,-6],[1,-2],[6,0],[1,1],[4,1],[2,2],[1,0],[0,1],[2,3],[0,3],[1,1],[0,2],[5,0],[2,2],[0,1],[-1,3],[-1,1],[1,1],[0,2],[-1,1],[0,2],[1,0],[2,-1],[1,0],[4,4],[1,0],[2,3],[3,6],[1,0],[1,2],[2,0],[2,1],[-1,7],[-1,0],[0,1],[-1,1],[0,1],[1,1],[1,0],[2,-2],[1,1],[1,-1],[2,-1],[0,-2],[2,0],[0,-1],[2,2],[4,2],[2,0],[1,1],[-1,1],[0,1],[1,0],[0,1],[1,2],[-1,1],[0,1],[1,1],[0,4],[1,1],[0,1],[1,1],[-1,0],[0,1],[3,3],[0,1],[2,2],[0,1],[2,0],[0,-4],[1,0],[0,-1],[4,-1],[2,0],[0,2],[2,0],[0,-3],[1,-2],[1,0],[0,-1],[-1,-2],[0,-1],[1,-3],[2,-1],[0,1],[1,0],[1,-2],[1,0],[0,-1],[-1,-1],[2,-2],[1,1],[2,-3],[1,-1],[1,0],[1,-1],[0,-1],[2,-1],[1,0],[1,-1],[1,-2],[3,0],[2,-2],[1,1],[0,2],[2,3],[0,3],[1,2],[0,-1],[1,-1],[3,-1],[2,0],[0,1],[3,0],[1,-1],[1,0],[0,-1],[3,-3],[1,0],[4,2],[0,-1],[1,0],[0,1],[5,0],[2,-2],[3,0],[0,-2],[1,0],[1,-2],[0,-1],[1,-3],[0,-1],[2,-2],[2,2],[1,0],[2,1],[3,0],[1,1],[0,2],[1,1],[0,-1],[1,0],[1,1],[1,-1],[2,1],[2,-1],[0,-2],[4,0],[4,-3],[0,-3],[1,-2],[2,0],[1,-1],[1,1],[1,0],[1,1],[2,-1],[1,0],[2,-2],[1,-2],[4,2],[2,0],[2,1],[2,3],[1,0],[2,-2],[4,2],[0,4],[1,2],[1,1],[2,1],[1,1],[0,1],[2,-1],[3,-1],[1,-1],[3,-1],[0,1],[1,1],[3,0],[1,2],[2,-1],[1,-3],[1,0],[0,-1],[1,1],[2,-1],[0,-2],[1,-3],[2,-2],[0,-1],[2,-3],[-1,-3],[0,-4],[2,-2],[2,0],[0,-3],[2,0],[1,1],[2,-2],[0,-1],[1,1],[0,1],[2,-1],[0,-2],[2,-1],[3,0],[0,-2],[-1,-1],[1,-2],[1,-1],[0,-3],[1,-1],[1,0],[0,-2],[1,-2],[1,-1],[1,-3],[0,-3],[2,0],[2,1],[3,0]],[[654,520],[0,-5],[-1,-1],[0,-4],[-1,-2],[-3,-3],[-1,-2],[1,-2],[-1,-2],[1,-2],[0,-2],[-1,0],[0,-1],[-1,-2],[0,-4],[1,-1],[0,-2],[-1,-2],[0,-9],[1,-4],[1,0],[-1,-2],[0,-8],[-1,-2],[1,-1],[0,-2],[-1,0],[-1,-1],[0,-2],[-1,0],[0,-2],[-1,-2],[-1,-1],[0,-3],[-1,-3],[0,-9],[-1,-1],[0,-1],[-1,-1],[0,-2],[-1,0],[-2,-2],[0,-2],[-1,1],[0,1],[-2,1],[0,4],[-1,2],[-1,-1],[-2,0],[-1,-1],[0,-1],[-1,0],[-1,-1],[0,-3],[-1,0],[0,-5],[-1,-2],[-1,2],[0,3],[-2,-2],[0,-2],[-1,-2],[-1,-1],[0,-1],[-2,-4],[-1,-3],[-1,0],[-1,-2]],[[615,406],[-1,-1],[0,-4],[-1,0],[-1,-1],[-2,2],[-1,0],[0,1],[-1,1],[0,1],[-1,2],[-2,0],[-1,-1],[-3,1],[-2,2],[-1,-3],[-2,-2],[0,-6],[-1,-1],[1,-1],[-1,-3],[0,-1],[-2,-1],[0,-3],[-1,0],[-1,1],[-1,0],[-1,1],[0,2],[-2,6],[-1,0],[-1,1],[0,1],[-2,-1],[-1,-2],[-2,1],[-2,-1],[-2,4],[-1,1],[-2,3],[-1,-1],[-2,-1],[-1,0],[-1,1],[0,-2],[-1,-1],[-1,-2],[-1,-1],[0,-1],[-1,-1],[-1,0],[-1,2],[-4,-2],[-1,0],[0,1],[-2,1],[-2,-2],[-1,-2],[-2,0],[-1,-1],[0,-1],[-2,-1],[-2,-2],[0,-1],[-1,-2],[1,-3],[-1,-3],[-4,1],[-2,-1],[-3,-1],[-1,2],[0,5],[-1,2],[-3,-3],[-1,2],[-1,1],[0,1],[1,2],[1,1],[0,1],[-1,1],[0,1],[-2,4],[0,5],[-1,3],[0,1],[-1,0],[-1,2],[-1,-1],[-2,0],[-1,3],[-2,2],[-1,2],[0,1],[-1,1],[-1,0],[0,2],[-3,3],[-1,0],[-1,-1],[-4,2],[-2,0],[-1,-1],[-4,0],[0,1],[-2,0],[-2,-2],[-3,3],[-8,0],[0,1],[-1,1],[-2,1],[-1,-1],[-2,1],[-1,0],[-2,-1],[-2,0],[0,1],[-2,-1],[-3,0],[-2,-2],[-1,0],[0,2],[-3,0],[-1,-1],[-2,-1],[-3,-3],[-1,0],[-1,1],[-3,-1]],[[451,422],[-1,1],[-1,0],[-2,-2],[0,-1],[-1,0],[0,2],[-2,0],[-1,1],[0,1],[-2,-2],[-3,0],[-2,1],[-1,-1],[-4,-2],[0,2],[-1,-2],[-2,-1],[-1,-1],[-1,0],[-1,-1],[-1,0],[0,-1],[-1,-1],[0,-1],[-3,0],[-2,-2],[0,-2],[-1,0],[-4,-2],[-1,0],[-1,-1],[-2,0],[-1,-1],[-1,1],[-3,0],[-1,1],[-1,0],[-2,1],[-2,2],[-2,0],[0,-1],[-1,1],[-2,1],[0,-1],[-1,0],[-4,1],[-1,0],[-1,-1],[-1,0],[-1,-1],[-2,0],[-2,2],[-1,0],[-2,-1],[-3,0],[-2,-2],[-1,-2],[-2,-1],[-1,-1],[-2,0],[-2,-1],[-1,-3],[-1,-1],[-1,-3],[-2,-1],[-1,0],[-1,-1],[-1,1],[0,2],[-1,-1],[-2,2]],[[353,399],[0,1],[-1,2],[1,1],[-2,3],[-1,4],[-1,1],[-1,0],[0,2],[-2,2],[-1,0],[-1,1],[-1,2],[0,2],[-1,2],[-1,-1],[-1,0],[0,1],[-2,0],[-1,1],[-2,0],[-1,2],[0,4],[1,2],[-2,2],[-1,-1],[-3,-1],[0,1],[-1,2],[1,2],[3,3],[1,2],[1,0],[0,2],[-4,4],[-2,4],[1,2],[0,3],[1,4],[-1,3],[-1,1],[-1,0],[-1,3],[1,0],[0,1],[-1,1],[0,3],[-1,2],[-1,3],[0,4],[1,1],[-1,1],[1,1],[0,2],[-1,0],[-1,3],[-1,0],[1,3],[2,0],[0,2],[-1,0],[0,1],[-3,0],[-2,1],[-1,1],[-1,3],[-1,4],[0,3],[-1,1],[0,12],[-1,1],[0,-1],[-1,-1],[-2,1],[-2,-2],[-1,1],[-1,0],[-3,1],[-1,1],[-3,1],[0,4],[-1,0],[0,3],[-1,1],[1,1],[0,2],[-1,2],[-2,0],[1,3],[-1,1],[0,1],[-1,2],[3,1],[0,1],[2,-2],[1,3],[-1,2],[-1,1],[0,2],[1,1],[-2,3],[-1,1],[0,2],[-2,1],[-1,0],[-1,-1],[-2,1],[-1,0],[-1,1],[-1,0],[0,1],[-1,1],[0,1],[-2,3],[0,3],[-1,1],[2,4],[-1,2],[-1,1],[-1,3],[0,3],[-1,1],[-3,1],[-1,0],[-1,1],[-1,0],[-2,-1],[0,-1],[-1,0],[-3,-1],[-1,1],[0,1],[-1,1],[-1,0],[-1,2],[-2,1],[-1,0],[0,1],[-2,1],[-2,0],[-1,1],[0,3],[-1,0],[-1,1],[-1,2],[0,2]],[[255,599],[0,1],[1,1],[1,0],[3,4],[-2,1],[-1,1],[0,3],[-1,2],[0,3],[-1,0],[0,1],[-1,-1],[1,2],[1,1],[-1,3],[0,4],[1,-1],[1,0],[3,4],[1,2],[2,0],[1,1],[0,1],[-1,3],[1,0],[1,1],[2,-2],[3,0],[0,-2],[3,-2],[1,0],[1,-1],[0,-1],[2,-1],[2,1],[3,3],[2,1],[1,-1],[2,-1],[1,1],[1,0],[0,-4],[1,0],[1,-4],[0,-2],[1,-1],[1,0],[2,-2],[0,-6],[1,1],[4,0],[0,2],[1,3],[0,-1],[1,0],[2,1],[0,2],[1,0],[1,1],[1,0],[2,1],[1,-2],[0,-2],[5,0],[1,1],[2,0],[1,2],[1,1],[-1,1],[0,3],[2,0],[1,-1],[4,2],[1,-1],[2,2],[2,0],[1,-2],[3,0],[1,-1],[2,0],[0,-2],[1,-2],[1,-1],[1,0],[2,-2],[1,0],[1,-1],[1,1],[0,1],[2,1],[0,-2],[1,-1],[2,2],[1,0],[0,-2],[1,0],[1,-1],[0,-1],[-1,0],[0,-2],[-1,-2],[0,-5],[1,-1],[0,-4],[3,-2],[2,0],[0,-1],[2,0],[1,2],[1,0],[-1,2],[-1,0],[0,-1],[-1,1],[0,2],[2,1],[-1,2],[1,2],[2,1],[1,0],[3,-1],[3,2],[2,0],[2,1],[3,0],[0,1],[2,-1],[0,-1],[1,-1],[0,-1],[1,1],[0,-1],[1,-1],[1,1],[-1,1],[2,2],[1,-1],[0,1],[1,0],[0,-1],[1,-2],[3,0],[1,-2],[2,-2],[1,0],[2,2],[-2,2],[0,1]],[[393,610],[1,0]],[[394,610],[0,1],[-2,0],[0,4],[1,1],[-1,3],[0,3],[-1,1],[3,6],[2,-1],[2,-2],[1,1],[0,2],[1,0],[0,4],[1,0],[0,3],[2,5],[0,1],[-1,1],[-3,1],[-1,1],[0,3],[1,0],[0,3],[3,1],[0,1],[2,1],[2,0],[1,5],[0,1],[1,1],[0,1],[1,0],[-2,3],[-2,0],[-3,5],[1,2],[1,0],[0,1],[1,1],[1,-1],[2,-1],[1,0],[0,1],[-1,2],[0,3],[4,2],[1,0],[2,2],[0,2],[-1,1],[2,-1],[2,-2],[0,-1],[2,-2],[1,0],[0,-1],[2,0],[1,-2],[2,-1],[1,0],[0,-1],[1,0],[1,1],[1,-1],[1,1],[2,-2],[4,0],[0,1],[1,0],[0,3],[1,1],[1,0],[0,1],[1,-1],[2,-1],[2,4],[-1,1],[0,-1],[-1,1],[1,2],[0,5],[2,2],[1,0],[0,1],[1,1],[1,0],[0,2],[1,0],[1,1],[1,4],[0,3],[1,1],[-1,1],[0,2],[3,0],[1,1],[0,1],[1,0],[0,3],[1,3],[1,1],[1,-1],[1,0],[1,1],[1,-1],[0,-1],[1,0],[0,-1],[-1,-2],[1,0],[0,-1],[1,-1],[0,-1],[1,0],[3,-1],[1,0],[1,-1],[2,2],[1,-1],[1,1],[0,1],[-1,0],[0,1],[-2,3],[1,1],[1,3],[-1,1],[1,3],[0,2],[1,3],[1,0],[2,4],[0,2],[1,4],[0,1],[1,1],[2,3],[0,1],[2,2],[1,3],[3,3],[3,0],[0,-1],[1,0],[2,-1],[1,1],[0,1],[1,3],[1,-1],[2,0],[1,1],[1,-1],[0,-1],[2,0],[2,2],[0,1],[1,2],[1,0],[1,1]],[[831,535],[0,1],[-1,1],[-4,0],[-3,-2],[-2,-1],[-1,1],[0,2],[-2,-1],[-1,0],[0,2],[-1,1],[-1,2],[0,2],[-2,-2],[-2,4],[-1,-1],[0,1],[-1,0],[-2,-2],[-2,0],[0,4],[-1,0],[0,-1],[-1,0],[0,-6],[-1,-1],[-1,0],[0,-1],[1,-1],[-1,0],[0,-1],[-1,1],[-1,-1],[0,-1],[-2,-2],[0,1],[-1,-1],[0,3],[-1,0],[-1,1],[0,3],[-6,0],[0,2],[-1,-1],[-1,0],[-1,1],[-1,0],[0,-1],[-1,1],[-1,0],[0,-1],[-1,-1],[-1,1],[0,1],[-2,-1],[-1,-1],[-1,2],[1,1],[-1,1],[-1,-1],[0,-2],[1,-1],[0,-3],[-1,-1],[2,-4],[0,-3],[-2,-1],[1,-1],[1,1],[1,0],[1,-1],[0,-2],[-1,-1],[-1,0],[-1,-3],[1,0],[0,-2],[-1,-1],[0,-1],[1,-1],[-2,-2],[-2,-1],[-2,1],[-1,3],[0,2],[-1,3],[-1,1],[0,1],[1,1],[0,3],[-1,2],[0,1],[2,2],[-1,4],[-2,2],[-1,3],[0,1],[-2,0],[1,2],[0,2],[-1,1],[-1,-1],[0,-1],[-1,0],[-1,2],[0,2],[-1,2],[-3,1],[0,1],[-3,0],[-1,-1],[0,-6],[-1,-1],[-1,0],[-1,-1],[0,3],[-1,0],[-1,1],[0,1],[-2,2],[1,1],[0,2],[-1,1],[-5,-1],[0,-2],[1,-1],[-3,-2],[-1,1],[0,2],[-1,0]],[[737,552],[0,1]],[[737,553],[-1,0],[0,-1],[-2,-1],[0,1],[-1,0],[0,-3],[-1,2],[-1,0],[0,-3],[-4,-3],[-1,-1],[0,-2],[1,-1],[1,0],[-2,-6],[-2,0],[0,-3],[-2,0],[-1,-1],[-1,1],[-7,4],[-4,0],[-1,-2],[0,-5],[-1,0],[-1,-3],[-1,0],[-2,2],[-4,2],[-2,-1],[0,-2],[-3,1],[-2,-2],[0,2],[-2,2],[0,1],[-1,1],[0,-1],[-3,0],[-1,1],[-1,0],[-1,-1],[-1,1],[-3,-3],[-3,0],[0,-1],[-1,0],[0,-2],[-1,-2],[-1,-1],[-1,0],[0,-1],[-1,0],[-2,-1],[0,-4],[-1,-1],[-2,0],[-2,2],[-2,0],[-1,2],[-2,2],[-1,0],[0,-1],[-1,-1],[-3,0]],[[654,520],[0,3],[-2,4],[1,1],[0,1],[-3,3],[0,2],[-1,0],[-2,1],[-1,1],[0,1],[1,2],[1,0],[0,4],[-3,0],[-1,-1],[0,5],[-1,2],[0,1],[-1,2],[0,2],[1,0],[0,4],[-1,4],[-2,2],[-3,1],[-2,0],[0,3],[-1,2],[0,1],[1,2],[1,1],[0,2],[1,1],[0,4],[1,2],[0,1],[-2,2],[-3,-1],[-1,-1],[0,-1],[-1,-3],[-2,-1],[-3,0],[-1,1],[-1,0],[-1,1],[0,2],[1,2],[0,1],[1,1],[0,8],[-1,0],[-3,2],[-3,1],[-4,0],[-1,1],[0,1],[1,1],[-2,1],[-1,0],[-1,-1],[-1,0]],[[609,600],[0,1]],[[609,601],[-1,0],[0,-1],[-1,0],[0,5],[-1,2],[1,0],[1,1],[0,3],[1,0],[0,1],[-1,1],[1,0],[0,2],[-1,1],[1,2],[5,0],[0,-1],[1,-1],[1,5],[0,2],[-1,2],[-1,0],[-2,2],[-1,2],[0,5],[-1,1],[-1,3],[-1,2],[-1,1],[-1,3],[0,2],[1,1],[1,2],[1,0],[-3,9],[-1,0],[0,4],[-4,0],[-1,1],[-4,0],[-1,-3],[2,-4],[0,-4],[-4,0],[-2,4],[-1,1],[0,2],[-4,5],[0,6],[1,1],[-1,1],[0,7],[1,2],[0,2],[-1,1],[0,1],[1,0],[-2,2],[-1,3],[0,1],[1,0],[1,2],[-1,2],[-1,0],[0,-3],[-1,0],[-1,1],[0,1],[1,1],[0,1],[1,2],[-1,2],[0,2],[2,5],[1,2],[0,3],[3,-1],[2,-1],[2,1],[-1,0],[-2,4],[0,4],[-1,2],[-1,1],[-1,-1],[0,-1],[-1,0],[-1,3],[0,4],[-1,1],[-1,3],[0,4],[-1,0],[-2,3],[0,4],[-1,1],[-6,3],[-1,0],[-1,1],[-1,-1],[-2,2],[-1,-1],[-1,-2],[-1,-1],[-1,0],[-2,1],[-4,0],[0,1],[-1,3],[0,2],[-1,2],[-1,0],[-1,2],[-2,1],[-4,4],[-2,4],[0,1],[1,1],[-1,1],[-1,-1],[-3,0],[-1,-1],[-1,1],[-1,0],[-1,-1],[-3,-2],[-1,0],[-1,-2],[0,-2],[-1,-2],[0,-2],[1,-2],[0,-1],[-1,0],[-1,-2],[-4,-2],[-1,0],[-1,2],[0,1],[-2,1],[-1,0],[-1,2],[0,1],[-2,0],[-2,-2],[0,-1],[-2,0],[-1,2],[-1,-1],[-2,0],[-3,4]],[[508,757],[0,10],[-1,1],[0,4],[-1,2],[1,2],[0,1],[1,1],[1,2],[1,3],[-2,1],[-1,1],[-2,3],[-1,1],[2,3],[2,1],[2,2],[-1,4],[0,2],[-1,0],[0,8],[-1,-1],[-2,2],[0,2],[-3,4],[-1,1],[-1,0],[-1,1],[2,0],[3,3],[1,-2],[2,-2],[0,3],[1,1],[1,0],[0,1],[2,2],[-1,1],[-1,-1],[-2,4],[-1,1],[0,1],[1,1],[1,0],[1,1],[0,2],[2,1],[0,4],[-1,1],[-1,0],[0,1],[-2,4],[0,3],[-2,0],[-3,2],[-1,2],[-4,4],[0,3],[2,0],[1,2],[2,2],[4,2],[1,0],[0,4],[-3,1],[0,1],[-2,2],[-3,4],[-2,2],[-1,0],[0,5]],[[496,884],[4,0],[1,-1],[0,1],[1,1],[3,-1],[0,-1],[1,2],[1,1],[0,1],[1,0],[5,3],[1,1],[0,1],[2,3],[1,2],[1,0],[1,1],[0,3],[2,4],[0,1],[1,1],[1,2],[0,1],[2,2],[0,5],[1,2],[1,1],[2,-1],[1,0],[2,3],[1,0],[0,1],[1,0],[0,1],[3,0],[11,2],[1,1],[14,2],[1,0],[3,2],[2,0],[6,-1],[3,0],[1,1],[0,-1],[1,0],[3,-1],[4,3],[2,2],[0,1],[1,0],[2,1],[2,-1],[1,-1],[2,0],[0,1],[1,1],[0,1],[3,0],[1,-1],[1,0],[0,1],[2,0],[3,1],[2,1],[4,1],[4,-2],[1,0],[2,2],[0,-1],[1,0],[3,1],[2,2],[1,2],[1,5],[0,2],[1,2],[0,1],[6,6],[1,4],[0,2],[1,2],[0,2],[1,1],[0,1],[1,1],[1,2],[1,1],[0,4],[1,2],[1,0],[0,1],[1,0],[0,-1],[1,2],[1,1],[1,-1],[-1,-1],[3,0],[0,1],[2,1],[1,-1],[1,1],[-1,0],[0,1],[2,1],[1,0],[0,1],[1,1],[4,0],[0,-1],[2,0],[2,1],[0,1],[1,1],[1,-1],[1,0],[0,1],[-1,1],[1,2],[1,1],[1,-1],[3,0],[0,1],[-1,1],[2,0],[0,2],[1,0],[1,-1],[1,1],[0,-2],[1,-1],[2,1],[0,2],[1,1],[1,-1],[0,-1],[1,-2],[1,1],[0,2],[1,-1],[0,-2],[2,1],[3,-1],[1,1],[2,1],[2,-2],[0,-4],[2,1],[1,-2],[0,-1],[3,-3],[1,0],[1,-1],[0,-1],[-1,-1],[0,-1],[1,-1],[1,1],[0,3],[2,0],[1,-1],[1,-2],[-1,-2],[-1,-1],[0,-1],[1,-1],[3,0],[2,-2],[0,-1],[-1,-1],[-2,2],[-1,0],[0,-3],[1,-1],[4,-2],[1,1],[1,2],[1,0],[0,-2],[1,0],[0,-7],[-1,-1],[1,-2],[1,0],[0,-3],[4,-4],[0,-3],[2,-1],[0,-2],[-1,0],[0,-3],[1,0],[0,1],[1,0],[1,1],[1,-1],[-1,-1],[0,-3],[4,0],[-1,-4],[0,-1],[-1,-1],[4,-4],[-1,-1],[-1,-2],[-1,-3],[3,-2],[2,-2],[1,-7],[0,-5],[4,-2],[0,-1],[-1,-1],[-1,0],[0,1],[-1,-1],[0,-3],[1,0],[1,1],[0,-2],[-1,0],[1,-2],[1,0],[0,-1],[1,-2],[0,-1],[1,0],[0,-4],[1,0],[1,-1],[0,-2],[1,1],[0,-1],[-1,-1],[0,-2],[1,-1],[0,-1],[-1,0],[-1,1],[-1,0],[0,1],[-1,-3],[0,-1],[1,-1],[1,-2],[1,0],[-1,-2],[0,-1],[2,-2],[0,-3],[2,-2],[0,-2],[1,-1],[0,-1],[1,-2],[2,-1],[1,-1],[0,-1],[2,-3],[1,-2],[1,-1],[3,-1],[0,-1],[-1,-2],[1,-1],[0,-2],[1,0],[0,-2],[2,-2],[-1,0],[0,-1],[1,-1],[1,0],[0,-1],[-1,0],[0,-2],[1,-2],[0,-1],[2,-2],[1,0],[0,-1],[1,-1],[1,1],[0,-1],[1,0],[0,1],[2,0],[0,0],[1,-1],[1,-2],[1,-1],[0,-2],[-1,-2],[0,-4],[2,-2],[0,-2],[1,0],[0,-2],[-1,0],[-1,-1],[0,-4],[1,-1],[0,1],[1,1],[0,-1],[-1,-1],[1,-1],[1,1],[0,-5],[1,0],[0,-2],[1,0],[-1,-1],[0,-1],[-2,0],[1,-1],[0,-1],[1,1],[0,-1],[1,0],[1,1],[0,-2],[1,-1],[0,-1],[1,-1],[1,1],[2,0],[0,-1],[1,0],[0,-3],[1,0],[0,1],[2,0],[-1,1],[1,1],[0,-1],[1,-1],[1,1],[0,-1],[1,-1],[0,-2],[1,-1],[0,-2],[1,-1],[0,-3],[-1,1],[0,-2],[1,0],[0,-2],[2,0],[0,-2],[1,-1],[0,-5],[1,-1],[1,0],[0,-4],[1,-2],[-1,-2],[-1,-1],[0,-1],[3,-1],[2,-1],[1,-1],[0,-1],[-1,1],[-2,-2],[1,-1],[1,0],[2,-2],[1,0],[0,0],[1,-2],[0,-1],[2,-1],[0,-3],[1,0],[1,-1],[2,-1],[1,0],[1,-2],[-1,-1],[2,0],[0,-2],[1,1],[1,-2],[1,0],[0,-2],[3,-1],[1,1],[0,1],[1,-1],[0,-1],[-1,-2],[1,0],[1,-1],[0,-1],[1,0],[0,-1],[2,-2],[0,-1],[2,-1],[-2,-4],[1,-1],[1,0],[0,-5],[1,-1],[0,-1],[1,0],[-1,-2],[0,-1],[-2,-2],[0,-1],[2,-1],[1,0],[0,-4],[-1,0],[1,-2],[1,-3],[-1,-1],[0,-5],[1,0],[0,-1],[1,-3],[2,-1],[0,-2],[1,-1],[0,1],[1,-2],[0,-3],[1,0],[0,-2],[-1,-1],[1,-2],[0,-2],[1,0],[0,-2],[1,-1],[1,-2],[0,-5],[1,-1],[0,1],[1,-1],[0,-1],[1,0],[0,-6],[1,-1],[-1,-1],[1,-1],[-1,-1],[1,-1],[0,-5],[-1,-1],[0,-4],[-1,0],[0,-4],[1,-2],[-1,0],[-1,-3],[0,-1],[1,0],[0,-3],[-1,0],[0,-2],[-1,0],[0,-3],[1,1],[1,-2],[0,-3],[2,0],[0,-3],[1,-1],[-1,-1],[0,-2],[1,0],[0,-4],[-1,-2],[-2,-1],[1,-1],[-1,-1],[0,-1],[1,0],[0,-2],[-2,1],[0,-2],[-2,-3],[0,-3],[-1,-1],[-1,0],[1,-2],[1,0],[0,-2],[-1,0],[0,-1],[1,-1],[1,-2],[-1,-2],[-1,-1],[-1,0],[0,-2],[-1,0],[0,-2],[-1,1],[-1,0],[0,-2],[-1,0],[0,1],[-1,-2],[0,-3],[1,-1],[0,-1],[-1,0],[-1,-2],[-1,0],[-1,-4],[1,-3],[0,0],[1,0],[0,-4],[1,1],[1,-1],[0,-1],[-1,0],[0,-1],[1,0],[-1,-1],[0,-2],[1,0],[-1,-2],[-1,-1],[0,-4],[1,-1],[0,-1],[-1,0],[0,-2],[-1,-2]],[[825,730],[-1,0],[-1,1],[1,1],[0,-1],[1,-1]]]}