{"type":"Topology","objects":{"data":{"geometries":[{"properties":{"index":1466,"nuts_2_code":"ES52","nuts_2_name":"Comunitat Valenciana "},"type":"MultiPolygon","arcs":[[[0]],[[-285,1,-4,2,-118,-117,116,-116,-156,-155,154,-154,-153,-152,-151,-150,-149,-148,147,-147,145,-145,143,-143,-142,141,-141,-10,-9,8,-8]],[[3,-4]],[[4]],[[5]],[[5]],[[-139,-13,-12,-11]]],"id":0},{"properties":{"index":1467,"nuts_2_code":"ES24","nuts_2_name":"Arag\u00f3n"},"type":"Polygon","arcs":[[6,-291,-290,289,-289,-288,287,-287,-286,285,7,-9,8,9,-140,10,11,12,-138,136,-136,-135,134,-134,-43,-42,41,-41,-276,-253],[263],[264]],"id":1},{"properties":{"index":1473,"nuts_2_code":"ES30","nuts_2_name":"Comunidad de Madrid"},"type":"MultiPolygon","arcs":[[[-186,206,-185,-184,183,-183,-182,181,-181,180,-180,-179,178,-178,-177,176,-176,-46,-45,44,-44,-196,-195,194,-194,-193,192,-192,-191,190,-190,-189,188,-188,186],[208]],[[-207,-208]],[[54]]],"id":2},{"properties":{"index":1474,"nuts_2_code":"ES11","nuts_2_name":"Galicia"},"type":"MultiPolygon","arcs":[[[-91,-90,89,-89,-88,87,-87,-86,85,-85,-84,83,-83,-54,-53,52,-52,-51,50,-50,-49,48,-48,13,-21,14]],[[15]],[[16]],[[17]],[[18]],[[19]],[[20,21]],[[22]],[[23]],[[24]],[[25]],[[-30,26]],[[27]],[[28]],[[29,-30]],[[30]],[[31]],[[32]],[[33]],[[34]],[[35]],[[36]],[[37]],[[38]],[[39]]],"id":3},{"properties":{"index":1475,"nuts_2_code":"ES41","nuts_2_name":"Castilla y Le\u00f3n"},"type":"MultiPolygon","arcs":[[[-100,99,-99,97,-97,-96,95,-95,-212,210,-210,-282,-281,280,-280,-279,277,278,-277,40,-42,41,42,-206,204,-204,-203,202,-202,-201,-200,199,-199,-198,197,-197,43,-45,44,45,-175,-174,173,-173,-172,171,-171,-252,46,47,-49,48,49,-51,50,51,-53,52,53,-82,-104,103,-103,-102,101,-101],[54]],[[218]],[[282]],[[283]],[[106]],[[107]]],"id":4},{"properties":{"index":1476,"nuts_2_code":"ES53","nuts_2_name":"Illes Balears"},"type":"MultiPolygon","arcs":[[[55]],[[56]],[[57]],[[58]],[[59]],[[-62,60]],[[61,-62]],[[62]],[[63]],[[64]],[[65]],[[66]],[[67]],[[68]],[[69]],[[70]],[[71]],[[72]],[[73]],[[74]],[[75]],[[76]],[[76]],[[77]],[[78]],[[79]],[[80]]],"id":5},{"properties":{"index":1477,"nuts_2_code":"ES12","nuts_2_name":"Principado de Asturias"},"type":"MultiPolygon","arcs":[[[-105,81,82,-84,83,84,-86,85,86,-88,87,88,-90,89,90,91]],[[92]],[[93]]],"id":6},{"properties":{"index":1478,"nuts_2_code":"ES13","nuts_2_name":"Cantabria"},"type":"MultiPolygon","arcs":[[[-217,215,-215,-214,213,-213,94,-96,95,96,97,98,-100,99,100,-102,101,102,-104,103,104,105],[106],[107]],[[219]],[[108]]],"id":7},{"properties":{"index":1479,"nuts_2_code":"ES61","nuts_2_name":"Andaluc\u00eda"},"type":"MultiPolygon","arcs":[[[-167,166,-166,-165,164,-164,-120,109,-250,248,-248,-247,246,-246,-245,244,-244,-243,-242,241,-241,-240,-170,-169,168,-168]],[[110]],[[111]],[[112]],[[113]],[[114]]],"id":8},{"properties":{"index":1480,"nuts_2_code":"ES62","nuts_2_name":"Regi\u00f3n de Murcia"},"type":"MultiPolygon","arcs":[[[115,-117,116,117,118,119,-163,161,-161,159,-159,-158,157,-157]],[[120]],[[121]],[[122]],[[123]],[[124]],[[125]],[[126]]],"id":9},{"properties":{"index":1481,"nuts_2_code":"ES63","nuts_2_name":"Ciudad de Ceuta"},"type":"MultiPolygon","arcs":[[[127]],[[128]]],"id":10},{"properties":{"index":1482,"nuts_2_code":"ES64","nuts_2_name":"Ciudad de Melilla"},"type":"MultiPolygon","arcs":[[[130,-131]],[[129,130]],[[131]],[[132]]],"id":11},{"properties":{"index":1483,"nuts_2_code":"ES42","nuts_2_name":"Castilla-La Mancha"},"type":"MultiPolygon","arcs":[[[133,-135,134,135,-137,137,138,139,140,-142,141,142,-144,144,-146,146,-148,147,148,149,150,151,152,153,-155,154,155,156,-158,157,158,-160,160,-162,162,163,-165,164,165,-167,166,167,-169,168,169,-240,-239,-238,237,-237,170,-172,171,172,-174,173,174,175,-177,176,177,-179,178,179,-181,180,-182,181,182,-184,183,184,-207,185,-187,187,-189,188,189,-191,190,191,-193,192,193,-195,194,195,196,-198,197,198,-200,199,200,201,-203,202,203,-205,205],[206,207]],[[208]]],"id":12},{"properties":{"index":1484,"nuts_2_code":"ES21","nuts_2_name":"Pa\u00eds Vasco"},"type":"MultiPolygon","arcs":[[[-262,260,-260,-259,258,-258,-257,256,-256,-255,254,-254,-268,-267,266,-266,209,210,211,212,-214,213,214,215,216,217],[218],[219]],[[220]],[[221]]],"id":13},{"properties":{"index":1485,"nuts_2_code":"ES70","nuts_2_name":"Canarias"},"type":"MultiPolygon","arcs":[[[-224,222]],[[223,224]],[[225]],[[226]],[[227]],[[228]],[[229]],[[230]],[[231]],[[232]],[[233]],[[234]],[[235]]],"id":14},{"properties":{"index":1486,"nuts_2_code":"ES43","nuts_2_name":"Extremadura"},"type":"Polygon","arcs":[[236,-238,237,238,239,240,-242,241,242,243,-245,244,245,-247,246,247,248,249,250,251]],"id":15},{"properties":{"index":1487,"nuts_2_code":"ES22","nuts_2_name":"Comunidad Foral de Navarra"},"type":"MultiPolygon","arcs":[[[252,-275,-274,273,-273,-272,271,-271,-270,269,-269,253,-255,254,255,-257,256,257,-259,258,259,260,261,262]],[[263]],[[264]]],"id":16},{"properties":{"index":1488,"nuts_2_code":"ES23","nuts_2_name":"La Rioja"},"type":"Polygon","arcs":[[265,-267,266,267,268,-270,269,270,-272,271,272,-274,273,274,275,276,-279,-278,278,279,-281,280,281],[282],[283]],"id":17},{"properties":{"index":1489,"nuts_2_code":"ES51","nuts_2_name":"Catalu\u00f1a"},"type":"MultiPolygon","arcs":[[[284,-286,285,286,-288,287,288,-290,289,290,291]],[[292]],[[293]],[[294]],[[295]]],"id":18}],"type":"GeometryCollection"}},"bbox":[-18.160019171016827,27.638498635459968,4.3202017420658905,43.789257944543465],"transform":{"scale":[0.022502723636719436,0.016166926235318815],"translate":[-18.160019171016827,27.638498635459968]},"arcs":[[[838,758],[-1,0],[1,1],[0,-1]],[[830,797],[-1,-1],[0,-2],[-2,-2],[0,-1],[-1,-1],[0,-1],[-1,-1],[0,-1],[-1,-1],[0,-1],[-1,0],[0,-2],[-1,0],[0,-1],[-1,0],[0,-1],[-1,-1],[-1,0],[0,-2],[-1,-1],[-1,0],[-2,-2],[-1,-3],[0,-2],[-1,0],[0,-1],[-1,-1],[-1,0],[-2,-1],[0,-2],[-1,-2],[-1,-1],[0,-3],[-3,-3],[-1,0],[0,-1],[-1,-2],[-2,-3],[0,-1],[-1,0],[0,-2],[-1,0],[0,-4],[-1,0],[0,-1],[-1,0],[0,-1],[-1,-1],[0,-2],[-1,-1],[0,-1],[-1,0],[0,-5],[0,0],[0,-1],[-1,0],[0,-1],[1,-2],[1,-4],[2,-6],[1,-1],[0,-2],[-1,-1],[0,-2],[1,-1],[0,-1],[1,-3],[1,-1],[1,-2],[0,-1],[1,-1],[0,-1],[1,0],[0,-1],[4,-4],[2,-1],[3,0],[2,-2],[0,0],[1,0],[0,-1],[2,0],[-1,-1],[0,-1],[1,-1],[1,0]],[[817,687],[0,-1],[-1,0],[-1,-1],[-1,0],[0,-2],[-2,0],[-2,-2],[0,0],[-1,-1],[-3,0],[0,-1],[-1,-2],[-1,0],[0,-1],[1,0],[-1,-1],[0,-1],[-1,-1],[-1,1],[-2,0],[0,-1],[-2,0],[-1,-1],[-1,0],[-1,-1],[-1,0],[-2,-2],[-2,-1],[0,-1],[-1,-1],[0,-3],[-2,0],[-2,-1],[-1,-2],[0,-7],[-3,0],[-1,-1],[0,-1],[-1,0],[0,-2],[-1,-5],[0,-4],[-1,-1],[-1,0],[0,-2],[-1,0],[0,-1],[-1,-1],[0,-2],[-1,0],[0,-2]],[[817,687],[0,1]],[[801,672],[0,0]],[[786,651],[0,0]],[[775,945],[-1,0],[1,-1],[0,-1],[2,0],[0,-1],[1,0],[0,-1],[1,0],[0,-1],[1,0],[0,-2],[2,0],[0,-1],[1,-1],[0,1],[1,1],[0,1],[1,1],[0,-1],[1,0],[0,-1],[4,0],[2,2],[1,0],[0,0],[2,0],[1,-1],[0,-1],[2,0],[0,-1],[1,0],[1,1],[0,-2],[1,0],[1,-1],[0,-2],[2,0],[0,-2],[4,0],[0,1],[1,-1],[2,2],[1,-1],[1,1],[1,0],[1,1],[1,-1],[3,0],[0,-2],[1,-1],[1,0],[0,2],[1,0],[1,1],[1,0],[0,-1],[1,0],[1,-1],[2,0],[0,1],[1,-1],[1,0],[0,1],[1,0],[1,-1],[1,0],[0,1],[1,0],[1,-1],[1,0]],[[815,810],[-1,-1],[-2,0],[0,1],[-2,-1],[0,-1],[-1,-1],[0,1],[-1,0],[0,2],[-2,0],[0,-1],[-1,1],[-1,0],[-2,1],[-1,0],[0,2],[-3,0],[0,-1],[-1,-1],[0,-1],[-1,-1],[1,0],[0,-1],[-1,0],[0,-1],[-1,0],[-2,-2],[0,2],[-2,0],[0,-1],[-1,0],[0,-1],[1,0],[-1,-1],[0,-1],[1,0],[1,-1],[1,0],[1,1],[0,-7],[1,0],[0,-2],[-1,0],[0,-1],[-2,0],[0,-2],[1,0],[0,-2],[1,0],[0,-1],[1,-1],[-2,0],[0,-1],[-1,0],[0,-1],[-1,0],[0,-1],[-1,0],[0,-1],[-1,0],[1,-1],[0,-1],[-2,-1],[-1,-1],[-3,0],[-1,1],[-1,-2],[0,-4],[-1,0],[0,-1],[-2,-2],[0,-1],[1,0],[0,-1],[-2,0],[-1,-1],[0,-1],[-4,0],[0,-2],[-1,0],[0,-1],[-1,0],[0,-1],[-1,0],[0,-1],[-1,-1],[1,0],[0,-2],[2,-2],[-2,0],[-1,-1],[0,-1],[-1,0],[-2,2],[1,0],[0,1],[-1,2],[1,0],[0,1],[-2,2],[-8,0]],[[757,762],[0,1]],[[757,763],[-1,0]],[[755,765],[1,1],[1,0],[2,1],[0,2],[-3,3],[-1,0],[-1,-1],[-2,1],[-1,0],[1,1],[0,1],[-1,0],[-1,1],[0,1],[-1,1]],[[749,777],[1,0],[-1,1],[0,-1]],[[749,777],[-1,-1],[0,-3],[-5,0],[0,1]],[[497,887],[-1,-1],[0,-1],[-2,0],[0,0],[-1,0],[-1,1],[0,1],[-1,0],[-1,1],[-1,-1],[-1,0],[0,-5],[-2,-2],[-1,0],[-1,-1],[-5,0],[-2,-2],[0,1],[-1,0],[0,2],[-3,0],[0,-1],[-1,-1],[-3,0],[0,2],[1,0],[0,1],[-3,0],[-1,1],[-1,0],[0,1],[-1,-1],[-3,0],[-1,-1],[-2,0],[0,-1],[-1,-1],[-1,1],[1,1],[0,3],[-1,0],[0,-1],[-1,0],[0,-2],[-1,-1],[-1,1],[-1,-1],[0,-1],[-1,-1],[-1,0],[-1,-1],[-5,0],[0,4],[-1,0],[-1,1],[0,2],[2,2],[0,1],[1,0],[0,1],[1,1],[2,0],[0,3],[-1,1],[-3,0],[0,-1],[-1,1],[0,5],[-1,-1],[-2,0],[0,-1],[-1,0],[0,-1],[-2,0],[0,-1],[-2,0],[0,-1],[-7,0],[0,-1],[-3,0],[-2,-1],[0,-1],[-1,0],[0,-1],[-2,-2],[-1,0],[-1,-1],[0,-2],[-1,0],[0,-1],[-2,0],[0,-1],[-1,0],[0,-1],[-1,-1],[-1,1],[0,1],[0,0],[0,13],[1,1],[1,0],[0,-1],[1,0],[0,2],[-1,0],[0,1],[1,0],[0,2],[1,0],[1,1],[0,1],[2,0],[0,1],[1,0],[0,1],[1,0],[0,1],[1,0],[0,1],[2,0],[0,4],[-1,0],[0,-2],[-1,0],[0,-2],[-2,0],[0,0],[-1,0],[0,-1],[-1,0],[-1,-1],[0,1],[-1,-1],[-3,0],[0,3],[1,0],[0,-1],[1,-1],[0,4],[2,0],[1,1],[0,1],[1,0],[0,1],[1,1],[1,0],[1,1],[0,1],[-1,-1],[0,2],[-1,-1],[0,-1],[-1,0],[-1,-1],[-1,0],[0,0],[-2,0],[0,-1],[-1,0],[0,1],[-1,0],[0,1],[-1,0],[1,1],[-1,1],[0,1],[-1,0],[-1,-1],[0,2],[2,0],[0,1],[1,0],[0,-3],[1,1],[1,0],[0,2],[0,0],[0,3],[-1,1],[1,0],[0,1],[1,0],[0,1],[1,0],[0,1]],[[417,927],[2,2],[0,1],[-1,-1],[0,0],[-1,0],[0,-1],[-2,0],[0,2],[-1,1],[0,-2],[-1,-1],[1,0],[0,-1],[-1,0],[0,-1],[-1,0],[0,1],[1,0],[-1,1],[-2,-2],[0,-1],[1,0],[-1,-1],[-1,1],[0,-1],[-1,0],[0,-1],[-1,0],[1,-1],[-2,-2],[0,1],[-1,-1],[0,2],[1,0],[-2,2],[0,-1],[-1,1],[1,0],[0,3],[1,0],[0,3],[1,0],[0,2],[1,0],[0,2],[1,0],[2,2],[0,1],[2,0],[0,2],[0,0],[-1,0],[0,-1],[-1,0],[-1,-1],[-3,0],[0,1],[-1,-1],[-1,0],[0,-1],[1,0],[-1,-1],[0,-1],[-1,0],[0,1],[-1,0],[0,1],[-1,0],[0,1],[-1,1],[1,0],[1,1],[0,2],[-1,0],[-1,1],[1,1],[0,2],[-1,0],[0,1],[-1,1],[0,-2],[-1,0],[0,1],[-1,0],[0,0],[-1,0],[-1,-1],[0,0],[-1,0],[0,2],[1,0],[0,2],[1,1],[-1,1],[-1,2],[0,0],[1,0],[1,2],[0,1],[1,0],[0,1],[1,0],[0,-1],[1,0],[0,1],[1,0],[0,2],[-1,0],[0,-1],[-1,0],[0,2],[1,0],[0,2],[4,0],[0,-1],[1,0],[0,1],[1,0],[0,1],[1,0],[0,1],[1,0],[0,0],[3,0],[0,1],[-1,0],[0,1],[-1,0],[0,2],[3,0],[0,2],[3,0],[0,2],[1,-1],[0,-1],[1,0],[0,-1],[2,0],[0,-1],[3,0],[2,1],[1,1],[2,0],[1,-1],[1,1],[1,0],[0,2],[2,0],[0,1],[1,0],[0,1],[1,0],[0,-1],[1,0],[-1,1],[1,0],[0,-3],[1,0],[1,1],[0,3],[2,0],[0,-1],[2,0],[0,-2],[1,0],[0,-1],[1,0],[0,4],[1,1],[0,0],[0,1],[-1,-1],[0,1],[-1,0],[0,-1],[-1,0],[0,1],[-2,0],[0,1],[1,1],[1,-1],[0,1],[2,0],[2,1],[0,1],[1,1],[-1,0],[0,-1],[-1,0],[0,-1],[-2,0],[-1,1],[0,-2],[-4,0],[1,1],[0,3],[1,0],[0,1],[-1,0],[0,1],[3,0],[2,1],[0,1],[1,1],[0,1],[1,-1],[1,0],[0,1],[1,1],[1,0],[0,1],[1,0],[0,-1],[1,0],[0,1],[-1,0],[0,1],[1,0],[0,2],[2,0],[2,1],[1,1],[1,0],[0,1],[1,1],[0,-1],[1,1],[1,-1],[-1,-1],[1,-1],[0,-1],[-1,0],[0,-1],[-1,0],[0,-1],[0,0],[1,-1],[1,1],[0,2],[1,-1],[1,0],[-1,1],[1,0],[0,1],[1,1],[2,0],[2,2],[0,1],[1,0],[0,-2],[-1,0],[0,-2],[1,1],[1,0],[0,1],[1,0],[0,-2],[1,-1],[0,-2],[1,0],[0,2],[1,0],[0,1],[1,0],[1,1],[0,-1],[2,0],[0,-1],[1,0],[0,-1],[1,1],[0,-1],[1,0],[0,-1],[2,0],[0,-1],[1,-1],[0,-1],[1,0],[0,-1],[1,-1],[2,-1],[0,-1],[0,0],[-1,-1],[1,0],[0,1],[4,0],[2,-1],[0,1],[1,0],[1,-1],[0,1],[1,0],[1,-1]],[[474,995],[0,0]],[[468,997],[0,0]],[[459,994],[0,0]],[[441,980],[0,0]],[[420,914],[0,0]],[[417,927],[0,-1]],[[417,926],[-1,0],[1,1]],[[415,972],[-1,0],[0,1],[1,0],[0,-1]],[[415,919],[0,0]],[[414,918],[0,0]],[[414,917],[0,0]],[[413,898],[1,-1],[-1,0]],[[413,917],[0,0]],[[413,924],[0,-3],[0,0],[0,1],[0,0],[0,1],[-1,0],[0,1],[1,0]],[[413,898],[0,-1]],[[412,901],[0,-1],[-1,0],[0,1],[1,0]],[[412,922],[0,0]],[[412,902],[-1,-1],[0,2],[1,0],[0,-1],[0,0]],[[411,922],[0,0]],[[410,910],[-1,1],[1,0],[0,-1]],[[410,910],[0,0]],[[409,936],[0,0]],[[407,917],[-1,0],[0,1],[1,0],[0,-1]],[[407,919],[0,0]],[[405,920],[0,0]],[[725,886],[-1,-3],[1,-1],[0,-2],[1,0],[0,-3],[-1,-1],[0,-1],[1,0],[0,-1],[1,-1],[0,-1],[1,0],[0,-2],[-1,0],[-1,-1],[1,0],[0,-2],[-3,0],[0,-1],[-1,0],[0,-1],[-1,0],[0,-2],[-1,1],[-3,0],[0,-2],[1,0],[0,-1],[1,0],[-1,-1]],[[720,860],[-1,0]],[[719,860],[0,-4],[1,-1],[0,-2],[1,0],[0,-1],[-1,0],[0,-1],[-2,0],[0,-1],[-1,0],[-1,1],[1,1],[0,1],[-1,0],[-2,1],[-1,-1],[0,-4],[-1,0],[-1,-1],[0,-3],[-1,0],[0,-1],[1,0],[0,-4],[1,0],[0,-2],[1,-1],[2,0],[1,-1]],[[650,837],[-1,0],[-1,-1],[-2,0],[0,-2],[-1,0],[0,-1],[-1,-1],[-1,0],[0,-1],[-1,0],[0,-1],[-1,0],[-1,-1],[0,-2],[-1,0],[-1,-1],[-1,0],[0,-1],[-3,0],[0,-1],[-1,-1],[0,-1],[-1,0],[0,-2]],[[631,820],[1,0]],[[632,820],[0,-2],[-1,0],[0,-3],[-1,-1],[0,-1],[-3,0],[0,1],[-1,0],[0,-1],[-1,-1],[0,-1],[-1,0],[0,-2],[-1,0],[0,-1],[-1,-1],[0,-4],[-2,-1],[-2,0],[-1,1],[0,1],[-1,-1],[0,-1],[1,0],[-1,-2],[0,-1],[-1,-1],[0,-6],[-1,0],[0,-1],[1,0],[0,-1],[-4,0],[-1,-2],[0,-2],[-1,0],[0,-2],[-2,0],[-1,2],[-1,0],[0,-2],[1,-1],[-1,-1],[0,-1],[-1,0],[0,-3]],[[502,781],[0,2],[2,2],[1,0],[0,2],[1,0],[-1,1],[-1,0],[0,1],[-1,1],[0,4],[1,0],[0,2],[1,0],[0,3],[-1,0],[-1,1],[0,1],[1,1],[0,2],[1,0],[0,3],[-1,1],[0,2],[-1,1],[1,1],[0,5],[1,0],[0,1],[-2,2],[0,2],[-1,1],[0,1],[-1,0],[0,1],[-1,1],[0,1],[-1,0],[0,1],[1,1],[1,-1],[3,0],[0,1],[2,2],[0,1],[1,1],[-1,1],[0,1],[1,0],[0,1],[1,1],[1,0],[0,1],[1,1],[0,1],[2,2],[2,0],[1,-1],[2,2],[2,0],[0,2],[2,0],[0,1],[1,1],[-1,0],[1,1],[1,0],[1,1],[-1,0],[0,1],[1,1],[0,-1],[2,0],[0,2],[1,0],[0,3],[1,0],[0,2],[1,0],[0,1],[2,2],[0,1],[1,1],[-2,2],[0,1],[-2,2],[-1,0],[0,1],[-3,0],[-2,1],[-2,0],[0,-1],[-1,0],[0,-1],[-1,0],[-2,2],[0,3],[-1,0],[0,1],[1,0],[0,4],[1,0],[0,3],[-1,1],[-1,0],[0,1],[1,1],[0,2],[-1,0],[0,1],[-1,0],[0,-1],[-2,0],[-2,-1],[-2,0],[-1,1],[-1,2],[0,1],[-2,0],[0,-3],[-6,0],[0,1],[-1,1]],[[497,887],[-1,1],[1,0],[1,2],[-1,0],[0,2],[-2,0],[-1,1],[1,0],[0,1],[1,0],[0,2],[2,0],[0,1],[1,1],[0,1],[-1,0],[2,1],[1,1],[0,1],[4,0]],[[505,901],[0,1]],[[505,902],[0,2],[1,0],[0,1],[1,1],[0,1],[1,1],[0,1],[-1,0],[1,1],[0,1],[-2,0],[0,1],[-2,0],[0,1],[-1,0],[0,1],[1,0],[0,5],[-1,0],[-1,-1],[0,1],[-1,0],[-1,1],[-3,0],[0,-1],[-1,0]],[[496,920],[0,-1]],[[496,919],[-1,0],[-1,1],[-1,0],[0,3],[1,1],[0,4],[1,0]],[[496,928],[-1,0]],[[495,928],[0,2],[-1,1],[1,2],[2,0],[0,2],[1,0],[0,-1],[1,0],[1,1],[0,1],[1,0],[0,1],[1,0],[0,1],[1,1],[0,1],[-1,0],[0,3],[1,0],[0,-1],[1,0],[0,1],[-1,1],[1,1]],[[615,805],[3,0],[0,1],[-1,0],[-1,1],[-1,-1],[0,-1]],[[989,768],[0,-1],[1,1],[0,0],[0,-2],[1,1],[0,2],[1,0],[0,-3],[1,0],[0,0],[1,0],[0,-1],[2,0],[0,-3],[1,-1],[0,-1],[1,-1],[0,-1],[1,-1],[-1,0],[0,1],[-1,0],[0,0],[1,-1],[0,-4],[-3,0],[0,1],[-2,0],[-1,2],[-3,1],[0,1],[-1,0],[-2,2],[-3,0],[0,1],[-1,0],[0,-1],[-5,0],[0,4],[-1,0],[0,3],[1,1],[9,0],[0,1],[1,-1],[1,0],[1,1],[0,-1]],[[998,752],[0,0]],[[997,762],[0,0]],[[994,766],[0,0]],[[988,770],[0,0]],[[941,722],[-1,0],[0,2],[-1,1],[-8,0],[0,1],[-1,1],[-1,0],[0,4],[-1,0],[0,2],[1,0],[0,2],[-1,0],[0,1],[-1,0],[-2,2],[-1,0],[0,-1],[-2,0],[0,-1],[-1,0],[-1,-1],[0,-2],[-1,-1],[0,-1],[-1,0],[0,1],[-1,0],[0,1],[-1,1],[1,0],[0,1],[-1,1],[-1,-1],[0,1],[-1,0],[-1,-1],[0,1],[0,0],[0,1],[-2,2],[2,2],[1,0],[1,1],[0,1],[2,0],[0,1],[1,0],[0,1],[1,1],[2,0],[1,1],[0,1],[1,0],[0,1],[2,2],[1,0],[0,1],[1,0],[0,1],[1,0],[0,1],[2,0],[0,1],[1,1],[3,0],[0,1],[1,0],[1,1],[1,0],[0,1],[1,0],[0,1],[1,-1],[1,0],[0,1],[2,1],[0,-1],[2,0],[1,1],[0,-1],[1,0],[0,1],[1,1],[3,0],[-1,-1],[-1,0],[-1,-1],[-1,0],[0,-1],[-2,0],[0,-2],[1,-1],[2,0],[0,1],[2,0],[0,-2],[-1,0],[-1,-1],[-1,1],[0,-3],[3,-3],[2,-1],[1,0],[1,1],[1,0],[0,1],[1,0],[0,1],[1,1],[1,-1],[0,-1],[2,0],[0,-1],[2,0],[0,-1],[-1,0],[0,-1],[1,0],[0,-2],[-1,0],[1,-1],[0,-1],[-1,0],[0,-1],[-2,0],[0,-1],[-1,-1],[1,-1],[0,-1],[-1,0],[0,-1],[-1,-1],[-1,0],[0,-1],[-2,-2],[0,-4],[-1,-1],[0,0],[-1,-2],[0,-1],[-1,0],[-1,-1],[0,-1],[-2,0],[-1,-1],[-1,0],[0,-1],[-1,-2],[-1,0],[-1,1],[0,1],[-1,0]],[[941,722],[0,-1]],[[939,713],[0,0]],[[939,715],[0,0]],[[939,712],[-1,-1],[-1,0],[0,1],[1,0],[0,1],[1,0],[0,-1]],[[939,714],[-1,0],[1,1],[0,-1]],[[937,711],[0,0]],[[910,739],[1,1],[0,-1],[-1,0]],[[880,705],[0,0]],[[875,710],[0,-1],[3,0],[0,-4],[1,0],[0,-1],[-1,1],[0,-1],[-1,0],[0,-2],[-2,0],[0,-3],[-1,0],[-2,-2],[0,0],[-2,0],[0,-1],[-1,-1],[1,0],[-1,-2],[0,0],[-1,0],[0,1],[-1,0],[0,1],[-1,0],[0,-1],[-1,1],[0,0],[-2,0],[0,-1],[-1,0],[0,1],[-1,0],[0,3],[1,0],[0,1],[-1,1],[0,1],[4,0],[0,1],[-1,0],[0,1],[1,0],[0,1],[-1,0],[0,1],[1,0],[1,1],[1,0],[0,1],[1,0],[1,1],[0,-1],[1,1],[1,0],[1,1],[1,0],[0,0],[1,0],[0,1],[1,0]],[[872,686],[1,-1],[0,-1],[1,-1],[2,0],[1,1],[0,-3],[-2,0],[-2,2],[-2,0],[0,-1],[-1,0],[-1,-1],[0,1],[-1,1],[0,1],[1,0],[-1,1],[1,1],[1,0],[0,1],[1,0],[0,-1],[1,0]],[[873,690],[-1,0],[1,1],[0,-1]],[[872,697],[0,0]],[[871,688],[0,0]],[[870,690],[1,-1],[-1,0],[0,1]],[[870,692],[0,0]],[[861,701],[0,0]],[[861,695],[0,0]],[[861,695],[-1,-1],[0,1],[1,0]],[[860,700],[0,0]],[[859,701],[0,0]],[[592,961],[0,1],[-1,0],[0,2],[-1,1],[-1,0],[-1,-1],[-1,0],[0,-1],[-1,0],[0,-1],[-1,0],[0,-1],[-1,1],[-1,0],[-1,-1],[-1,0],[0,-3],[-1,-1],[1,0],[-1,-1],[-1,1],[-2,0],[0,-1],[-2,0],[0,-1],[-1,0],[0,1],[-1,0],[0,-1],[-3,0],[0,1],[-2,0],[0,-1],[-1,-2],[-1,0],[-1,1],[-1,-1],[0,1],[-1,-1],[0,-1],[-2,0],[0,-1],[-1,1],[-3,0],[-1,1],[-1,0],[-1,1],[-2,-1],[0,-2],[-1,0],[0,-3],[-4,0],[-1,1],[-1,0],[0,1],[-1,0],[-1,1],[-1,0],[0,3],[-5,0],[0,1],[-1,-1],[0,-2],[-3,0],[0,1],[-2,0],[-1,-2],[-1,0],[-1,1],[-2,0],[0,1],[-1,0],[-1,1],[0,-1],[-1,0],[0,-2],[-1,0],[0,-1],[-1,0],[-1,-1],[-1,1],[0,-2],[2,0],[0,-2],[-2,0],[0,-1],[-1,1],[-1,0],[0,-1],[-5,0],[0,1],[-2,-1],[-2,0],[0,-1],[-1,0],[0,-1],[-1,0],[0,1],[-2,1]],[[504,945],[-1,0],[0,3],[-2,2],[0,-1],[-3,3],[0,-2],[-1,0],[0,1],[-1,0],[0,1],[1,0]],[[497,953],[0,-1]],[[497,952],[1,1],[0,1]],[[497,954],[1,0]],[[498,954],[0,1],[1,0]],[[499,956],[0,-1]],[[499,955],[1,0],[0,1],[2,0],[2,2],[0,1],[-1,1],[0,1],[-1,0],[0,1],[-1,-1],[0,-1],[-1,0],[0,-1],[-1,0],[0,-1],[-1,1],[-1,0],[0,4],[-1,0],[0,1],[-1,0],[0,-1],[-2,2],[0,4],[-2,0],[0,1],[-1,1],[0,3],[-1,0]],[[489,973],[0,1]],[[489,974],[-1,0],[0,3],[2,0],[0,-1],[1,1],[1,0],[0,2],[1,0],[1,1],[0,3],[1,1]],[[495,984],[0,1],[1,-1],[2,1],[0,1],[1,0],[0,0],[1,0],[0,-1],[11,0],[2,1],[0,-1],[1,0],[0,0],[1,0],[1,-1],[3,0],[0,1],[2,0],[0,-1],[1,0],[0,1],[2,0],[0,-1],[1,0],[0,1],[3,0],[0,1],[1,0],[0,1],[1,0],[0,-1],[2,0],[0,-1],[6,0],[0,1],[5,0],[0,1],[1,0],[0,2],[2,0],[1,1],[0,1],[1,-1],[1,0],[0,-1],[1,0],[0,-1],[1,0],[0,-2],[1,0],[1,-1],[0,1],[1,0],[0,-2],[3,0],[0,0],[9,0],[1,1],[0,-1],[1,-1],[0,0],[4,0],[3,-3],[0,-1],[1,1],[5,0],[0,-1],[7,0],[1,-1],[3,0],[0,-1],[3,0],[1,-1],[3,0],[0,-1],[5,0],[0,0],[1,0],[1,-1]],[[593,977],[0,0]],[[539,987],[0,0]],[[655,958],[-1,0],[-1,1],[-1,0],[0,-1],[-1,1],[-1,0],[-2,1],[-1,0]],[[647,959],[0,1]],[[647,960],[-1,1],[-2,0],[0,-1],[-1,-1],[0,-1],[-1,0],[0,-1],[-2,0],[0,-2],[-2,0],[0,1],[-1,-1],[-1,0],[0,-1],[1,0],[-1,-1],[-2,0],[0,-1],[-1,-1],[-1,0],[-1,-1],[0,-1],[-1,-1],[0,-3],[2,0],[0,-1],[1,0],[0,1],[1,1],[0,1],[2,0],[1,-1],[0,-1],[-1,0],[0,-1],[-2,0],[0,-1],[-1,-1],[1,-1],[1,0],[0,2],[1,0],[1,-1],[0,-4],[-1,-1],[-1,0],[0,1],[-1,0],[0,-1],[-1,0],[0,-1],[-1,0],[0,-1],[-2,0],[0,1],[-1,0],[0,2]],[[629,938],[0,2],[-1,-1],[1,-1]],[[629,938],[-1,0],[0,-1],[-1,0],[0,-1],[-1,-1],[-1,1],[0,1],[-3,0],[-1,2]],[[622,939],[-1,0]],[[621,939],[1,1],[1,0],[1,1],[-1,1],[-1,0],[0,-1],[-3,0],[0,6],[-1,1],[-4,0],[-1,1],[0,2],[-1,0],[0,1],[-1,1],[-1,0],[-1,1],[-1,-1],[-2,0],[-2,-2],[0,1],[-2,0],[-1,-1],[-1,0],[-1,1],[-1,0],[-1,-1],[-1,0],[0,1],[1,1],[-1,1],[-1,0],[0,1],[-1,0],[0,1],[-2,0],[0,2]],[[591,958],[1,0]],[[592,958],[0,3]],[[591,961],[1,0]],[[592,961],[1,0],[1,1],[3,0],[0,4],[1,0],[0,1],[3,0],[1,1],[0,1],[1,-1],[2,0],[0,-1],[1,1],[0,3],[-1,0],[0,1],[1,0],[0,1],[1,1],[-1,0]],[[606,974],[1,1],[1,0],[0,-1],[1,0],[1,1],[1,0],[1,-1],[1,0],[0,1],[1,0],[0,-1],[3,0],[1,1],[4,0],[1,1],[2,1],[2,0],[0,0],[1,0],[0,1],[1,0],[0,-1],[1,1],[0,-1],[1,1],[0,1],[1,0],[1,1],[4,0],[1,1],[1,-1],[0,-1],[-1,0],[-1,-1],[0,-1],[1,-1],[-1,0],[1,-1],[0,1],[1,0],[0,2],[1,0],[0,-1],[0,0],[0,1],[1,1],[1,0],[0,1],[1,0],[2,1],[1,0],[1,1],[2,0],[1,-1],[1,0],[0,-1],[1,-1],[2,0],[1,-1],[-1,-1],[-1,0],[0,0],[-1,0],[0,0],[1,0],[0,-1],[1,1],[0,-1],[5,0],[0,-1],[5,0],[0,-1],[1,-1],[1,0],[0,-1],[1,0]],[[633,943],[0,0]],[[625,938],[0,1],[-1,1],[0,-1],[1,-1],[0,0],[0,0]],[[641,979],[0,0]],[[735,602],[-1,0],[0,-1],[-1,0],[-2,-2],[0,-2],[-3,-3],[0,-1],[-1,0],[-1,-2],[0,-4],[-1,-1],[0,-3],[-1,-1],[0,-2],[-1,0],[0,-4],[-1,-1],[-1,0],[-1,-1],[0,-1],[-1,0],[0,-1],[-1,0],[0,-3],[-1,0],[-1,-1],[0,-1],[-1,0],[0,-2],[-1,-1],[-1,0],[0,-1],[-1,-1],[-3,0],[0,1],[-2,3],[-3,3],[-2,0],[-2,-1],[-1,-1],[0,1],[-1,0],[-1,1],[-1,-1],[-3,0],[0,-1],[-1,-2],[-1,0],[0,-3],[-2,-1],[0,-1],[-1,0],[-1,-1],[-1,1],[-1,-1],[-1,0],[-1,1],[0,1],[-2,0],[0,-1],[-1,0],[-1,1],[0,1],[-2,2],[-1,-1],[-6,0],[-2,1],[-1,-1],[-1,0],[-1,1],[-1,-1],[0,1],[-2,0],[0,-1],[-3,0],[-2,-2],[-2,0],[0,-1],[-3,0],[0,1],[-1,0],[0,1],[-1,0],[-1,-1],[-2,2],[-3,0],[0,-1],[-1,0],[-1,1],[-1,-1],[-1,1],[0,-1],[-1,1],[-1,0],[-1,1],[-2,0],[0,-1],[-2,0],[-1,-1],[-1,0],[-2,1],[-4,0],[0,-1],[-1,0],[-3,-1],[-7,0],[-1,1],[-2,0],[0,0],[-1,-1],[0,-1],[-1,-2],[-2,-2],[0,-2],[-1,0],[0,-1],[-3,0],[-1,-1],[0,-2],[-2,-2],[-2,0],[-1,-1],[-1,0],[-4,1],[-1,1],[-2,-1],[-2,0],[0,-1],[-1,0],[-1,-1],[-2,0],[0,-1],[-2,0],[-1,-1],[-1,0],[-1,-1],[-1,0],[-1,-2],[-1,-1],[-1,-3],[0,-1],[-1,0],[0,-1],[-1,-1],[0,-2],[-1,0],[0,-1],[-1,-2],[0,-2],[-1,0],[-1,1],[-2,0],[-1,-1],[0,-2],[0,0],[0,-1],[1,0],[-1,-1],[1,-1],[-2,-2],[-1,1],[0,-1],[-1,0],[-1,-1],[-2,-1],[-1,0],[-1,1],[0,1],[-1,0],[-1,1],[-2,0],[-2,1],[-1,1],[0,-1],[-1,0],[-1,1],[0,2],[-1,0],[-1,2],[-2,2],[-1,0],[-1,-1],[-1,0],[-2,1],[0,-1],[-2,4],[0,1],[-1,1],[0,1],[-1,0],[-1,1],[-1,2],[0,1],[-2,2],[0,1],[-1,1],[0,2],[-1,0],[0,1],[2,0],[0,1],[1,0],[0,2],[1,0],[-1,1],[0,-1],[-2,0],[0,-1],[-1,1],[0,1],[1,0],[0,3],[-2,0],[0,2],[-2,0],[0,1],[-1,0],[-1,-1],[-1,1],[0,2],[-1,0],[0,2],[-1,1],[0,2],[1,0],[0,1],[1,0],[2,2],[0,1],[-1,-1],[-1,1],[-1,2],[0,1],[-1,3],[-1,1],[-2,3],[-4,3],[-6,4],[0,1],[-3,2],[-2,0],[-2,2],[-3,0],[0,1],[-3,2],[-9,0],[-3,-1],[-2,0],[0,-1],[-3,0],[0,3],[-1,1],[0,3],[-1,2],[0,2],[1,1],[-1,1],[0,1],[-1,0],[1,1],[0,2],[-1,1],[0,2],[-1,0],[0,1],[-1,0],[0,4],[1,0],[0,1],[1,1],[0,2],[1,0],[0,4],[1,1],[0,2],[1,0],[4,4],[0,1],[1,0],[0,4],[1,0],[0,1],[1,0],[0,3],[-1,1],[2,0],[1,1],[3,0],[0,2],[1,0],[1,1],[0,-1],[1,0],[0,-1],[3,0],[0,5],[1,0],[0,2],[1,0],[0,2],[-1,0],[1,1],[0,1],[1,0],[0,1]],[[672,513],[0,0]],[[558,517],[0,0]],[[529,548],[0,-1],[-2,3],[0,0],[1,0],[0,-1],[1,-1]],[[528,550],[0,0]],[[519,563],[0,0]],[[761,681],[1,0],[0,-7],[-1,-1],[1,-1],[-1,-2],[-2,-2]],[[758,668],[1,0]],[[759,668],[0,-6],[2,0],[2,-1],[0,-1],[1,-1],[0,-3],[-1,-3],[-1,-1],[0,-1],[-1,-1],[0,-3],[1,-1],[0,-1],[1,-1],[0,-1],[1,-1],[0,-1],[1,-2],[1,-1],[0,-1],[3,-3],[0,-1],[1,0],[0,-1],[2,0],[0,-1],[1,0]],[[773,631],[0,-2],[1,-1],[-1,0],[0,2],[-1,0],[0,-1],[-1,-1],[0,-2],[-1,0],[-1,-1],[0,-2],[1,-1],[0,-1],[2,-2],[1,0],[1,-1],[1,0],[0,2],[-1,0],[0,2],[1,-1],[0,-1],[1,-1],[0,-1],[-2,-2],[-2,0],[-1,-1],[-3,0],[0,-1],[-1,0],[-1,-1],[-1,1],[0,0],[-1,1],[0,1],[-1,0],[0,-1],[-4,0],[-1,-1],[-1,0],[0,-1],[1,-1],[-1,0],[-2,1],[0,1],[-1,0],[-1,1],[-1,0],[-1,-1],[0,0],[-3,0],[-2,-2],[-1,0],[0,-2],[-2,0],[-1,-1],[0,-1],[-1,-1],[0,-2],[-1,1],[-1,-1],[-1,0],[0,-1],[-2,0],[-1,-2]],[[735,602],[-2,2],[-2,1],[-2,2],[-2,0],[0,-1],[-2,1],[0,1],[-1,1],[-1,2],[-1,1],[0,1],[-2,2],[0,1],[-1,1],[0,2],[-1,0],[0,12],[1,1],[0,1],[-3,0],[0,1],[-2,-1],[-1,1],[0,1],[-1,0],[-1,-1],[-1,0],[0,1],[-1,1],[-2,1],[0,1],[-1,0],[0,1],[-1,1],[0,1],[-1,0],[0,1],[-1,0],[0,1]],[[776,624],[0,0]],[[775,625],[0,0]],[[774,625],[0,0]],[[774,620],[0,0]],[[774,627],[0,-1],[-1,1],[0,1],[1,-1]],[[773,622],[-1,0],[1,1],[0,-1]],[[772,622],[-1,0],[1,1],[0,-1]],[[569,511],[1,0],[1,-1],[0,1],[1,0],[-1,-1],[-1,0],[0,-1],[-1,0],[-1,1],[0,2],[1,0],[0,-1]],[[566,512],[0,0]],[[699,466],[-1,0],[1,1]],[[699,467],[0,-1]],[[677,473],[0,0]],[[677,472],[-1,0],[-1,1],[0,2],[1,0],[0,-1],[1,-1],[-1,0],[1,-1]],[[716,836],[3,0],[0,1],[1,0],[0,-1],[1,0],[0,-1],[2,0],[0,-1],[1,0],[0,-1],[2,-1],[1,0],[0,-1],[1,0],[1,-1],[0,-1],[3,-3],[1,0],[0,-1],[1,0],[0,-2],[1,0],[1,-1],[-1,-1],[0,-2],[1,-1],[0,-1],[1,-1],[1,0],[0,-1],[1,-1],[-1,-2],[1,0],[-1,-1],[0,-3],[1,-1],[0,-2],[-1,0],[0,-2],[-1,0],[1,-1],[0,-1],[-1,-1],[-1,0]],[[736,799],[0,1]],[[736,800],[-2,0],[0,1],[-2,0],[0,-3],[-1,0],[1,-1],[0,-2],[-1,0],[0,-1],[-1,0],[-1,-1],[0,-1],[-1,-1],[0,-1],[-1,0],[0,-1],[1,0],[0,-1],[1,0],[1,-2],[1,0],[1,-2]],[[732,784],[-1,0],[-1,-1],[0,-1],[1,0],[0,1],[1,1]],[[732,784],[1,-1],[0,-1],[1,0],[0,-1],[1,-1],[1,0],[0,-1],[3,-3],[0,1],[2,0],[0,-1],[1,0],[1,1],[0,-3]],[[743,774],[-1,-1],[2,-2],[0,-2],[1,0],[0,-2],[1,0],[0,-2],[1,0],[0,1],[1,0],[1,-1],[2,0],[0,-1],[1,0],[1,1],[2,0]],[[755,765],[1,-1],[0,-1]],[[756,763],[0,-1],[-2,0],[-1,-1],[0,-1],[1,0],[0,-5],[-1,0],[0,-2],[-1,-2],[-1,-1],[-1,-2],[1,0],[0,-2],[-1,-1],[0,-1],[-2,0],[0,1],[-3,0],[0,-1],[-2,-2],[0,-2],[-1,-1],[0,-1],[-2,0],[0,-1]],[[739,737],[1,0]],[[740,737],[0,-6],[-1,0],[0,-1]],[[739,730],[0,0]],[[739,730],[0,-1],[1,0]],[[740,729],[0,0]],[[740,729],[1,0],[0,-1],[1,0],[0,-1]],[[741,727],[1,0]],[[742,727],[0,-1],[1,0]],[[743,726],[-1,-1],[1,0]],[[743,725],[0,1]],[[743,726],[1,0]],[[744,726],[-1,-1]],[[743,725],[1,0],[0,1]],[[745,726],[-1,0]],[[744,726],[1,-1],[1,0],[0,-1],[1,0],[1,-1],[0,1],[1,0],[0,-1],[3,0],[1,-1],[0,1],[1,0],[0,-1],[1,0],[0,-6],[-1,0],[0,-3],[-1,0],[0,-1],[-1,0],[0,-2],[-1,-1],[0,-4],[1,-1],[1,0],[2,-4],[1,-1],[0,-1],[2,0],[1,1],[3,0],[0,1],[1,0],[0,-1],[1,0],[0,-1],[1,0],[0,-1],[1,-1],[0,-2],[-1,0],[0,-1],[1,0],[0,-4],[-2,0],[1,-2],[0,-1],[1,-1],[0,-2],[-1,0],[0,-1],[-1,0],[0,-1],[-1,0],[0,1],[-1,0],[-1,-1]],[[761,681],[0,1],[-2,1],[-1,1],[0,1],[-1,0],[0,2],[-2,0],[-1,1],[-3,-1],[0,-1],[-3,-3],[-1,0],[0,1],[-2,0],[-1,-1],[-1,-2],[0,-2],[-1,-2],[-1,-1],[0,-1],[-1,-1],[1,-1],[0,-9],[-2,-2],[-1,0],[0,-1],[-2,-1],[-3,0],[0,1],[-1,0],[0,2],[-1,1]],[[731,663],[0,1]],[[731,664],[-3,0]],[[728,664],[0,0]],[[728,664],[-1,0],[0,-1]],[[727,663],[0,0]],[[727,663],[-2,-2],[-1,0],[0,-1],[-1,0],[-1,-1],[-3,-1],[-1,1],[-1,0],[-1,1],[-1,-1],[0,-1],[-2,-2],[-2,-1],[-2,-2],[-1,0],[0,-2],[-1,-1],[0,-1],[-1,-1],[-1,-2],[-1,0],[0,-1],[-1,0],[0,-2]],[[703,643],[-1,-1],[-1,0],[0,1],[-2,0],[0,1],[-2,0],[-1,1],[-1,0],[-1,1],[1,2],[0,1],[1,0],[1,1],[0,2],[1,0],[0,3],[1,0],[-1,1],[0,1],[1,0],[0,1],[-1,1],[-1,0],[0,4],[-1,1],[1,1],[0,1],[-4,0],[0,1],[-1,0],[1,1],[0,3],[-2,2],[-1,-1],[-3,0],[-1,1],[-1,0],[-1,1],[0,-2],[-1,0]],[[683,673],[0,-1]],[[683,672],[-1,0],[-1,-1]],[[681,670],[0,1]],[[681,671],[-1,0],[0,-1],[-1,0],[0,-1],[-1,1],[-3,0],[0,-1],[-1,0],[0,-3],[-1,1],[0,1],[-2,2],[-2,-1],[-1,0],[0,-1],[-1,0],[-1,1],[-5,0],[0,1],[-1,0],[0,1],[-1,0],[-2,-1],[0,-2],[-1,0],[0,-1],[-1,0],[0,-1],[-5,0],[0,2],[-2,1],[0,-3],[-1,0],[-1,-1],[-1,1],[-2,0],[-1,1],[-5,0],[0,-2],[-1,0],[0,-1],[-11,0],[-1,1],[0,-1],[-1,1],[-4,0],[-1,1],[-1,0],[0,-4],[-1,0],[0,1],[-1,0],[-1,1],[-2,1],[-2,0],[0,1],[-1,0],[0,1],[-1,0],[0,1],[-1,0],[0,2],[-2,0]],[[605,671],[0,-1]],[[605,670],[-1,1],[-2,0],[0,2],[-1,0],[-1,1],[0,1],[-2,0],[0,1],[-1,0],[0,1],[-2,0],[-1,1],[-1,0],[-1,1],[-1,0],[0,4],[-5,0],[0,1],[-1,0],[-1,1],[0,1]],[[570,772],[0,-1],[5,0],[0,-1],[4,0],[0,1],[1,1],[1,0],[0,1],[1,1],[2,0],[0,-3],[1,0],[0,1],[2,0],[0,1],[1,0],[0,2],[1,0],[0,1],[1,0],[0,1],[1,0],[1,1],[1,0],[0,3],[1,1],[0,-1],[2,0],[0,1],[1,-1],[0,1],[1,0],[0,-2]],[[599,780],[-1,0]],[[598,780],[1,-1],[0,-1]],[[599,777],[0,1]],[[599,778],[1,-1],[2,0],[2,1]],[[604,778],[0,-1],[2,0],[0,1],[1,0],[1,1],[2,0],[0,2],[1,0],[1,1],[0,2],[1,0],[0,-2],[1,-1],[0,-2],[2,0],[0,-1],[2,2],[0,1],[1,1],[0,-1],[1,0],[0,1],[1,1],[1,-1],[0,-1],[1,0],[0,-1],[2,0],[1,1],[1,-1],[1,0],[0,-1],[1,-1],[2,0],[0,-1],[1,-1],[0,1],[1,0],[0,-1],[3,0],[0,-1],[2,0]],[[638,776],[0,-1]],[[638,775],[1,-1],[0,-1],[2,0],[0,1],[1,0],[0,-1],[2,0],[2,-1],[1,-1],[-1,0],[0,-1]],[[647,770],[-1,0]],[[646,770],[0,-2],[-1,0],[0,-1],[-1,0],[0,-1],[-1,0],[-1,-1],[0,-1],[-1,0],[0,-2],[-1,0]],[[640,763],[0,-1]],[[640,761],[0,1]],[[640,762],[-1,0],[0,-1],[-1,0],[0,1],[-1,-1],[0,-1],[-1,1],[-1,-1],[0,-1],[1,0],[1,-1],[1,0]],[[638,757],[0,1]],[[638,758],[4,4],[1,-1],[0,1],[1,0],[1,1],[1,0],[-1,1],[1,0],[1,1],[1,0],[1,1],[2,0],[0,1],[1,1],[0,-1],[1,0],[0,1],[1,0],[0,-1],[2,0],[0,1],[1,0],[0,1],[1,1],[1,-1],[1,0],[0,-1],[4,0]],[[665,769],[0,1],[1,0],[2,-2],[1,1],[2,1],[0,2],[-2,2],[1,1]],[[670,775],[0,-1],[1,0],[-1,1]],[[670,775],[0,5],[-1,1],[0,1],[-1,0],[-2,-2]],[[666,779],[0,1]],[[666,780],[-1,0],[0,2],[1,1],[0,1],[1,1],[0,4],[1,0],[0,1],[-1,0],[0,2],[-2,0],[0,4],[-2,2],[-2,0],[0,2],[-1,0],[0,1],[-1,0],[0,3]],[[660,805],[-1,-1]],[[659,804],[-1,0],[0,1]],[[657,805],[1,0]],[[658,805],[-1,2],[-1,0],[0,-1],[-1,0]],[[655,807],[0,-1]],[[655,806],[-1,0],[0,1],[-1,0],[0,1],[1,1],[0,3],[-1,1],[-2,0],[0,1],[1,0],[0,1],[1,1],[-1,0],[1,1],[0,1],[1,1],[0,1],[-1,0],[0,1],[1,0],[0,2],[1,1],[0,2],[1,0],[0,1],[-1,1],[0,1],[-1,0],[0,1],[1,1],[0,1],[-3,0],[0,1],[-1,2],[-1,0],[0,2]],[[650,837],[1,0],[2,1],[0,1],[1,0],[0,1],[2,0],[0,2]],[[655,843],[1,-1]],[[656,842],[1,1],[1,-1],[1,0],[0,1],[1,-1],[1,0],[0,1],[1,0],[0,-1],[1,2],[1,1],[3,0],[1,-1],[2,0],[1,-1],[0,1],[4,0],[0,1],[1,0],[0,1],[2,0],[0,1],[1,0],[0,-1],[1,0],[-1,-1],[1,-1],[0,-1],[1,0],[1,-1],[2,0],[0,1],[2,0],[2,-2],[2,0],[0,-1],[2,0],[0,-1],[-1,0]],[[691,838],[0,1]],[[691,839],[-1,-1],[1,0]],[[691,838],[1,0],[0,-3],[2,1],[1,0],[0,-2],[2,0],[0,-3],[2,0],[1,-1],[1,0],[0,1],[1,0]],[[702,832],[0,-1]],[[702,831],[1,0],[1,-1],[1,1],[1,-1],[0,1],[1,1],[4,0],[0,1],[1,0],[0,1],[2,-2],[1,0]],[[715,832],[0,-1],[1,0],[0,1],[-1,0]],[[715,832],[0,1],[1,1],[0,2]],[[665,769],[-1,-1]],[[664,768],[1,0],[0,1]],[[657,804],[0,0],[0,0]],[[680,928],[-1,0],[-1,1],[0,2],[-1,1],[-3,0],[0,1],[-1,0],[0,1],[-1,0],[0,2],[-1,0],[0,-1],[-1,1],[0,-1],[-1,1],[0,-1],[-2,0],[1,1],[0,1],[-1,1],[0,2],[1,0],[0,1],[1,0],[0,2],[-1,0],[0,-1],[-1,0],[-1,-1],[0,1],[-1,0],[-1,-1],[0,-1]],[[664,940],[1,0],[-1,-1],[0,1]],[[664,940],[-1,0],[-1,1],[0,1],[-1,0],[0,2],[1,0],[1,1],[0,2],[3,0],[1,-1],[0,-1],[1,0],[0,-1],[1,0],[0,1],[1,-1],[3,0],[0,1],[1,1],[1,0],[-1,1],[-1,0],[0,1],[-1,0],[0,1],[-2,2],[0,-1],[-2,1],[-2,0],[0,1],[1,0],[0,4],[1,0],[-1,1],[-1,0],[0,3],[1,0],[0,1],[-4,0],[0,1],[-2,0],[0,-1],[-1,0],[-1,-1],[-2,0],[-2,-2]],[[655,958],[0,2],[-1,1],[0,4],[1,0],[1,1]],[[656,965],[0,1]],[[656,966],[0,1],[3,0],[0,1]],[[659,968],[-1,0],[1,1],[0,-1]],[[659,968],[1,0],[0,1],[1,-1],[4,0],[0,1],[2,0],[0,3]],[[667,972],[2,0],[0,1],[1,-1],[1,0],[1,-1],[1,0],[0,2],[-1,0],[0,1],[1,0],[1,1],[1,0],[0,1],[1,0],[0,1],[7,0],[0,1],[2,0],[0,-1],[1,0],[0,-1],[1,0],[0,-1],[1,0],[0,1],[2,0],[0,-1],[1,-1],[0,1],[1,-1],[1,0],[1,-1],[1,1],[2,-2],[0,-1],[2,0],[0,-1],[2,0],[0,-1],[3,0],[1,-1],[1,1],[4,0],[0,-1],[3,0],[0,1],[1,0],[4,1],[1,0],[0,1],[3,0],[1,1],[1,0],[0,1],[1,0],[0,1],[2,0],[0,-1],[1,-1],[0,0],[0,-1],[2,0],[0,-3]],[[681,937],[0,-1],[-1,0],[0,-3],[1,0],[0,-1],[2,0],[0,-1],[1,-1],[0,0],[1,-1],[0,0],[1,0],[0,1],[3,0],[0,-1],[1,0],[1,-1],[1,1],[1,-1],[2,0],[0,3],[-1,0],[0,-1],[-2,0],[0,1],[-1,0],[0,1],[1,0],[1,1],[0,2],[-1,0],[-1,1],[-3,0],[0,1],[-7,0]],[[661,963],[1,0],[0,2],[1,1],[-1,1],[-1,-1],[-1,0],[1,-1],[-1,-1],[1,0],[0,-1]],[[688,976],[0,0]],[[672,972],[0,0]],[[208,99],[3,-3],[-1,-2],[-1,-1],[0,-6],[-1,-1],[1,0],[0,-1],[-1,0],[0,-1],[-1,0],[-2,-2],[-2,-1],[-1,0],[0,-1],[-1,0],[0,-1],[-4,0],[-1,-1],[0,-2],[-2,-2],[0,1],[-1,0],[0,1],[-1,-1],[-1,1],[0,-1],[-1,1],[0,1],[2,2],[0,6],[1,1],[0,1],[1,0],[2,2],[2,0],[0,1],[1,0],[0,1],[1,0],[0,1],[1,0],[0,0],[1,0],[0,1],[1,0],[0,-1],[1,0],[1,-1],[0,1],[1,1],[0,2],[1,0],[0,3]],[[208,99],[-1,-1]],[[207,98],[-2,0],[0,1],[1,0],[0,2],[1,1],[1,-1],[0,-2]],[[206,108],[0,2],[1,0],[0,-1],[0,0],[0,-1],[-1,0]],[[206,102],[-1,0],[0,1],[1,0],[0,-1]],[[193,68],[-1,0],[0,1],[1,1],[0,-2]],[[190,69],[0,-1],[1,0],[1,-1],[0,-3],[1,-5],[-1,-1],[0,-1],[1,0],[-1,-1],[0,-2],[-1,-1],[0,-4],[1,-1],[0,-1],[-1,0],[-1,-3],[0,-2],[-1,0],[0,-4],[-1,0],[0,-1],[-1,-1],[-2,0],[-1,-1],[-2,0],[-2,-1],[-2,0],[0,-1],[-2,0],[-2,-2],[-1,-3],[-2,-1],[0,-2],[-1,0],[-1,1],[-2,0],[-2,1],[-2,0],[0,2],[2,0],[6,2],[0,1],[1,0],[0,1],[2,1],[0,1],[1,1],[0,2],[1,0],[0,1],[-1,1],[1,1],[0,2],[1,1],[0,1],[1,0],[0,4],[1,1],[1,2],[1,1],[0,1],[1,2],[0,1],[1,1],[0,3],[1,0],[0,6],[1,-1],[0,1],[1,1],[2,0],[0,1],[2,0]],[[121,30],[1,0],[0,-5],[1,0],[0,-1],[1,-2],[0,-1],[-1,0],[0,-1],[1,0],[0,-2],[-1,0],[0,-5],[-1,0],[0,-2],[-1,-1],[-2,0],[-1,-1],[-1,0],[0,-1],[-2,0],[0,-2],[-2,0],[0,1],[-3,0],[0,1],[-1,0],[0,1],[-1,0],[0,1],[-1,0],[0,1],[-1,0],[-1,1],[0,2],[-1,2],[-1,1],[0,1],[1,1],[-1,1],[0,1],[1,1],[0,1],[1,0],[1,1],[0,1],[1,0],[0,1],[1,0],[0,1],[1,0],[0,6],[1,0],[0,-1],[1,0],[0,1],[1,0],[2,-2],[2,0],[1,1],[1,-1],[1,0],[0,-1],[1,0],[1,1],[0,2],[1,1],[0,-3],[-1,0],[0,-1]],[[90,58],[1,-1],[-1,-1],[0,-1],[-1,0],[0,-1],[-1,0],[-1,-1],[-1,0],[-1,-1],[0,-2],[-1,0],[0,-1],[-1,0],[-1,-1],[0,-1],[-1,0],[-1,-1],[0,-5],[-1,-1],[0,-1],[-1,-1],[0,-2],[-1,0],[0,-5],[-1,0],[0,-1],[-1,0],[0,-2],[-1,0],[0,-1],[-1,0],[0,-1],[-1,-1],[0,-1],[-3,0],[-1,-1],[-1,0],[-1,-1],[-1,1],[0,1],[-2,2],[0,2],[-1,1],[-2,3],[0,2],[-1,0],[0,2],[-1,1],[1,1],[0,1],[-1,0],[0,1],[-1,1],[0,1],[-1,0],[0,1],[-1,1],[0,1],[1,0],[2,1],[1,1],[1,-1],[2,0],[1,-1],[0,1],[2,0],[0,1],[5,0],[1,1],[2,0],[1,1],[0,0],[1,1],[0,1],[1,0],[0,1],[1,0],[0,2],[2,2],[1,0],[1,1],[0,1],[4,0],[1,-1],[1,1],[1,0],[1,1],[1,-1]],[[89,59],[0,0]],[[62,46],[0,0]],[[40,35],[3,0],[0,-1],[1,-1],[1,0],[0,-1],[1,0],[1,-1],[0,-3],[-4,-4],[-4,0],[0,1],[-1,0],[0,1],[-1,0],[0,2],[-1,0],[0,4],[1,0],[0,3],[2,0],[0,1],[1,0],[0,-1]],[[11,75],[1,-1],[4,0],[0,1],[1,-1],[0,-1],[1,-1],[0,-2],[1,-1],[0,-2],[-1,-1],[0,-1],[-1,-1],[0,-1],[1,0],[0,-5],[-2,-4],[-1,-1],[0,-2],[-1,-1],[0,1],[-1,1],[0,2],[-1,2],[0,2],[-1,0],[0,1],[-1,0],[0,1],[-1,3],[0,2],[-1,1],[0,1],[-1,1],[0,4],[1,0],[0,1],[1,0],[0,1],[1,0],[0,1],[1,0]],[[11,13],[1,-1],[0,-2],[-1,-1],[0,-1],[-1,-1],[0,-1],[-1,0],[0,-3],[-1,-1],[0,-2],[-1,0],[0,1],[-1,2],[-1,0],[-3,1],[-1,0],[-1,1],[0,2],[1,1],[1,0],[0,-1],[2,0],[1,1],[1,0],[2,2],[0,1],[-1,0],[2,2],[2,0]],[[570,772],[-1,-1],[-1,0],[0,-3],[1,-1],[0,-3],[-1,-1],[-1,-3],[0,-3],[1,0],[0,1],[3,0],[0,-1],[1,0],[0,-2],[-1,-1],[0,-4],[1,0],[1,-1],[1,0],[0,1],[1,2],[2,0],[0,-1],[1,0],[0,-1],[-1,0],[0,-1],[1,0],[0,-1],[1,-1],[-1,-1],[0,-4],[-1,0],[0,-1],[-1,0],[0,-2],[2,-2],[1,-2],[1,0],[0,-1],[1,0],[0,-1],[1,0],[1,-1],[0,-1],[1,0],[0,-1],[2,-2],[1,0],[0,-1],[1,0],[1,-1],[3,0],[0,1],[3,0],[4,4],[0,-4],[-1,-1],[0,-3],[-3,0],[1,-3],[1,-1],[0,-1],[1,0],[0,-2],[2,-2],[0,-1],[-1,0],[-1,1],[-2,1],[-3,0],[0,-1],[-1,0],[0,-1],[-1,-1],[0,-2],[-1,-1],[2,-2],[1,0],[-2,-2],[-2,0],[0,1],[-2,0]],[[586,706],[1,0]],[[587,706],[0,-3],[1,0],[0,-3],[2,0],[1,-1],[1,0],[0,-4],[-1,1],[-2,0],[-1,-1],[0,-1],[-1,0],[0,-4],[-1,-1],[0,-1],[-1,-1],[0,-1],[-1,0]],[[584,686],[-1,0]],[[583,686],[-1,0],[0,-1],[-5,0],[0,-3],[-2,0],[0,-1],[-1,-1],[-1,0],[0,-1],[-1,0],[-1,-1],[0,-1],[-3,0],[0,-2]],[[567,675],[1,0]],[[568,675],[0,-1],[-1,1]],[[567,675],[0,-1],[-1,0],[1,-1],[-1,0],[0,-1],[-1,0],[-2,-2],[0,-1],[-1,0]],[[562,670],[0,-1]],[[562,669],[-2,-1],[-1,-1],[0,-3],[1,0],[0,-1],[-1,-2],[1,0],[0,-1],[1,-1],[0,-2],[1,-1],[0,-2],[-1,-1],[0,-2],[-1,0],[0,-1],[-1,0],[0,-1],[-3,0],[-1,-1],[0,-1],[-1,-1],[-2,0],[0,3],[1,0],[1,1],[0,2],[-1,0],[0,1],[-1,0],[0,-1],[-4,0]],[[548,651],[0,1]],[[548,652],[-1,0],[0,-1],[-1,0],[0,-2],[-1,0],[-1,-1],[0,-4],[-1,0],[0,-2],[-1,-1],[-1,0],[-1,-1],[-1,1],[-1,0],[-1,-1],[-2,0],[-1,-1],[0,-1],[-1,0],[-1,-1],[0,1],[-1,1],[0,-1],[-1,0],[0,1],[-3,0],[0,1],[-1,1],[-1,0],[-1,1],[0,2],[-2,0],[-1,1],[-1,-1],[1,0],[-2,-2]],[[519,642],[1,0],[-1,-1],[0,1]],[[519,642],[-2,0],[-1,1],[-1,0],[0,-1],[-1,1],[0,1],[1,0],[-2,3],[-7,0],[0,1],[-2,0],[0,1],[1,1],[0,2],[-3,0],[-2,1],[-1,0],[0,1]],[[499,654],[-1,0],[-1,-1],[0,1],[-2,0],[0,-2],[-2,0],[-1,-1],[0,1],[-1,1],[0,1],[-1,1],[0,2],[-1,0],[0,1],[-1,0],[0,1],[-1,1],[0,1],[-1,2],[-2,2],[0,1],[-2,2],[-1,0],[1,1],[0,1],[1,0],[0,1],[-1,0],[0,4],[1,0],[0,1],[1,1],[0,1],[1,1],[0,1],[-1,0],[0,5],[1,0],[0,1],[1,1],[1,0],[0,1],[1,1],[1,0],[0,1],[1,1],[2,0],[0,1],[1,1],[0,1],[1,0],[0,3],[1,1],[0,1],[2,2],[1,3],[-1,1],[0,1],[1,0],[-1,2],[-2,2],[-1,0],[-2,-1],[-1,0],[-1,1],[-1,0],[0,1],[1,1],[0,1],[-2,1],[-1,0],[-2,2],[0,3],[1,1],[-2,1],[0,1],[-2,2],[0,4],[1,0],[-1,1],[0,1],[1,1],[-1,0],[0,1],[-1,0],[-1,1],[-1,0],[0,3],[-2,0],[-1,1],[0,1],[-1,0],[-1,1],[0,1],[-1,0],[0,2],[-1,1],[0,1],[4,0],[0,-1],[5,0],[0,0],[2,0],[0,1],[5,0],[0,-1],[2,0],[0,1],[3,0],[0,-1],[2,1],[1,1],[0,4],[1,1],[0,1],[-1,1],[1,1],[0,1],[2,0],[0,2],[1,0],[0,4],[1,0],[0,3],[1,1],[0,2],[-1,0],[0,2],[-2,2],[0,1],[-1,0],[0,1],[-3,0],[1,1],[-1,0],[0,6],[3,0],[0,2],[1,0],[1,-1],[1,1],[1,0]],[[502,781],[1,-1],[3,0],[1,-1],[0,1],[1,1],[1,0],[0,-1],[1,0],[0,1],[4,0],[0,1],[1,0],[1,1],[0,1],[-1,0],[0,1],[1,0],[0,1],[1,0],[0,1],[2,0],[0,1],[2,0],[1,1],[2,0],[0,2],[1,1],[1,0],[1,1],[1,0],[0,1],[1,0],[1,1],[2,-1],[0,-1],[1,0],[1,-1],[1,0],[0,-2],[2,0],[0,-3],[-1,0],[2,-1],[2,0],[0,-3],[2,0],[0,-1],[2,0],[1,2],[2,2],[0,-1],[1,1],[1,0],[1,-2],[0,-1],[-1,0],[1,-1],[2,0],[0,1],[2,0],[2,-2],[0,-1],[1,0],[1,-1],[-1,0],[0,-1],[1,0],[2,-1],[4,0],[0,1],[2,2],[1,0],[1,1],[2,0],[-1,-2],[0,-1],[-1,0],[1,-1],[-1,0],[1,-1],[0,-1],[-1,0],[1,-1],[0,-1],[1,0],[0,-1]],[[775,945],[-3,0],[-1,-1],[0,-2],[-1,0],[-1,-1],[0,-5],[-1,-1],[-1,0],[0,-1],[-2,0],[0,-2],[-4,0],[0,-4],[-5,0],[0,-2],[-1,0],[0,-1],[-1,-1],[0,-2],[-2,0],[-1,1],[-1,-3],[0,-3],[-1,-1],[-2,-1],[0,-4],[1,0],[0,-1],[-1,0],[0,-1],[-1,-1],[0,-1],[-1,0],[0,-4],[-1,0],[0,-2],[1,-1],[0,-4],[1,-1],[0,-1],[1,-1],[2,0],[0,-2],[-1,-1],[0,-1],[-2,-2],[0,-1],[-1,0],[1,-1],[-1,0],[0,-1],[-1,0],[0,-1],[-2,0],[0,1],[-2,0],[0,-1],[-3,0],[-1,1],[0,1],[-1,0],[-1,1],[-2,0],[0,-1],[-1,1],[-1,0],[-1,2],[-3,0],[-1,1]],[[699,919],[0,1],[2,0],[0,1],[-1,1],[1,0],[-1,3]],[[701,925],[-1,0]],[[700,925],[0,1],[-1,0],[0,-1],[-1,-1]],[[698,923],[0,1]],[[698,924],[0,1],[-2,0],[0,1],[1,0],[0,1],[1,1],[0,1],[3,0],[0,-1],[3,0],[0,1],[1,0],[0,1],[-1,0],[0,4],[2,0],[0,5],[1,0],[0,1],[1,0],[0,1],[-1,1],[0,2],[1,0],[0,2],[1,0],[0,1],[1,0],[0,-1],[1,0],[0,1],[2,0],[1,1],[0,1],[2,0],[1,1],[0,1],[-1,0],[0,1],[1,0],[0,2],[1,1],[1,0],[0,1],[1,0],[1,1],[1,0],[0,6]],[[722,964],[0,-1]],[[722,963],[2,0]],[[724,963],[-1,1],[1,0],[0,-1]],[[724,963],[1,1],[1,0],[0,1],[1,0],[0,2],[1,1],[2,0]],[[730,968],[1,1],[1,0],[1,1],[1,-1],[1,0],[0,-3],[2,0],[1,1],[0,1],[3,0],[1,-1],[2,0],[2,-2],[0,-2],[-1,-1],[0,0],[0,-2],[-1,0],[0,-3],[-1,0],[-1,-1],[0,-2],[1,-1],[3,-1],[1,0],[0,4],[1,1],[3,0],[-1,-1],[-1,0],[0,-1],[1,-1],[1,0],[0,-1],[1,0],[0,1],[2,-2],[2,0],[0,-1],[1,0],[0,1],[1,-1],[1,0],[0,-1],[3,0],[0,-1],[1,0],[0,-1],[1,0],[1,-1],[1,0],[0,1],[1,0],[0,-1],[4,0],[1,1],[2,0],[0,-2],[1,-1]],[[757,916],[0,1],[1,1],[1,0],[0,-1],[1,-1],[0,-1],[-3,1]],[[756,915],[0,-1],[-1,0],[-1,-1],[0,1],[1,0],[-1,1],[1,0],[1,1],[0,-1]],[[680,928],[1,-1],[0,-1],[1,0],[0,-1],[-1,0],[0,-2],[1,0],[1,1],[1,0],[0,3],[1,0],[2,-2],[1,0],[-1,-3],[0,-1]],[[687,920],[0,1]],[[687,921],[1,0],[0,-1],[1,-1],[0,-1],[1,1],[2,0],[-1,-1],[1,0],[1,1],[0,-1],[2,0],[-1,1],[1,1],[1,0],[-1,-1],[2,-1],[0,1],[2,0]],[[699,919],[1,0],[0,-1],[1,0],[1,-1],[1,0]],[[703,916],[0,1]],[[703,917],[3,0],[0,-1],[2,0],[0,-2],[5,0],[0,-1],[1,-1],[0,-1]],[[715,911],[-1,0]],[[714,911],[0,-1],[2,0],[0,1],[2,0],[1,-1],[1,0],[0,-1],[1,0],[0,-1],[1,1],[0,-2],[1,-1],[1,0],[0,-2],[1,0],[1,-1]],[[726,904],[0,-1]],[[726,903],[1,-1],[2,0],[1,-1],[0,1],[1,-1],[0,-1],[1,0],[-1,-1],[1,-1],[-1,-1],[-1,0],[0,1],[-1,0],[-1,-1],[-1,0],[-1,1],[-1,-1],[0,-1],[-2,-2],[0,-1],[-1,-1],[1,-2],[1,-1],[1,0]],[[725,889],[0,-1],[-1,-1],[1,-1]],[[725,886],[-1,0],[0,-1],[-2,0],[0,-1],[-2,0],[0,-1],[-1,0],[-1,1],[0,1],[-3,0],[-1,1],[-1,0],[0,4],[-1,0],[-1,1],[0,1],[1,1],[0,2],[-3,0],[-1,-1],[0,1],[-1,-1],[-1,0],[0,2],[-2,1],[-5,0],[-2,-2],[-2,0],[0,-2],[-1,-1],[0,-1],[-1,-2],[-1,-1],[-1,0],[0,1],[-2,0],[-1,-1],[-1,1],[-2,0],[-1,1],[2,2],[1,2],[0,1],[-1,1],[-2,0],[-1,-1],[0,-1],[-1,-1],[1,0],[0,-2],[-2,0],[0,-1],[-1,0],[-1,-1],[-2,2],[0,3],[-5,0],[0,1],[-1,1],[0,1],[-1,0],[0,1],[-1,1],[0,1],[-1,0],[0,1],[1,0],[0,2],[1,1],[-1,1],[1,0],[-1,1],[0,4],[2,0],[0,1]],[[670,912],[-1,0],[0,2],[1,0],[0,-2]],[[670,912],[1,-1]],[[671,911],[0,4],[1,1],[-1,0],[0,1],[-1,1],[0,4],[-1,-1],[-1,0],[0,1],[1,1],[1,0],[0,1],[1,1],[0,2],[-1,0],[0,1],[3,0]],[[673,927],[0,1]],[[673,928],[4,0],[0,-1],[2,0],[1,1]],[[677,925],[0,1],[-1,0],[0,-1],[1,0]],[[674,926],[0,0]],[[830,797],[-2,1],[-2,0],[0,2],[1,0],[-1,1],[-1,0],[0,1],[-3,0],[-1,1],[-1,0],[-1,1],[0,1],[1,2],[-1,1],[-1,0],[-1,1],[0,1],[-1,-1],[0,1],[-1,0]],[[814,811],[1,-1]],[[815,810],[0,1],[1,1],[1,0],[0,1],[1,0],[0,1],[1,1],[0,1],[-1,2],[0,4],[1,0],[0,1],[1,1],[0,2],[-1,0],[0,2],[-1,1],[-1,0],[0,3],[-1,0],[0,2],[1,1],[1,0],[0,1],[1,0],[1,1],[1,0],[0,3],[1,0],[0,1],[1,-1],[0,1],[1,0],[0,3],[-1,1],[0,3],[1,0],[-3,3],[1,1],[0,2],[1,0],[0,1],[-1,0],[0,2],[3,0],[0,1],[1,0],[0,2],[1,0],[0,1],[-1,0],[0,3],[-1,-1],[-2,1],[-1,1],[1,0],[0,1],[-1,0],[0,1],[-1,1],[1,0],[0,2],[1,0],[0,1],[1,0],[0,1],[1,0],[0,1],[2,1],[1,0],[0,2],[1,0],[0,1],[2,0],[0,1],[1,0],[0,1],[1,0],[0,1],[1,0],[0,1],[-1,0],[1,1],[0,1]],[[833,883],[1,0]],[[834,883],[-1,1],[-1,0],[0,1],[1,1],[1,0],[0,2],[1,0],[1,-1],[0,4],[1,0],[0,3],[1,0],[0,4],[1,0],[-1,1],[0,1],[1,1]],[[838,901],[1,0]],[[839,901],[0,2],[1,1],[0,3],[1,0],[0,1],[-1,1],[1,1],[-1,0],[-1,1],[1,0],[0,2],[-1,0],[1,1],[-2,2],[0,3],[1,0],[1,1],[-1,0],[0,1],[1,1],[1,2],[0,2],[-2,0],[-1,1],[0,2],[-2,2]],[[836,931],[1,0],[0,3],[-1,1],[0,1],[0,0],[0,2],[1,0],[0,1],[-1,1],[1,1],[1,0],[0,1],[4,-2],[2,0],[1,-1],[1,0],[2,-2],[1,1],[1,0],[1,-1],[4,0],[0,-1],[2,0],[0,-3],[2,-1],[1,1],[7,0],[0,-1],[1,-1],[1,0],[0,-2],[1,0],[0,-2],[1,0],[0,-2],[-1,-1],[1,0],[0,-1],[-1,0],[0,-2],[1,1],[1,-2],[-1,-1],[-1,0],[0,-1],[1,0],[0,-3],[5,0],[0,2],[1,0],[0,0],[4,0],[0,2],[2,0],[1,1],[0,-1],[1,0],[0,-1],[2,0],[0,1],[1,-1],[1,0],[0,-1],[2,0],[0,-1],[2,0],[0,-1],[1,0],[0,-3],[2,-2],[2,0],[0,1],[2,0],[0,1],[1,0],[0,2],[1,0],[1,1],[1,-1],[1,0],[1,1],[4,0],[0,-1],[1,0],[1,-1],[3,0],[0,-1],[1,-1],[1,0],[0,-2],[1,0],[0,1],[1,-1],[1,0],[0,1],[5,0],[1,-1],[0,2],[-1,0],[0,1],[1,0],[0,1],[1,1],[1,0],[0,1],[1,0],[1,-1],[1,0],[1,1],[0,1],[1,0],[0,1],[4,0],[0,1],[2,0],[0,-1],[1,1],[1,-1],[0,1],[1,0],[0,-1],[2,-2],[4,0],[0,-1],[-1,-1],[0,0],[1,-1],[-1,0],[0,-1],[1,0],[0,-1],[1,0],[0,0],[2,0],[0,-1],[3,0],[0,-1],[1,0],[-1,-1],[-1,0],[0,-1],[0,0],[0,-2],[-1,0],[0,-1],[-1,0],[0,1],[-1,-1],[-1,0],[0,1],[-1,0],[0,1],[-2,-2],[0,-1],[-1,-1],[0,-3],[1,-1],[0,-1],[1,-1],[0,1],[1,-1],[1,0],[0,-2],[1,0],[0,-1],[-1,0],[0,-4],[2,-2],[0,-1],[-1,0],[0,-3],[-1,0],[0,-1],[-1,0],[0,-1],[-1,0],[0,-1],[-2,0],[-1,-1],[0,-1],[-1,-1],[0,-1],[-1,0],[0,-1],[-2,0],[0,-1],[-1,0],[-1,-1],[0,-1],[-1,0],[0,-1],[-3,0],[-2,-1],[0,-1],[-1,0],[-1,-1],[0,-1],[-2,0],[-2,-2],[-2,0],[-2,-1],[-1,0],[-2,-2],[-1,0],[-1,-1],[-1,0],[0,-1],[-1,0],[-2,-2],[-2,-1],[-2,0],[-2,-2],[0,-1],[-1,0],[0,-1],[-2,-2],[0,-1],[-1,-1],[0,-2],[-1,-1],[-1,0],[-2,-1],[0,-1],[-7,0],[0,-1],[-1,0],[-1,-1],[-3,0],[-1,-1],[-1,0],[-3,-1],[-2,0],[-1,-1],[-4,0],[-2,-1],[-1,0],[-2,-2],[-2,0],[-1,-1],[-2,0],[-2,-1],[0,0],[-2,0],[-1,-1],[0,-1],[-1,0],[0,-1],[-1,0],[0,1],[-2,0],[-1,-1],[0,1],[-1,0],[0,-1],[-2,0],[0,-1],[-1,0],[-5,-5],[0,-1],[-1,0],[0,-1],[-1,-1],[0,-1],[-1,0],[0,-1],[-1,0],[0,-1],[-1,0],[0,-1],[-1,0],[0,-2],[-2,0],[0,-2],[1,0],[0,-1],[3,0],[-1,1],[-1,0],[0,1],[1,0],[1,-1],[1,-2],[2,-2],[1,1],[0,-2],[-2,-2],[-2,0],[0,-1],[-1,0],[0,-1],[-4,0],[0,-1],[-3,0],[-3,-3],[0,-1],[-1,-1],[0,-1]],[[950,891],[0,0]],[[895,916],[-1,0],[0,2],[1,0],[0,1],[1,-1],[-1,0],[1,-1],[0,-1],[-1,0]],[[862,833],[0,0]],[[839,801],[-2,-2],[-3,0],[0,1],[0,0],[0,1],[5,0]]]}