{"type":"Topology","objects":{"data":{"geometries":[{"properties":{"index":1692,"nuts_1_code":"ES4","nuts_1_name":"Centro (ES)"},"type":"MultiPolygon","arcs":[[[-60,59,-59,57,-57,-56,55,-55,-130,128,-128,-127,126,-126,-125,123,124,-123,-122,121,-121,-120,119,-119,117,-117,-54,-113,-24,-23,22,-22,20,-20,18,-18,-17,16,-16,-15,-14,-13,-12,-11,-10,9,-9,-173,-172,171,-171,169,-169,167,-167,-166,165,-165,-164,163,-163,-162,161,-161,-160,159,-159,-158,-157,156,-156,-155,154,-154,152,-152,0,-71,-70,69,-69,-68,67,-67,-66,65,-65,-64,63,-63,-62,61,-61],[144,-143],[-145,-146],[146]],[[136]],[[137]],[[138]],[[143]],[[73]],[[74]]],"id":0},{"properties":{"index":1693,"nuts_1_code":"ES5","nuts_1_name":"Este"},"type":"MultiPolygon","arcs":[[[1]],[[2]],[[3]],[[4]],[[5]],[[-27,6]],[[-51,7,-150,-149,148,-148,8,-10,9,10,11,12,13,14,15,-17,16,17,18,19,20,21,-23,22,23,-112,-111,110,-110,-109,108,-108,-107,106,-106,-105,104,-104,24]],[[25]],[[26,-27]],[[27]],[[28]],[[29]],[[30]],[[31]],[[32]],[[33]],[[34]],[[35]],[[36]],[[37]],[[38]],[[39]],[[40]],[[41]],[[42]],[[43]],[[43]],[[44]],[[45]],[[46]],[[47]],[[48]],[[49]],[[50,-51]],[[51]],[[52]],[[52]],[[53,-116,-115,-114]]],"id":1},{"properties":{"index":1694,"nuts_1_code":"ES1","nuts_1_name":"Noroeste"},"type":"MultiPolygon","arcs":[[[-135,133,-133,-132,131,-131,54,-56,55,56,57,58,-60,59,60,-62,61,62,-64,63,64,-66,65,66,-68,67,68,-70,69,70,71,-84,72],[73],[74]],[[139]],[[75]],[[76]],[[77]],[[78]],[[79]],[[80]],[[81]],[[82]],[[83,84]],[[85]],[[86]],[[87]],[[88]],[[-93,89]],[[90]],[[91]],[[92,-93]],[[93]],[[94]],[[95]],[[96]],[[97]],[[98]],[[99]],[[100]],[[101]],[[102]]],"id":2},{"properties":{"index":1696,"nuts_1_code":"ES2","nuts_1_name":"Noreste"},"type":"MultiPolygon","arcs":[[[103,-105,104,105,-107,106,107,-109,108,109,-111,110,111,112,113,114,115,116,117,118,-120,119,120,-122,121,122,-125,123,124,125,-127,126,127,128,129,130,-132,131,132,133,134,135],[136],[137],[138],[139]],[[140]],[[141]]],"id":3},{"properties":{"index":1697,"nuts_1_code":"ES3","nuts_1_name":"Comunidad de Madrid"},"type":"MultiPolygon","arcs":[[[-145,142],[143]],[[144,145]],[[146]]],"id":4},{"properties":{"index":1698,"nuts_1_code":"ES6","nuts_1_name":"Sur"},"type":"MultiPolygon","arcs":[[[147,-149,148,149,150,151,152,153,-155,154,155,-157,156,157,158,-160,159,160,-162,161,162,-164,163,164,-166,165,166,167,168,169,170,-172,171,172]],[[173]],[[174]],[[175]],[[176]],[[177]],[[178]],[[179]],[[181,-182]],[[180,181]],[[182]],[[183]],[[184]],[[185]],[[186]],[[187]],[[188]],[[189]],[[190]]],"id":5},{"properties":{"index":1699,"nuts_1_code":"ES7","nuts_1_name":"Canarias"},"type":"MultiPolygon","arcs":[[[-193,191]],[[192,193]],[[194]],[[195]],[[196]],[[197]],[[198]],[[199]],[[200]],[[201]],[[202]],[[203]],[[204]]],"id":6}],"type":"GeometryCollection"}},"bbox":[-18.160019171016827,27.638498635459968,4.3202017420658905,43.789257944543465],"transform":{"scale":[0.022502723636719436,0.016166926235318815],"translate":[-18.160019171016827,27.638498635459968]},"arcs":[[[499,654],[-1,0],[-1,-1],[0,1],[-2,0],[0,-2],[-2,0],[-1,-1],[0,1],[-1,1],[0,1],[-1,1],[0,2],[-1,0],[0,1],[-1,0],[0,1],[-1,1],[0,1],[-1,2],[-2,2],[0,1],[-2,2],[-1,0],[1,1],[0,1],[1,0],[0,1],[-1,0],[0,4],[1,0],[0,1],[1,1],[0,1],[1,1],[0,1],[-1,0],[0,5],[1,0],[0,1],[1,1],[1,0],[0,1],[1,1],[1,0],[0,1],[1,1],[2,0],[0,1],[1,1],[0,1],[1,0],[0,3],[1,1],[0,1],[2,2],[1,3],[-1,1],[0,1],[1,0],[-1,2],[-2,2],[-1,0],[-2,-1],[-1,0],[-1,1],[-1,0],[0,1],[1,1],[0,1],[-2,1],[-1,0],[-2,2],[0,3],[1,1],[-2,1],[0,1],[-2,2],[0,4],[1,0],[-1,1],[0,1],[1,1],[-1,0],[0,1],[-1,0],[-1,1],[-1,0],[0,3],[-2,0],[-1,1],[0,1],[-1,0],[-1,1],[0,1],[-1,0],[0,2],[-1,1],[0,1],[4,0],[0,-1],[5,0],[0,0],[2,0],[0,1],[5,0],[0,-1],[2,0],[0,1],[3,0],[0,-1],[2,1],[1,1],[0,4],[1,1],[0,1],[-1,1],[1,1],[0,1],[2,0],[0,2],[1,0],[0,4],[1,0],[0,3],[1,1],[0,2],[-1,0],[0,2],[-2,2],[0,1],[-1,0],[0,1],[-3,0],[1,1],[-1,0],[0,6],[3,0],[0,2],[1,0],[1,-1],[1,1],[1,0],[0,2],[2,2],[1,0],[0,2],[1,0],[-1,1],[-1,0],[0,1],[-1,1],[0,4],[1,0],[0,2],[1,0],[0,3],[-1,0],[-1,1],[0,1],[1,1],[0,2],[1,0],[0,3],[-1,1],[0,2],[-1,1],[1,1],[0,5],[1,0],[0,1],[-2,2],[0,2],[-1,1],[0,1],[-1,0],[0,1],[-1,1],[0,1],[-1,0],[0,1],[1,1],[1,-1],[3,0],[0,1],[2,2],[0,1],[1,1],[-1,1],[0,1],[1,0],[0,1],[1,1],[1,0],[0,1],[1,1],[0,1],[2,2],[2,0],[1,-1],[2,2],[2,0],[0,2],[2,0],[0,1],[1,1],[-1,0],[1,1],[1,0],[1,1],[-1,0],[0,1],[1,1],[0,-1],[2,0],[0,2],[1,0],[0,3],[1,0],[0,2],[1,0],[0,1],[2,2],[0,1],[1,1],[-2,2],[0,1],[-2,2],[-1,0],[0,1],[-3,0],[-2,1],[-2,0],[0,-1],[-1,0],[0,-1],[-1,0],[-2,2],[0,3],[-1,0],[0,1],[1,0],[0,4],[1,0],[0,3],[-1,1],[-1,0],[0,1],[1,1],[0,2],[-1,0],[0,1],[-1,0],[0,-1],[-2,0],[-2,-1],[-2,0],[-1,1],[-1,2],[0,1],[-2,0],[0,-3],[-6,0],[0,1],[-1,1]],[[989,768],[0,-1],[1,1],[0,0],[0,-2],[1,1],[0,2],[1,0],[0,-3],[1,0],[0,0],[1,0],[0,-1],[2,0],[0,-3],[1,-1],[0,-1],[1,-1],[0,-1],[1,-1],[-1,0],[0,1],[-1,0],[0,0],[1,-1],[0,-4],[-3,0],[0,1],[-2,0],[-1,2],[-3,1],[0,1],[-1,0],[-2,2],[-3,0],[0,1],[-1,0],[0,-1],[-5,0],[0,4],[-1,0],[0,3],[1,1],[9,0],[0,1],[1,-1],[1,0],[1,1],[0,-1]],[[998,752],[0,0]],[[997,762],[0,0]],[[994,766],[0,0]],[[988,770],[0,0]],[[941,722],[-1,0],[0,2],[-1,1],[-8,0],[0,1],[-1,1],[-1,0],[0,4],[-1,0],[0,2],[1,0],[0,2],[-1,0],[0,1],[-1,0],[-2,2],[-1,0],[0,-1],[-2,0],[0,-1],[-1,0],[-1,-1],[0,-2],[-1,-1],[0,-1],[-1,0],[0,1],[-1,0],[0,1],[-1,1],[1,0],[0,1],[-1,1],[-1,-1],[0,1],[-1,0],[-1,-1],[0,1],[0,0],[0,1],[-2,2],[2,2],[1,0],[1,1],[0,1],[2,0],[0,1],[1,0],[0,1],[1,1],[2,0],[1,1],[0,1],[1,0],[0,1],[2,2],[1,0],[0,1],[1,0],[0,1],[1,0],[0,1],[2,0],[0,1],[1,1],[3,0],[0,1],[1,0],[1,1],[1,0],[0,1],[1,0],[0,1],[1,-1],[1,0],[0,1],[2,1],[0,-1],[2,0],[1,1],[0,-1],[1,0],[0,1],[1,1],[3,0],[-1,-1],[-1,0],[-1,-1],[-1,0],[0,-1],[-2,0],[0,-2],[1,-1],[2,0],[0,1],[2,0],[0,-2],[-1,0],[-1,-1],[-1,1],[0,-3],[3,-3],[2,-1],[1,0],[1,1],[1,0],[0,1],[1,0],[0,1],[1,1],[1,-1],[0,-1],[2,0],[0,-1],[2,0],[0,-1],[-1,0],[0,-1],[1,0],[0,-2],[-1,0],[1,-1],[0,-1],[-1,0],[0,-1],[-2,0],[0,-1],[-1,-1],[1,-1],[0,-1],[-1,0],[0,-1],[-1,-1],[-1,0],[0,-1],[-2,-2],[0,-4],[-1,-1],[0,0],[-1,-2],[0,-1],[-1,0],[-1,-1],[0,-1],[-2,0],[-1,-1],[-1,0],[0,-1],[-1,-2],[-1,0],[-1,1],[0,1],[-1,0]],[[817,687],[0,-1],[-1,0],[-1,-1],[-1,0],[0,-2],[-2,0],[-2,-2],[0,0],[-1,-1],[-3,0],[0,-1],[-1,-2],[-1,0],[0,-1],[1,0],[-1,-1],[0,-1],[-1,-1],[-1,1],[-2,0],[0,-1],[-2,0],[-1,-1],[-1,0],[-1,-1],[-1,0],[-2,-2],[-2,-1],[0,-1],[-1,-1],[0,-3],[-2,0],[-2,-1],[-1,-2],[0,-7],[-3,0],[-1,-1],[0,-1],[-1,0],[0,-2],[-1,-5],[0,-4],[-1,-1],[-1,0],[0,-2],[-1,0],[0,-1],[-1,-1],[0,-2],[-1,0],[0,-2]],[[761,681],[1,1],[1,0],[0,-1],[1,0],[0,1],[1,0],[0,1],[1,0],[0,2],[-1,1],[0,1],[-1,2],[2,0],[0,4],[-1,0],[0,1],[1,0],[0,2],[-1,1],[0,1],[-1,0],[0,1],[-1,0],[0,1],[-1,0],[0,-1],[-3,0],[-1,-1],[-2,0],[0,1],[-1,1],[-2,4],[-1,0],[-1,1],[0,4],[1,1],[0,2],[1,0],[0,1],[1,0],[0,3],[1,0],[0,6],[-1,0],[0,1],[-1,0],[0,-1],[-1,1],[-3,0],[0,1],[-1,0],[0,-1],[-1,1],[-1,0],[0,1],[-1,0],[-1,1]],[[745,726],[-1,0]],[[744,726],[0,-1],[-1,0]],[[743,725],[1,1]],[[744,726],[-1,0]],[[743,726],[0,-1]],[[743,725],[-1,0],[1,1]],[[743,726],[-1,0],[0,1]],[[741,727],[1,0]],[[742,727],[0,1],[-1,0],[0,1],[-1,0]],[[740,729],[0,0]],[[740,729],[-1,0],[0,1]],[[739,730],[0,0]],[[739,730],[0,1],[1,0],[0,6]],[[739,737],[1,0]],[[740,737],[0,1],[2,0],[0,1],[1,1],[0,2],[2,2],[0,1],[3,0],[0,-1],[2,0],[0,1],[1,1],[0,2],[-1,0],[1,2],[1,1],[1,2],[0,2],[1,0],[0,5],[-1,0],[0,1],[1,1],[2,0],[0,1]],[[836,931],[1,0],[0,3],[-1,1],[0,1],[0,0],[0,2],[1,0],[0,1],[-1,1],[1,1],[1,0],[0,1],[4,-2],[2,0],[1,-1],[1,0],[2,-2],[1,1],[1,0],[1,-1],[4,0],[0,-1],[2,0],[0,-3],[2,-1],[1,1],[7,0],[0,-1],[1,-1],[1,0],[0,-2],[1,0],[0,-2],[1,0],[0,-2],[-1,-1],[1,0],[0,-1],[-1,0],[0,-2],[1,1],[1,-2],[-1,-1],[-1,0],[0,-1],[1,0],[0,-3],[5,0],[0,2],[1,0],[0,0],[4,0],[0,2],[2,0],[1,1],[0,-1],[1,0],[0,-1],[2,0],[0,1],[1,-1],[1,0],[0,-1],[2,0],[0,-1],[2,0],[0,-1],[1,0],[0,-3],[2,-2],[2,0],[0,1],[2,0],[0,1],[1,0],[0,2],[1,0],[1,1],[1,-1],[1,0],[1,1],[4,0],[0,-1],[1,0],[1,-1],[3,0],[0,-1],[1,-1],[1,0],[0,-2],[1,0],[0,1],[1,-1],[1,0],[0,1],[5,0],[1,-1],[0,2],[-1,0],[0,1],[1,0],[0,1],[1,1],[1,0],[0,1],[1,0],[1,-1],[1,0],[1,1],[0,1],[1,0],[0,1],[4,0],[0,1],[2,0],[0,-1],[1,1],[1,-1],[0,1],[1,0],[0,-1],[2,-2],[4,0],[0,-1],[-1,-1],[0,0],[1,-1],[-1,0],[0,-1],[1,0],[0,-1],[1,0],[0,0],[2,0],[0,-1],[3,0],[0,-1],[1,0],[-1,-1],[-1,0],[0,-1],[0,0],[0,-2],[-1,0],[0,-1],[-1,0],[0,1],[-1,-1],[-1,0],[0,1],[-1,0],[0,1],[-2,-2],[0,-1],[-1,-1],[0,-3],[1,-1],[0,-1],[1,-1],[0,1],[1,-1],[1,0],[0,-2],[1,0],[0,-1],[-1,0],[0,-4],[2,-2],[0,-1],[-1,0],[0,-3],[-1,0],[0,-1],[-1,0],[0,-1],[-1,0],[0,-1],[-2,0],[-1,-1],[0,-1],[-1,-1],[0,-1],[-1,0],[0,-1],[-2,0],[0,-1],[-1,0],[-1,-1],[0,-1],[-1,0],[0,-1],[-3,0],[-2,-1],[0,-1],[-1,0],[-1,-1],[0,-1],[-2,0],[-2,-2],[-2,0],[-2,-1],[-1,0],[-2,-2],[-1,0],[-1,-1],[-1,0],[0,-1],[-1,0],[-2,-2],[-2,-1],[-2,0],[-2,-2],[0,-1],[-1,0],[0,-1],[-2,-2],[0,-1],[-1,-1],[0,-2],[-1,-1],[-1,0],[-2,-1],[0,-1],[-7,0],[0,-1],[-1,0],[-1,-1],[-3,0],[-1,-1],[-1,0],[-3,-1],[-2,0],[-1,-1],[-4,0],[-2,-1],[-1,0],[-2,-2],[-2,0],[-1,-1],[-2,0],[-2,-1],[0,0],[-2,0],[-1,-1],[0,-1],[-1,0],[0,-1],[-1,0],[0,1],[-2,0],[-1,-1],[0,1],[-1,0],[0,-1],[-2,0],[0,-1],[-1,0],[-5,-5],[0,-1],[-1,0],[0,-1],[-1,-1],[0,-1],[-1,0],[0,-1],[-1,0],[0,-1],[-1,0],[0,-1],[-1,0],[0,-2],[-2,0],[0,-2],[1,0],[0,-1],[3,0],[-1,1],[-1,0],[0,1],[1,0],[1,-1],[1,-2],[2,-2],[1,1],[0,-2],[-2,-2],[-2,0],[0,-1],[-1,0],[0,-1],[-4,0],[0,-1],[-3,0],[-3,-3],[0,-1],[-1,-1],[0,-1],[-1,-1],[0,-2],[-2,-2],[0,-1],[-1,-1],[0,-1],[-1,-1],[0,-1],[-1,-1],[0,-1],[-1,0],[0,-2],[-1,0],[0,-1],[-1,0],[0,-1],[-1,-1],[-1,0],[0,-2],[-1,-1],[-1,0],[-2,-2],[-1,-3],[0,-2],[-1,0],[0,-1],[-1,-1],[-1,0],[-2,-1],[0,-2],[-1,-2],[-1,-1],[0,-3],[-3,-3],[-1,0],[0,-1],[-1,-2],[-2,-3],[0,-1],[-1,0],[0,-2],[-1,0],[0,-4],[-1,0],[0,-1],[-1,0],[0,-1],[-1,-1],[0,-2],[-1,-1],[0,-1],[-1,0],[0,-5],[0,0],[0,-1],[-1,0],[0,-1],[1,-2],[1,-4],[2,-6],[1,-1],[0,-2],[-1,-1],[0,-2],[1,-1],[0,-1],[1,-3],[1,-1],[1,-2],[0,-1],[1,-1],[0,-1],[1,0],[0,-1],[4,-4],[2,-1],[3,0],[2,-2],[0,0],[1,0],[0,-1],[2,0],[-1,-1],[0,-1],[1,-1],[1,0]],[[950,891],[0,0]],[[941,722],[0,-1]],[[939,713],[0,0]],[[939,715],[0,0]],[[939,712],[-1,-1],[-1,0],[0,1],[1,0],[0,1],[1,0],[0,-1]],[[939,714],[-1,0],[1,1],[0,-1]],[[937,711],[0,0]],[[910,739],[1,1],[0,-1],[-1,0]],[[895,916],[-1,0],[0,2],[1,0],[0,1],[1,-1],[-1,0],[1,-1],[0,-1],[-1,0]],[[880,705],[0,0]],[[875,710],[0,-1],[3,0],[0,-4],[1,0],[0,-1],[-1,1],[0,-1],[-1,0],[0,-2],[-2,0],[0,-3],[-1,0],[-2,-2],[0,0],[-2,0],[0,-1],[-1,-1],[1,0],[-1,-2],[0,0],[-1,0],[0,1],[-1,0],[0,1],[-1,0],[0,-1],[-1,1],[0,0],[-2,0],[0,-1],[-1,0],[0,1],[-1,0],[0,3],[1,0],[0,1],[-1,1],[0,1],[4,0],[0,1],[-1,0],[0,1],[1,0],[0,1],[-1,0],[0,1],[1,0],[1,1],[1,0],[0,1],[1,0],[1,1],[0,-1],[1,1],[1,0],[1,1],[1,0],[0,0],[1,0],[0,1],[1,0]],[[872,686],[1,-1],[0,-1],[1,-1],[2,0],[1,1],[0,-3],[-2,0],[-2,2],[-2,0],[0,-1],[-1,0],[-1,-1],[0,1],[-1,1],[0,1],[1,0],[-1,1],[1,1],[1,0],[0,1],[1,0],[0,-1],[1,0]],[[873,690],[-1,0],[1,1],[0,-1]],[[872,697],[0,0]],[[871,688],[0,0]],[[870,690],[1,-1],[-1,0],[0,1]],[[870,692],[0,0]],[[862,833],[0,0]],[[861,701],[0,0]],[[861,695],[0,0]],[[861,695],[-1,-1],[0,1],[1,0]],[[860,700],[0,0]],[[859,701],[0,0]],[[839,801],[-2,-2],[-3,0],[0,1],[0,0],[0,1],[5,0]],[[838,758],[-1,0],[1,1],[0,-1]],[[817,687],[0,1]],[[801,672],[0,0]],[[786,651],[0,0]],[[755,765],[-2,0],[-1,-1],[-1,0],[0,1],[-2,0],[-1,1],[-1,0],[0,-1],[-1,0],[0,2],[-1,0],[0,2],[-1,0],[0,2],[-2,2],[1,1]],[[655,958],[-1,0],[-1,1],[-1,0],[0,-1],[-1,1],[-1,0],[-2,1],[-1,0]],[[647,959],[0,1]],[[647,960],[-1,1],[-2,0],[0,-1],[-1,-1],[0,-1],[-1,0],[0,-1],[-2,0],[0,-2],[-2,0],[0,1],[-1,-1],[-1,0],[0,-1],[1,0],[-1,-1],[-2,0],[0,-1],[-1,-1],[-1,0],[-1,-1],[0,-1],[-1,-1],[0,-3],[2,0],[0,-1],[1,0],[0,1],[1,1],[0,1],[2,0],[1,-1],[0,-1],[-1,0],[0,-1],[-2,0],[0,-1],[-1,-1],[1,-1],[1,0],[0,2],[1,0],[1,-1],[0,-4],[-1,-1],[-1,0],[0,1],[-1,0],[0,-1],[-1,0],[0,-1],[-1,0],[0,-1],[-2,0],[0,1],[-1,0],[0,2]],[[629,938],[0,2],[-1,-1],[1,-1]],[[629,938],[-1,0],[0,-1],[-1,0],[0,-1],[-1,-1],[-1,1],[0,1],[-3,0],[-1,2]],[[622,939],[-1,0]],[[621,939],[1,1],[1,0],[1,1],[-1,1],[-1,0],[0,-1],[-3,0],[0,6],[-1,1],[-4,0],[-1,1],[0,2],[-1,0],[0,1],[-1,1],[-1,0],[-1,1],[-1,-1],[-2,0],[-2,-2],[0,1],[-2,0],[-1,-1],[-1,0],[-1,1],[-1,0],[-1,-1],[-1,0],[0,1],[1,1],[-1,1],[-1,0],[0,1],[-1,0],[0,1],[-2,0],[0,2]],[[591,958],[1,0]],[[592,958],[0,3]],[[591,961],[1,0]],[[592,961],[0,1],[-1,0],[0,2],[-1,1],[-1,0],[-1,-1],[-1,0],[0,-1],[-1,0],[0,-1],[-1,0],[0,-1],[-1,1],[-1,0],[-1,-1],[-1,0],[0,-3],[-1,-1],[1,0],[-1,-1],[-1,1],[-2,0],[0,-1],[-2,0],[0,-1],[-1,0],[0,1],[-1,0],[0,-1],[-3,0],[0,1],[-2,0],[0,-1],[-1,-2],[-1,0],[-1,1],[-1,-1],[0,1],[-1,-1],[0,-1],[-2,0],[0,-1],[-1,1],[-3,0],[-1,1],[-1,0],[-1,1],[-2,-1],[0,-2],[-1,0],[0,-3],[-4,0],[-1,1],[-1,0],[0,1],[-1,0],[-1,1],[-1,0],[0,3],[-5,0],[0,1],[-1,-1],[0,-2],[-3,0],[0,1],[-2,0],[-1,-2],[-1,0],[-1,1],[-2,0],[0,1],[-1,0],[-1,1],[0,-1],[-1,0],[0,-2],[-1,0],[0,-1],[-1,0],[-1,-1],[-1,1],[0,-2],[2,0],[0,-2],[-2,0],[0,-1],[-1,1],[-1,0],[0,-1],[-5,0],[0,1],[-2,-1],[-2,0],[0,-1],[-1,0],[0,-1],[-1,0],[0,1],[-2,1],[-1,-1],[1,-1],[0,-1],[-1,0],[0,1],[-1,0],[0,-3],[1,0],[0,-1],[-1,-1],[0,-1],[-1,0],[0,-1],[-1,0],[0,-1],[-1,-1],[-1,0],[0,1],[-1,0],[0,-2],[-2,0],[-1,-2],[1,-1],[0,-2]],[[496,928],[-1,0]],[[495,928],[-1,0],[0,-4],[-1,-1],[0,-3],[1,0],[1,-1],[1,0]],[[496,920],[0,-1]],[[496,919],[1,0],[0,1],[3,0],[1,-1],[1,0],[0,-1],[1,1],[1,0],[0,-5],[-1,0],[0,-1],[1,0],[0,-1],[2,0],[0,-1],[2,0],[0,-1],[-1,-1],[1,0],[0,-1],[-1,-1],[0,-1],[-1,-1],[0,-1],[-1,0],[0,-2]],[[505,901],[0,1]],[[505,902],[-4,0],[0,-1],[-1,-1],[-2,-1],[1,0],[0,-1],[-1,-1],[0,-1],[-2,0],[0,-2],[-1,0],[0,-1],[-1,0],[1,-1],[2,0],[0,-2],[1,0],[-1,-2],[-1,0],[1,-1]],[[497,887],[-1,-1],[0,-1],[-2,0],[0,0],[-1,0],[-1,1],[0,1],[-1,0],[-1,1],[-1,-1],[-1,0],[0,-5],[-2,-2],[-1,0],[-1,-1],[-5,0],[-2,-2],[0,1],[-1,0],[0,2],[-3,0],[0,-1],[-1,-1],[-3,0],[0,2],[1,0],[0,1],[-3,0],[-1,1],[-1,0],[0,1],[-1,-1],[-3,0],[-1,-1],[-2,0],[0,-1],[-1,-1],[-1,1],[1,1],[0,3],[-1,0],[0,-1],[-1,0],[0,-2],[-1,-1],[-1,1],[-1,-1],[0,-1],[-1,-1],[-1,0],[-1,-1],[-5,0],[0,4],[-1,0],[-1,1],[0,2],[2,2],[0,1],[1,0],[0,1],[1,1],[2,0],[0,3],[-1,1],[-3,0],[0,-1],[-1,1],[0,5],[-1,-1],[-2,0],[0,-1],[-1,0],[0,-1],[-2,0],[0,-1],[-2,0],[0,-1],[-7,0],[0,-1],[-3,0],[-2,-1],[0,-1],[-1,0],[0,-1],[-2,-2],[-1,0],[-1,-1],[0,-2],[-1,0],[0,-1],[-2,0],[0,-1],[-1,0],[0,-1],[-1,-1],[-1,1],[0,1],[0,0],[0,13],[1,1],[1,0],[0,-1],[1,0],[0,2],[-1,0],[0,1],[1,0],[0,2],[1,0],[1,1],[0,1],[2,0],[0,1],[1,0],[0,1],[1,0],[0,1],[1,0],[0,1],[2,0],[0,4],[-1,0],[0,-2],[-1,0],[0,-2],[-2,0],[0,0],[-1,0],[0,-1],[-1,0],[-1,-1],[0,1],[-1,-1],[-3,0],[0,3],[1,0],[0,-1],[1,-1],[0,4],[2,0],[1,1],[0,1],[1,0],[0,1],[1,1],[1,0],[1,1],[0,1],[-1,-1],[0,2],[-1,-1],[0,-1],[-1,0],[-1,-1],[-1,0],[0,0],[-2,0],[0,-1],[-1,0],[0,1],[-1,0],[0,1],[-1,0],[1,1],[-1,1],[0,1],[-1,0],[-1,-1],[0,2],[2,0],[0,1],[1,0],[0,-3],[1,1],[1,0],[0,2],[0,0],[0,3],[-1,1],[1,0],[0,1],[1,0],[0,1],[1,0],[0,1]],[[417,927],[2,2],[0,1],[-1,-1],[0,0],[-1,0],[0,-1],[-2,0],[0,2],[-1,1],[0,-2],[-1,-1],[1,0],[0,-1],[-1,0],[0,-1],[-1,0],[0,1],[1,0],[-1,1],[-2,-2],[0,-1],[1,0],[-1,-1],[-1,1],[0,-1],[-1,0],[0,-1],[-1,0],[1,-1],[-2,-2],[0,1],[-1,-1],[0,2],[1,0],[-2,2],[0,-1],[-1,1],[1,0],[0,3],[1,0],[0,3],[1,0],[0,2],[1,0],[0,2],[1,0],[2,2],[0,1],[2,0],[0,2],[0,0],[-1,0],[0,-1],[-1,0],[-1,-1],[-3,0],[0,1],[-1,-1],[-1,0],[0,-1],[1,0],[-1,-1],[0,-1],[-1,0],[0,1],[-1,0],[0,1],[-1,0],[0,1],[-1,1],[1,0],[1,1],[0,2],[-1,0],[-1,1],[1,1],[0,2],[-1,0],[0,1],[-1,1],[0,-2],[-1,0],[0,1],[-1,0],[0,0],[-1,0],[-1,-1],[0,0],[-1,0],[0,2],[1,0],[0,2],[1,1],[-1,1],[-1,2],[0,0],[1,0],[1,2],[0,1],[1,0],[0,1],[1,0],[0,-1],[1,0],[0,1],[1,0],[0,2],[-1,0],[0,-1],[-1,0],[0,2],[1,0],[0,2],[4,0],[0,-1],[1,0],[0,1],[1,0],[0,1],[1,0],[0,1],[1,0],[0,0],[3,0],[0,1],[-1,0],[0,1],[-1,0],[0,2],[3,0],[0,2],[3,0],[0,2],[1,-1],[0,-1],[1,0],[0,-1],[2,0],[0,-1],[3,0],[2,1],[1,1],[2,0],[1,-1],[1,1],[1,0],[0,2],[2,0],[0,1],[1,0],[0,1],[1,0],[0,-1],[1,0],[-1,1],[1,0],[0,-3],[1,0],[1,1],[0,3],[2,0],[0,-1],[2,0],[0,-2],[1,0],[0,-1],[1,0],[0,4],[1,1],[0,0],[0,1],[-1,-1],[0,1],[-1,0],[0,-1],[-1,0],[0,1],[-2,0],[0,1],[1,1],[1,-1],[0,1],[2,0],[2,1],[0,1],[1,1],[-1,0],[0,-1],[-1,0],[0,-1],[-2,0],[-1,1],[0,-2],[-4,0],[1,1],[0,3],[1,0],[0,1],[-1,0],[0,1],[3,0],[2,1],[0,1],[1,1],[0,1],[1,-1],[1,0],[0,1],[1,1],[1,0],[0,1],[1,0],[0,-1],[1,0],[0,1],[-1,0],[0,1],[1,0],[0,2],[2,0],[2,1],[1,1],[1,0],[0,1],[1,1],[0,-1],[1,1],[1,-1],[-1,-1],[1,-1],[0,-1],[-1,0],[0,-1],[-1,0],[0,-1],[0,0],[1,-1],[1,1],[0,2],[1,-1],[1,0],[-1,1],[1,0],[0,1],[1,1],[2,0],[2,2],[0,1],[1,0],[0,-2],[-1,0],[0,-2],[1,1],[1,0],[0,1],[1,0],[0,-2],[1,-1],[0,-2],[1,0],[0,2],[1,0],[0,1],[1,0],[1,1],[0,-1],[2,0],[0,-1],[1,0],[0,-1],[1,1],[0,-1],[1,0],[0,-1],[2,0],[0,-1],[1,-1],[0,-1],[1,0],[0,-1],[1,-1],[2,-1],[0,-1],[0,0],[-1,-1],[1,0],[0,1],[4,0],[2,-1],[0,1],[1,0],[1,-1],[0,1],[1,0],[1,-1],[0,1],[1,-1],[2,1],[0,1],[1,0],[0,0],[1,0],[0,-1],[11,0],[2,1],[0,-1],[1,0],[0,0],[1,0],[1,-1],[3,0],[0,1],[2,0],[0,-1],[1,0],[0,1],[2,0],[0,-1],[1,0],[0,1],[3,0],[0,1],[1,0],[0,1],[1,0],[0,-1],[2,0],[0,-1],[6,0],[0,1],[5,0],[0,1],[1,0],[0,2],[2,0],[1,1],[0,1],[1,-1],[1,0],[0,-1],[1,0],[0,-1],[1,0],[0,-2],[1,0],[1,-1],[0,1],[1,0],[0,-2],[3,0],[0,0],[9,0],[1,1],[0,-1],[1,-1],[0,0],[4,0],[3,-3],[0,-1],[1,1],[5,0],[0,-1],[7,0],[1,-1],[3,0],[0,-1],[3,0],[1,-1],[3,0],[0,-1],[5,0],[0,0],[1,0],[1,-1],[1,1],[1,0],[0,-1],[1,0],[1,1],[1,0],[1,-1],[1,0],[0,1],[1,0],[0,-1],[3,0],[1,1],[4,0],[1,1],[2,1],[2,0],[0,0],[1,0],[0,1],[1,0],[0,-1],[1,1],[0,-1],[1,1],[0,1],[1,0],[1,1],[4,0],[1,1],[1,-1],[0,-1],[-1,0],[-1,-1],[0,-1],[1,-1],[-1,0],[1,-1],[0,1],[1,0],[0,2],[1,0],[0,-1],[0,0],[0,1],[1,1],[1,0],[0,1],[1,0],[2,1],[1,0],[1,1],[2,0],[1,-1],[1,0],[0,-1],[1,-1],[2,0],[1,-1],[-1,-1],[-1,0],[0,0],[-1,0],[0,0],[1,0],[0,-1],[1,1],[0,-1],[5,0],[0,-1],[5,0],[0,-1],[1,-1],[1,0],[0,-1],[1,0]],[[633,943],[0,0]],[[625,938],[0,1],[-1,1],[0,-1],[1,-1],[0,0],[0,0]],[[641,979],[0,0]],[[593,977],[0,0]],[[539,987],[0,0]],[[474,995],[0,0]],[[468,997],[0,0]],[[459,994],[0,0]],[[441,980],[0,0]],[[420,914],[0,0]],[[417,927],[0,-1]],[[417,926],[-1,0],[1,1]],[[415,972],[-1,0],[0,1],[1,0],[0,-1]],[[415,919],[0,0]],[[414,918],[0,0]],[[414,917],[0,0]],[[413,898],[1,-1],[-1,0]],[[413,917],[0,0]],[[413,924],[0,-3],[0,0],[0,1],[0,0],[0,1],[-1,0],[0,1],[1,0]],[[413,898],[0,-1]],[[412,901],[0,-1],[-1,0],[0,1],[1,0]],[[412,922],[0,0]],[[412,902],[-1,-1],[0,2],[1,0],[0,-1],[0,0]],[[411,922],[0,0]],[[410,910],[-1,1],[1,0],[0,-1]],[[410,910],[0,0]],[[409,936],[0,0]],[[407,917],[-1,0],[0,1],[1,0],[0,-1]],[[407,919],[0,0]],[[405,920],[0,0]],[[836,931],[2,-2],[0,-2],[1,-1],[2,0],[0,-2],[-1,-2],[-1,-1],[0,-1],[1,0],[-1,-1],[-1,0],[0,-3],[2,-2],[-1,-1],[1,0],[0,-2],[-1,0],[1,-1],[1,0],[-1,-1],[1,-1],[0,-1],[-1,0],[0,-3],[-1,-1],[0,-2]],[[838,901],[1,0]],[[839,901],[-1,-1],[0,-1],[1,-1],[-1,0],[0,-4],[-1,0],[0,-3],[-1,0],[0,-4],[-1,1],[-1,0],[0,-2],[-1,0],[-1,-1],[0,-1],[1,0],[1,-1]],[[833,883],[1,0]],[[834,883],[0,-1],[-1,-1],[1,0],[0,-1],[-1,0],[0,-1],[-1,0],[0,-1],[-1,0],[0,-1],[-2,0],[0,-1],[-1,0],[0,-2],[-1,0],[-2,-1],[0,-1],[-1,0],[0,-1],[-1,0],[0,-1],[-1,0],[0,-2],[-1,0],[1,-1],[0,-1],[1,0],[0,-1],[-1,0],[1,-1],[2,-1],[1,1],[0,-3],[1,0],[0,-1],[-1,0],[0,-2],[-1,0],[0,-1],[-3,0],[0,-2],[1,0],[0,-1],[-1,0],[0,-2],[-1,-1],[3,-3],[-1,0],[0,-3],[1,-1],[0,-3],[-1,0],[0,-1],[-1,1],[0,-1],[-1,0],[0,-3],[-1,0],[-1,-1],[-1,0],[0,-1],[-1,0],[-1,-1],[0,-2],[1,0],[0,-3],[1,0],[1,-1],[0,-2],[1,0],[0,-2],[-1,-1],[0,-1],[-1,0],[0,-4],[1,-2],[0,-1],[-1,-1],[0,-1],[-1,0],[0,-1],[-1,0],[-1,-1],[0,-1]],[[814,811],[1,-1]],[[815,810],[-1,-1],[-2,0],[0,1],[-2,-1],[0,-1],[-1,-1],[0,1],[-1,0],[0,2],[-2,0],[0,-1],[-1,1],[-1,0],[-2,1],[-1,0],[0,2],[-3,0],[0,-1],[-1,-1],[0,-1],[-1,-1],[1,0],[0,-1],[-1,0],[0,-1],[-1,0],[-2,-2],[0,2],[-2,0],[0,-1],[-1,0],[0,-1],[1,0],[-1,-1],[0,-1],[1,0],[1,-1],[1,0],[1,1],[0,-7],[1,0],[0,-2],[-1,0],[0,-1],[-2,0],[0,-2],[1,0],[0,-2],[1,0],[0,-1],[1,-1],[-2,0],[0,-1],[-1,0],[0,-1],[-1,0],[0,-1],[-1,0],[0,-1],[-1,0],[1,-1],[0,-1],[-2,-1],[-1,-1],[-3,0],[-1,1],[-1,-2],[0,-4],[-1,0],[0,-1],[-2,-2],[0,-1],[1,0],[0,-1],[-2,0],[-1,-1],[0,-1],[-4,0],[0,-2],[-1,0],[0,-1],[-1,0],[0,-1],[-1,0],[0,-1],[-1,-1],[1,0],[0,-2],[2,-2],[-2,0],[-1,-1],[0,-1],[-1,0],[-2,2],[1,0],[0,1],[-1,2],[1,0],[0,1],[-2,2],[-8,0]],[[757,762],[0,1]],[[757,763],[-1,0]],[[756,763],[0,1],[-1,1]],[[755,765],[1,1],[1,0],[2,1],[0,2],[-3,3],[-1,0],[-1,-1],[-2,1],[-1,0],[1,1],[0,1],[-1,0],[-1,1],[0,1],[-1,1]],[[749,777],[1,0],[-1,1],[0,-1]],[[749,777],[-1,-1],[0,-3],[-5,0],[0,1]],[[743,774],[0,3],[-1,-1],[-1,0],[0,1],[-2,0],[0,-1],[-3,3],[0,1],[-1,0],[-1,1],[0,1],[-1,0],[0,1],[-1,1]],[[732,784],[-1,-1],[0,-1],[-1,0],[0,1],[1,1],[1,0]],[[732,784],[-1,2],[-1,0],[-1,2],[-1,0],[0,1],[-1,0],[0,1],[1,0],[0,1],[1,1],[0,1],[1,1],[1,0],[0,1],[1,0],[0,2],[-1,1],[1,0],[0,3],[2,0],[0,-1],[2,0]],[[736,799],[0,1]],[[736,800],[1,0],[1,1],[0,1],[-1,1],[1,0],[0,2],[1,0],[0,2],[-1,1],[0,3],[1,1],[-1,0],[1,2],[-1,1],[0,1],[-1,0],[-1,1],[0,1],[-1,1],[0,2],[1,1],[-1,1],[-1,0],[0,2],[-1,0],[0,1],[-1,0],[-3,3],[0,1],[-1,1],[-1,0],[0,1],[-1,0],[-2,1],[0,1],[-1,0],[0,1],[-2,0],[0,1],[-1,0],[0,1],[-1,0],[0,-1],[-3,0],[-1,1],[-2,0],[-1,1],[0,2],[-1,0],[0,4],[-1,0],[0,1],[1,0],[0,3],[1,1],[1,0],[0,4],[1,1],[2,-1],[1,0],[0,-1],[-1,-1],[1,-1],[1,0],[0,1],[2,0],[0,1],[1,0],[0,1],[-1,0],[0,2],[-1,1],[0,4]],[[720,860],[-1,0]],[[719,860],[1,1],[-1,0],[0,1],[-1,0],[0,2],[3,0],[1,-1],[0,2],[1,0],[0,1],[1,0],[0,1],[3,0],[0,2],[-1,0],[1,1],[1,0],[0,2],[-1,0],[0,1],[-1,1],[0,1],[-1,0],[0,1],[1,1],[0,3],[-1,0],[0,2],[-1,1],[1,3],[-1,0],[0,-1],[-2,0],[0,-1],[-2,0],[0,-1],[-1,0],[-1,1],[0,1],[-3,0],[-1,1],[-1,0],[0,4],[-1,0],[-1,1],[0,1],[1,1],[0,2],[-3,0],[-1,-1],[0,1],[-1,-1],[-1,0],[0,2],[-2,1],[-5,0],[-2,-2],[-2,0],[0,-2],[-1,-1],[0,-1],[-1,-2],[-1,-1],[-1,0],[0,1],[-2,0],[-1,-1],[-1,1],[-2,0],[-1,1],[2,2],[1,2],[0,1],[-1,1],[-2,0],[-1,-1],[0,-1],[-1,-1],[1,0],[0,-2],[-2,0],[0,-1],[-1,0],[-1,-1],[-2,2],[0,3],[-5,0],[0,1],[-1,1],[0,1],[-1,0],[0,1],[-1,1],[0,1],[-1,0],[0,1],[1,0],[0,2],[1,1],[-1,1],[1,0],[-1,1],[0,4],[2,0],[0,1]],[[670,912],[-1,0],[0,2],[1,0],[0,-2]],[[670,912],[1,-1]],[[671,911],[0,4],[1,1],[-1,0],[0,1],[-1,1],[0,4],[-1,-1],[-1,0],[0,1],[1,1],[1,0],[0,1],[1,1],[0,2],[-1,0],[0,1],[3,0]],[[673,927],[0,1]],[[673,928],[4,0],[0,-1],[2,0],[1,1],[-1,0],[-1,1],[0,2],[-1,1],[-3,0],[0,1],[-1,0],[0,1],[-1,0],[0,2],[-1,0],[0,-1],[-1,1],[0,-1],[-1,1],[0,-1],[-2,0],[1,1],[0,1],[-1,1],[0,2],[1,0],[0,1],[1,0],[0,2],[-1,0],[0,-1],[-1,0],[-1,-1],[0,1],[-1,0],[-1,-1],[0,-1]],[[664,940],[1,0],[-1,-1],[0,1]],[[664,940],[-1,0],[-1,1],[0,1],[-1,0],[0,2],[1,0],[1,1],[0,2],[3,0],[1,-1],[0,-1],[1,0],[0,-1],[1,0],[0,1],[1,-1],[3,0],[0,1],[1,1],[1,0],[-1,1],[-1,0],[0,1],[-1,0],[0,1],[-2,2],[0,-1],[-2,1],[-2,0],[0,1],[1,0],[0,4],[1,0],[-1,1],[-1,0],[0,3],[1,0],[0,1],[-4,0],[0,1],[-2,0],[0,-1],[-1,0],[-1,-1],[-2,0],[-2,-2]],[[655,958],[0,2],[-1,1],[0,4],[1,0],[1,1]],[[656,965],[0,1]],[[656,966],[0,1],[3,0],[0,1]],[[659,968],[-1,0],[1,1],[0,-1]],[[659,968],[1,0],[0,1],[1,-1],[4,0],[0,1],[2,0],[0,3]],[[667,972],[2,0],[0,1],[1,-1],[1,0],[1,-1],[1,0],[0,2],[-1,0],[0,1],[1,0],[1,1],[1,0],[0,1],[1,0],[0,1],[7,0],[0,1],[2,0],[0,-1],[1,0],[0,-1],[1,0],[0,-1],[1,0],[0,1],[2,0],[0,-1],[1,-1],[0,1],[1,-1],[1,0],[1,-1],[1,1],[2,-2],[0,-1],[2,0],[0,-1],[2,0],[0,-1],[3,0],[1,-1],[1,1],[4,0],[0,-1],[3,0],[0,1],[1,0],[4,1],[1,0],[0,1],[3,0],[1,1],[1,0],[0,1],[1,0],[0,1],[2,0],[0,-1],[1,-1],[0,0],[0,-1],[2,0],[0,-3],[1,1],[1,0],[1,1],[1,-1],[1,0],[0,-3],[2,0],[1,1],[0,1],[3,0],[1,-1],[2,0],[2,-2],[0,-2],[-1,-1],[0,0],[0,-2],[-1,0],[0,-3],[-1,0],[-1,-1],[0,-2],[1,-1],[3,-1],[1,0],[0,4],[1,1],[3,0],[-1,-1],[-1,0],[0,-1],[1,-1],[1,0],[0,-1],[1,0],[0,1],[2,-2],[2,0],[0,-1],[1,0],[0,1],[1,-1],[1,0],[0,-1],[3,0],[0,-1],[1,0],[0,-1],[1,0],[1,-1],[1,0],[0,1],[1,0],[0,-1],[4,0],[1,1],[2,0],[0,-2],[1,-1],[-1,0],[1,-1],[0,-1],[2,0],[0,-1],[1,0],[0,-1],[1,0],[0,-1],[1,0],[0,-2],[2,0],[0,-1],[1,-1],[0,1],[1,1],[0,1],[1,1],[0,-1],[1,0],[0,-1],[4,0],[2,2],[1,0],[0,0],[2,0],[1,-1],[0,-1],[2,0],[0,-1],[1,0],[1,1],[0,-2],[1,0],[1,-1],[0,-2],[2,0],[0,-2],[4,0],[0,1],[1,-1],[2,2],[1,-1],[1,1],[1,0],[1,1],[1,-1],[3,0],[0,-2],[1,-1],[1,0],[0,2],[1,0],[1,1],[1,0],[0,-1],[1,0],[1,-1],[2,0],[0,1],[1,-1],[1,0],[0,1],[1,0],[1,-1],[1,0],[0,1],[1,0],[1,-1],[1,0]],[[681,937],[0,-1],[-1,0],[0,-3],[1,0],[0,-1],[2,0],[0,-1],[1,-1],[0,0],[1,-1],[0,0],[1,0],[0,1],[3,0],[0,-1],[1,0],[1,-1],[1,1],[1,-1],[2,0],[0,3],[-1,0],[0,-1],[-2,0],[0,1],[-1,0],[0,1],[1,0],[1,1],[0,2],[-1,0],[-1,1],[-3,0],[0,1],[-7,0]],[[677,925],[0,1],[-1,0],[0,-1],[1,0]],[[674,926],[0,0]],[[661,963],[1,0],[0,2],[1,1],[-1,1],[-1,-1],[-1,0],[1,-1],[-1,-1],[1,0],[0,-1]],[[688,976],[0,0]],[[672,972],[0,0]],[[664,768],[-4,0],[0,1],[-1,0],[-1,1],[-1,-1],[0,-1],[-1,0],[0,-1],[-2,0],[0,1],[-1,0],[0,-1],[-1,0],[0,1],[-1,-1],[0,-1],[-2,0],[-1,-1],[-1,0],[-1,-1],[-1,0],[1,-1],[-1,0],[-1,-1],[-1,0],[0,-1],[-1,1],[-4,-4],[0,0],[-1,0],[-1,1],[-1,0],[0,1],[1,1],[1,-1],[0,1],[1,1],[0,-1],[1,0],[0,1],[1,0],[0,0],[1,0],[0,2],[1,0],[0,1],[1,1],[1,0],[0,1],[1,0],[0,1],[1,0],[0,2],[0,0],[0,1],[1,0],[-1,1],[-2,1],[-2,0],[0,1],[-1,0],[0,-1],[-2,0],[0,1],[-1,1],[0,0],[-2,0],[0,1],[-3,0],[0,1],[-1,0],[0,-1],[-1,1],[0,1],[-2,0],[-1,1],[0,1],[-1,0],[-1,1],[-1,-1],[-2,0],[0,1],[-1,0],[0,1],[-1,1],[-1,-1],[0,-1],[-1,0],[0,1],[-1,-1],[0,-1],[-2,-2],[0,1],[-2,0],[0,2],[-1,1],[0,2],[-1,0],[0,-2],[-1,-1],[-1,0],[0,-2],[-2,0],[-1,-1],[-1,0],[0,-1],[-2,0],[0,4],[1,0],[0,1],[1,1],[-1,1],[0,2],[1,0],[1,-2],[2,0],[0,2],[1,0],[0,2],[1,2],[4,0],[0,1],[-1,0],[0,1],[1,0],[0,6],[1,1],[0,1],[1,2],[-1,0],[0,1],[1,1],[0,-1],[1,-1],[2,0],[2,1],[0,4],[1,1],[0,1],[1,0],[0,2],[1,0],[0,1],[1,1],[0,1],[1,0],[0,-1],[3,0],[0,1],[1,1],[0,3],[1,0],[0,2],[0,0],[0,2],[1,0],[0,1],[1,1],[0,1],[3,0],[0,1],[1,0],[1,1],[1,0],[0,2],[1,1],[1,0],[0,1],[1,0],[0,1],[1,0],[1,1],[0,1],[1,0],[0,2],[2,0],[1,1],[1,0],[0,-2],[1,0],[1,-2],[0,-1],[3,0],[0,-1],[-1,-1],[0,-1],[1,0],[0,-1],[1,-1],[0,-1],[-1,0],[0,-2],[-1,-1],[0,-2],[-1,0],[0,-1],[1,0],[0,-1],[-1,-1],[0,-1],[-1,-1],[1,0],[-1,-1],[0,-1],[-1,0],[0,-1],[2,0],[1,-1],[0,-3],[-1,-1],[0,-1],[1,0],[0,-1],[1,0],[0,0],[1,0],[0,1],[1,0],[1,-2],[0,0],[0,-1],[1,0],[0,0],[0,-3],[1,0],[0,-1],[1,0],[0,-2],[2,0],[2,-2],[0,-4],[2,0],[0,-2],[1,0],[0,-1],[-1,0],[0,-4],[-1,-1],[0,-1],[-1,-1],[0,-2],[1,0],[0,0],[2,2],[1,0],[0,-1],[1,-1],[0,-5],[1,-1],[-1,0],[0,1],[-1,-1],[2,-2],[0,-2],[-2,-1],[-1,-1],[-2,2],[-1,0],[0,-1]],[[657,804],[0,0],[0,0]],[[664,768],[1,1]],[[665,769],[0,-1],[-1,0]],[[615,805],[0,1],[1,1],[1,-1],[1,0],[0,-1],[-3,0]],[[761,681],[1,0],[0,-7],[-1,-1],[1,-1],[-1,-2],[-2,-2]],[[758,668],[1,0]],[[759,668],[0,-6],[2,0],[2,-1],[0,-1],[1,-1],[0,-3],[-1,-3],[-1,-1],[0,-1],[-1,-1],[0,-3],[1,-1],[0,-1],[1,-1],[0,-1],[1,-1],[0,-1],[1,-2],[1,-1],[0,-1],[3,-3],[0,-1],[1,0],[0,-1],[2,0],[0,-1],[1,0]],[[773,631],[0,-2],[1,-1],[-1,0],[0,2],[-1,0],[0,-1],[-1,-1],[0,-2],[-1,0],[-1,-1],[0,-2],[1,-1],[0,-1],[2,-2],[1,0],[1,-1],[1,0],[0,2],[-1,0],[0,2],[1,-1],[0,-1],[1,-1],[0,-1],[-2,-2],[-2,0],[-1,-1],[-3,0],[0,-1],[-1,0],[-1,-1],[-1,1],[0,0],[-1,1],[0,1],[-1,0],[0,-1],[-4,0],[-1,-1],[-1,0],[0,-1],[1,-1],[-1,0],[-2,1],[0,1],[-1,0],[-1,1],[-1,0],[-1,-1],[0,0],[-3,0],[-2,-2],[-1,0],[0,-2],[-2,0],[-1,-1],[0,-1],[-1,-1],[0,-2],[-1,1],[-1,-1],[-1,0],[0,-1],[-2,0],[-1,-2],[-1,0],[0,-1],[-1,0],[-2,-2],[0,-2],[-3,-3],[0,-1],[-1,0],[-1,-2],[0,-4],[-1,-1],[0,-3],[-1,-1],[0,-2],[-1,0],[0,-4],[-1,-1],[-1,0],[-1,-1],[0,-1],[-1,0],[0,-1],[-1,0],[0,-3],[-1,0],[-1,-1],[0,-1],[-1,0],[0,-2],[-1,-1],[-1,0],[0,-1],[-1,-1],[-3,0],[0,1],[-2,3],[-3,3],[-2,0],[-2,-1],[-1,-1],[0,1],[-1,0],[-1,1],[-1,-1],[-3,0],[0,-1],[-1,-2],[-1,0],[0,-3],[-2,-1],[0,-1],[-1,0],[-1,-1],[-1,1],[-1,-1],[-1,0],[-1,1],[0,1],[-2,0],[0,-1],[-1,0],[-1,1],[0,1],[-2,2],[-1,-1],[-6,0],[-2,1],[-1,-1],[-1,0],[-1,1],[-1,-1],[0,1],[-2,0],[0,-1],[-3,0],[-2,-2],[-2,0],[0,-1],[-3,0],[0,1],[-1,0],[0,1],[-1,0],[-1,-1],[-2,2],[-3,0],[0,-1],[-1,0],[-1,1],[-1,-1],[-1,1],[0,-1],[-1,1],[-1,0],[-1,1],[-2,0],[0,-1],[-2,0],[-1,-1],[-1,0],[-2,1],[-4,0],[0,-1],[-1,0],[-3,-1],[-7,0],[-1,1],[-2,0],[0,0],[-1,-1],[0,-1],[-1,-2],[-2,-2],[0,-2],[-1,0],[0,-1],[-3,0],[-1,-1],[0,-2],[-2,-2],[-2,0],[-1,-1],[-1,0],[-4,1],[-1,1],[-2,-1],[-2,0],[0,-1],[-1,0],[-1,-1],[-2,0],[0,-1],[-2,0],[-1,-1],[-1,0],[-1,-1],[-1,0],[-1,-2],[-1,-1],[-1,-3],[0,-1],[-1,0],[0,-1],[-1,-1],[0,-2],[-1,0],[0,-1],[-1,-2],[0,-2],[-1,0],[-1,1],[-2,0],[-1,-1],[0,-2],[0,0],[0,-1],[1,0],[-1,-1],[1,-1],[-2,-2],[-1,1],[0,-1],[-1,0],[-1,-1],[-2,-1],[-1,0],[-1,1],[0,1],[-1,0],[-1,1],[-2,0],[-2,1],[-1,1],[0,-1],[-1,0],[-1,1],[0,2],[-1,0],[-1,2],[-2,2],[-1,0],[-1,-1],[-1,0],[-2,1],[0,-1],[-2,4],[0,1],[-1,1],[0,1],[-1,0],[-1,1],[-1,2],[0,1],[-2,2],[0,1],[-1,1],[0,2],[-1,0],[0,1],[2,0],[0,1],[1,0],[0,2],[1,0],[-1,1],[0,-1],[-2,0],[0,-1],[-1,1],[0,1],[1,0],[0,3],[-2,0],[0,2],[-2,0],[0,1],[-1,0],[-1,-1],[-1,1],[0,2],[-1,0],[0,2],[-1,1],[0,2],[1,0],[0,1],[1,0],[2,2],[0,1],[-1,-1],[-1,1],[-1,2],[0,1],[-1,3],[-1,1],[-2,3],[-4,3],[-6,4],[0,1],[-3,2],[-2,0],[-2,2],[-3,0],[0,1],[-3,2],[-9,0],[-3,-1],[-2,0],[0,-1],[-3,0],[0,3],[-1,1],[0,3],[-1,2],[0,2],[1,1],[-1,1],[0,1],[-1,0],[1,1],[0,2],[-1,1],[0,2],[-1,0],[0,1],[-1,0],[0,4],[1,0],[0,1],[1,1],[0,2],[1,0],[0,4],[1,1],[0,2],[1,0],[4,4],[0,1],[1,0],[0,4],[1,0],[0,1],[1,0],[0,3],[-1,1],[2,0],[1,1],[3,0],[0,2],[1,0],[1,1],[0,-1],[1,0],[0,-1],[3,0],[0,5],[1,0],[0,2],[1,0],[0,2],[-1,0],[1,1],[0,1],[1,0],[0,1]],[[499,654],[0,-1],[1,0],[2,-1],[3,0],[0,-2],[-1,-1],[0,-1],[2,0],[0,-1],[7,0],[2,-3],[-1,0],[0,-1],[1,-1],[0,1],[1,0],[1,-1],[2,0]],[[519,642],[0,-1],[1,1],[-1,0]],[[519,642],[2,2],[-1,0],[1,1],[1,-1],[2,0],[0,-2],[1,-1],[1,0],[1,-1],[0,-1],[3,0],[0,-1],[1,0],[0,1],[1,-1],[0,-1],[1,1],[1,0],[0,1],[1,1],[2,0],[1,1],[1,0],[1,-1],[1,1],[1,0],[1,1],[0,2],[1,0],[0,4],[1,1],[1,0],[0,2],[1,0],[0,1],[1,0]],[[548,651],[0,1]],[[548,652],[4,0],[0,1],[1,0],[0,-1],[1,0],[0,-2],[-1,-1],[-1,0],[0,-3],[2,0],[1,1],[0,1],[1,1],[3,0],[0,1],[1,0],[0,1],[1,0],[0,2],[1,1],[0,2],[-1,1],[0,2],[-1,1],[0,1],[-1,0],[1,2],[0,1],[-1,0],[0,3],[1,1],[2,1]],[[562,670],[0,-1]],[[562,669],[1,0],[0,1],[2,2],[1,0],[0,1],[1,0],[-1,1],[1,0],[0,1]],[[567,675],[1,-1],[0,1]],[[567,675],[1,0]],[[568,675],[0,2],[3,0],[0,1],[1,1],[1,0],[0,1],[1,0],[1,1],[0,1],[2,0],[0,3],[5,0],[0,1],[2,0],[0,-1],[1,-1],[1,0],[0,-1],[5,0],[0,-4],[1,0],[1,-1],[1,0],[1,-1],[2,0],[0,-1],[1,0],[0,-1],[2,0],[0,-1],[1,-1],[1,0],[0,-2],[2,0],[1,-1]],[[605,671],[0,-1]],[[605,670],[2,0],[0,-2],[1,0],[0,-1],[1,0],[0,-1],[1,0],[0,-1],[2,0],[2,-1],[1,-1],[1,0],[0,-1],[1,0],[0,4],[1,0],[1,-1],[4,0],[1,-1],[0,1],[1,-1],[11,0],[0,1],[1,0],[0,2],[5,0],[1,-1],[2,0],[1,-1],[1,1],[1,0],[0,3],[2,-1],[0,-2],[5,0],[0,1],[1,0],[0,1],[1,0],[0,2],[2,1],[1,0],[0,-1],[1,0],[0,-1],[5,0],[1,-1],[1,0],[0,1],[1,0],[2,1],[2,-2],[0,-1],[1,-1],[0,3],[1,0],[0,1],[3,0],[1,-1],[0,1],[1,0],[0,1],[1,0]],[[681,670],[0,1]],[[681,671],[1,1],[1,0]],[[683,673],[0,-1]],[[683,672],[1,0],[0,2],[1,-1],[1,0],[1,-1],[3,0],[1,1],[2,-2],[0,-3],[-1,-1],[1,0],[0,-1],[4,0],[0,-1],[-1,-1],[1,-1],[0,-4],[1,0],[1,-1],[0,-1],[-1,0],[0,-1],[1,-1],[-1,0],[0,-3],[-1,0],[0,-2],[-1,-1],[-1,0],[0,-1],[-1,-2],[1,-1],[1,0],[1,-1],[2,0],[0,-1],[2,0],[0,-1],[1,0],[1,1],[0,2],[1,0],[0,1],[1,0],[1,2],[1,1],[0,1],[1,1],[0,2],[1,0],[2,2],[2,1],[2,2],[0,1],[1,1],[1,-1],[1,0],[1,-1],[3,1],[1,1],[1,0],[0,1],[1,0],[2,2]],[[727,663],[0,0]],[[727,663],[0,1],[1,0]],[[728,664],[0,0]],[[728,664],[3,0]],[[731,663],[0,1]],[[731,664],[1,-1],[0,-2],[1,0],[0,-1],[3,0],[2,1],[0,1],[1,0],[2,2],[0,9],[-1,1],[1,1],[0,1],[1,1],[1,2],[0,2],[1,2],[1,1],[2,0],[0,-1],[1,0],[3,3],[0,1],[3,1],[1,-1],[2,0],[0,-2],[1,0],[0,-1],[1,-1],[2,-1],[0,-1]],[[776,624],[0,0]],[[775,625],[0,0]],[[774,625],[0,0]],[[774,620],[0,0]],[[774,627],[0,-1],[-1,1],[0,1],[1,-1]],[[773,622],[-1,0],[1,1],[0,-1]],[[772,622],[-1,0],[1,1],[0,-1]],[[699,466],[-1,0],[1,1]],[[699,467],[0,-1]],[[677,473],[0,0]],[[677,472],[-1,0],[-1,1],[0,2],[1,0],[0,-1],[1,-1],[-1,0],[1,-1]],[[672,513],[0,0]],[[569,511],[1,0],[1,-1],[0,1],[1,0],[-1,-1],[-1,0],[0,-1],[-1,0],[-1,1],[0,2],[1,0],[0,-1]],[[566,512],[0,0]],[[558,517],[0,0]],[[529,548],[0,-1],[-2,3],[0,0],[1,0],[0,-1],[1,-1]],[[528,550],[0,0]],[[519,563],[0,0]],[[208,99],[3,-3],[-1,-2],[-1,-1],[0,-6],[-1,-1],[1,0],[0,-1],[-1,0],[0,-1],[-1,0],[-2,-2],[-2,-1],[-1,0],[0,-1],[-1,0],[0,-1],[-4,0],[-1,-1],[0,-2],[-2,-2],[0,1],[-1,0],[0,1],[-1,-1],[-1,1],[0,-1],[-1,1],[0,1],[2,2],[0,6],[1,1],[0,1],[1,0],[2,2],[2,0],[0,1],[1,0],[0,1],[1,0],[0,1],[1,0],[0,0],[1,0],[0,1],[1,0],[0,-1],[1,0],[1,-1],[0,1],[1,1],[0,2],[1,0],[0,3]],[[208,99],[-1,-1]],[[207,98],[-2,0],[0,1],[1,0],[0,2],[1,1],[1,-1],[0,-2]],[[206,108],[0,2],[1,0],[0,-1],[0,0],[0,-1],[-1,0]],[[206,102],[-1,0],[0,1],[1,0],[0,-1]],[[193,68],[-1,0],[0,1],[1,1],[0,-2]],[[190,69],[0,-1],[1,0],[1,-1],[0,-3],[1,-5],[-1,-1],[0,-1],[1,0],[-1,-1],[0,-2],[-1,-1],[0,-4],[1,-1],[0,-1],[-1,0],[-1,-3],[0,-2],[-1,0],[0,-4],[-1,0],[0,-1],[-1,-1],[-2,0],[-1,-1],[-2,0],[-2,-1],[-2,0],[0,-1],[-2,0],[-2,-2],[-1,-3],[-2,-1],[0,-2],[-1,0],[-1,1],[-2,0],[-2,1],[-2,0],[0,2],[2,0],[6,2],[0,1],[1,0],[0,1],[2,1],[0,1],[1,1],[0,2],[1,0],[0,1],[-1,1],[1,1],[0,2],[1,1],[0,1],[1,0],[0,4],[1,1],[1,2],[1,1],[0,1],[1,2],[0,1],[1,1],[0,3],[1,0],[0,6],[1,-1],[0,1],[1,1],[2,0],[0,1],[2,0]],[[121,30],[1,0],[0,-5],[1,0],[0,-1],[1,-2],[0,-1],[-1,0],[0,-1],[1,0],[0,-2],[-1,0],[0,-5],[-1,0],[0,-2],[-1,-1],[-2,0],[-1,-1],[-1,0],[0,-1],[-2,0],[0,-2],[-2,0],[0,1],[-3,0],[0,1],[-1,0],[0,1],[-1,0],[0,1],[-1,0],[0,1],[-1,0],[-1,1],[0,2],[-1,2],[-1,1],[0,1],[1,1],[-1,1],[0,1],[1,1],[0,1],[1,0],[1,1],[0,1],[1,0],[0,1],[1,0],[0,1],[1,0],[0,6],[1,0],[0,-1],[1,0],[0,1],[1,0],[2,-2],[2,0],[1,1],[1,-1],[1,0],[0,-1],[1,0],[1,1],[0,2],[1,1],[0,-3],[-1,0],[0,-1]],[[90,58],[1,-1],[-1,-1],[0,-1],[-1,0],[0,-1],[-1,0],[-1,-1],[-1,0],[-1,-1],[0,-2],[-1,0],[0,-1],[-1,0],[-1,-1],[0,-1],[-1,0],[-1,-1],[0,-5],[-1,-1],[0,-1],[-1,-1],[0,-2],[-1,0],[0,-5],[-1,0],[0,-1],[-1,0],[0,-2],[-1,0],[0,-1],[-1,0],[0,-1],[-1,-1],[0,-1],[-3,0],[-1,-1],[-1,0],[-1,-1],[-1,1],[0,1],[-2,2],[0,2],[-1,1],[-2,3],[0,2],[-1,0],[0,2],[-1,1],[1,1],[0,1],[-1,0],[0,1],[-1,1],[0,1],[-1,0],[0,1],[-1,1],[0,1],[1,0],[2,1],[1,1],[1,-1],[2,0],[1,-1],[0,1],[2,0],[0,1],[5,0],[1,1],[2,0],[1,1],[0,0],[1,1],[0,1],[1,0],[0,1],[1,0],[0,2],[2,2],[1,0],[1,1],[0,1],[4,0],[1,-1],[1,1],[1,0],[1,1],[1,-1]],[[89,59],[0,0]],[[62,46],[0,0]],[[40,35],[3,0],[0,-1],[1,-1],[1,0],[0,-1],[1,0],[1,-1],[0,-3],[-4,-4],[-4,0],[0,1],[-1,0],[0,1],[-1,0],[0,2],[-1,0],[0,4],[1,0],[0,3],[2,0],[0,1],[1,0],[0,-1]],[[11,75],[1,-1],[4,0],[0,1],[1,-1],[0,-1],[1,-1],[0,-2],[1,-1],[0,-2],[-1,-1],[0,-1],[-1,-1],[0,-1],[1,0],[0,-5],[-2,-4],[-1,-1],[0,-2],[-1,-1],[0,1],[-1,1],[0,2],[-1,2],[0,2],[-1,0],[0,1],[-1,0],[0,1],[-1,3],[0,2],[-1,1],[0,1],[-1,1],[0,4],[1,0],[0,1],[1,0],[0,1],[1,0],[0,1],[1,0]],[[11,13],[1,-1],[0,-2],[-1,-1],[0,-1],[-1,-1],[0,-1],[-1,0],[0,-3],[-1,-1],[0,-2],[-1,0],[0,1],[-1,2],[-1,0],[-3,1],[-1,0],[-1,1],[0,2],[1,1],[1,0],[0,-1],[2,0],[1,1],[1,0],[2,2],[0,1],[-1,0],[2,2],[2,0]]]}