{"type":"Topology","objects":{"data":{"geometries":[{"properties":{"index":524,"nuts_3_code":"ES120","nuts_3_name":"Asturias"},"type":"MultiPolygon","arcs":[[[-96,-4,-196,-195,194,-194,-193,192,-192,-191,190,-190,-189,188,-188,0]],[[1]],[[2]]],"id":0},{"properties":{"index":525,"nuts_3_code":"ES423","nuts_3_name":"Cuenca"},"type":"Polygon","arcs":[[-340,-339,-338,-594,-337,-590,-589,588,-588,-587,-586,-585,-279,-323,-62,-11,-10,-9,-8,-7,6,-6]],"id":1},{"properties":{"index":526,"nuts_3_code":"ES243","nuts_3_name":"Zaragoza"},"type":"Polygon","arcs":[[-524,-536,-350,-349,-348,-347,346,-346,-345,344,-344,-5,-103,-102,101,-101,-230,-206,-289,-288,287,-287,-286,-285,-284,283,-283,-282,281,-281],[217],[218]],"id":2},{"properties":{"index":529,"nuts_3_code":"ES413","nuts_3_name":"Le\u00f3n"},"type":"Polygon","arcs":[[-24,-184,-183,182,-182,-256,-187,186,-186,-278,-277,276,-276,-275,-274,-273,-272,271,-271,-270,269,-269,-253,-252,251,-251,-199,-198,197,-197,3,-95,94,-94,-93,92,-92],[184]],"id":3},{"properties":{"index":531,"nuts_3_code":"ES424","nuts_3_name":"Guadalajara"},"type":"MultiPolygon","arcs":[[[4,-343,-342,341,-341,5,-7,6,7,-9,9,-20,-19,18,-18,-17,16,-16,-15,14,-14,-13,12,-12,-44,-43,42,-42,-111,-110,-109,-108,-107,106,-106,-105,-104]],[[20]]],"id":4},{"properties":{"index":532,"nuts_3_code":"ES300","nuts_3_name":"Madrid"},"type":"MultiPolygon","arcs":[[[10,-78,78,-77,-76,75,-75,-74,73,-73,72,-72,-71,70,-70,-69,68,-68,-23,-47,-46,45,-45,11,-13,12,13,-15,14,15,-17,16,17,-19,18,19],[20]],[[-79,-80]],[[-49,-22]]],"id":5},{"properties":{"index":533,"nuts_3_code":"ES411","nuts_3_name":"\u00c1vila"},"type":"Polygon","arcs":[[-50,21,-48,22,-67,-66,65,-65,-64,63,-63,-408,-31,-30,-29,-28,27,-27,-26,25,-25,-178,-177,176,-176,-175,174,-174]],"id":6},{"properties":{"index":535,"nuts_3_code":"ES414","nuts_3_name":"Palencia"},"type":"MultiPolygon","arcs":[[[87,-36,39,-35,-34,33,-33,-165,-164,163,-163,-162,161,-161,23,-91,-90,89,-89,-88],[40]],[[-37,-86,-85,-84]],[[37]],[[38]],[[98]],[[39,-40]]],"id":7},{"properties":{"index":536,"nuts_3_code":"ES415","nuts_3_name":"Salamanca"},"type":"Polygon","arcs":[[-181,-180,179,-179,24,-26,25,26,-28,27,28,29,30,-421,31,-264]],"id":8},{"properties":{"index":537,"nuts_3_code":"ES412","nuts_3_name":"Burgos"},"type":"MultiPolygon","arcs":[[[121]],[[-121,145,-145,-120,-119,-118,-237,-236,235,-235,-234,-233,233,-232,-117,-116,115,-115,-61,-60,59,-59,-58,57,-57,-56,55,-55,-54,53,-53,-52,-51,-168,-167,166,-166,32,-34,33,34,-40,35,-88,-87,36,-83,-82,81,-81,-136],[37],[38],[-40,39]],[[237]],[[238]],[[97]],[[40]]],"id":9},{"properties":{"index":540,"nuts_3_code":"ES416","nuts_3_name":"Segovia"},"type":"Polygon","arcs":[[-114,-113,112,-112,41,-43,42,43,44,-46,45,46,47,48,49,-173,-172,171,-171,-170,169,-169,50,-52,52,-54,53,54,-56,55,56,-58,57,58,-60,59,60]],"id":10},{"properties":{"index":541,"nuts_3_code":"ES425","nuts_3_name":"Toledo"},"type":"Polygon","arcs":[[61,-335,-334,333,-333,-332,331,-331,-330,329,-329,-385,-336,-410,-409,62,-64,63,64,-66,65,66,67,-69,68,69,-71,70,71,-73,72,-74,73,74,-76,75,76,-79,77],[78,79]],"id":11},{"properties":{"index":543,"nuts_3_code":"ES130","nuts_3_name":"Cantabria"},"type":"MultiPolygon","arcs":[[[-141,139,-139,-138,137,-137,80,-82,81,82,83,84,85,86,87,88,-90,89,90,91,-93,92,93,-95,94,95,96],[97],[98]],[[142]],[[99]]],"id":12},{"properties":{"index":546,"nuts_3_code":"ES417","nuts_3_name":"Soria"},"type":"Polygon","arcs":[[100,-102,101,102,103,-105,105,-107,106,107,-109,-110,109,110,111,-113,112,113,114,-116,115,116,-231]],"id":13},{"properties":{"index":547,"nuts_3_code":"ES211","nuts_3_name":"Araba/\u00c1lava"},"type":"Polygon","arcs":[[-127,-126,125,-125,-124,123,-123,-211,-210,209,-209,-208,207,-207,-222,-221,220,-220,117,-119,119,-151,-150,149,-149,-148,147,-147,-146,120,-135,-134,-133,133,-132],[121]],"id":14},{"properties":{"index":548,"nuts_3_code":"ES212","nuts_3_name":"Gipuzkoa"},"type":"Polygon","arcs":[[-216,214,-214,-213,212,-212,122,-124,123,124,-126,125,126,-131,-130,129,-129,127]],"id":15},{"properties":{"index":549,"nuts_3_code":"ES213","nuts_3_name":"Bizkaia"},"type":"MultiPolygon","arcs":[[[128,-130,129,130,131,-134,132,133,134,135,136,-138,137,138,139,140,141],[142]],[[143]],[[144,-146,145,146,-148,147,148,-150,149,150]],[[151]]],"id":16},{"properties":{"index":553,"nuts_3_code":"ES111","nuts_3_name":"A Coru\u00f1a"},"type":"MultiPolygon","arcs":[[[-202,-201,200,-200,-306,-305,304,-304,152]],[[153]],[[154]],[[155]],[[156]],[[157]],[[158]],[[159]]],"id":17},{"properties":{"index":554,"nuts_3_code":"ES418","nuts_3_name":"Valladolid"},"type":"MultiPolygon","arcs":[[[160,-162,161,162,-164,163,164,165,-167,166,167,168,-170,169,170,-172,171,172,173,-175,174,175,-177,176,177,178,-180,179,180,-263,-262,261,-261,-260,259,-259,-258,257,-257,181,-183,182,183]],[[184]],[[-255,185,-187,186]]],"id":18},{"properties":{"index":556,"nuts_3_code":"ES112","nuts_3_name":"Lugo"},"type":"MultiPolygon","arcs":[[[187,-189,188,189,-191,190,191,-193,192,193,-195,194,195,196,-198,197,198,-250,-249,248,-248,-247,-246,245,-245,-244,-243,242,-242,-241,240,-240,-292,-291,290,199,-201,200,201,202]],[[203]],[[204]]],"id":19},{"properties":{"index":557,"nuts_3_code":"ES220","nuts_3_name":"Navarra"},"type":"MultiPolygon","arcs":[[[-290,205,-229,-228,227,-227,-226,225,-225,-224,223,-223,206,-208,207,208,-210,209,210,211,-213,212,213,214,215,216]],[[217]],[[218]]],"id":20},{"properties":{"index":558,"nuts_3_code":"ES230","nuts_3_name":"La Rioja"},"type":"Polygon","arcs":[[219,-221,220,221,222,-224,223,224,-226,225,226,-228,227,228,229,230,231,-234,-233,233,234,-236,235,236],[237],[238]],"id":21},{"properties":{"index":560,"nuts_3_code":"ES113","nuts_3_name":"Ourense"},"type":"Polygon","arcs":[[239,-241,240,241,-243,242,243,244,-246,245,246,247,-249,248,249,250,-252,251,252,-268,-267,266,-266,253,-301,-300,299,-299,-298,297,-297,-296,295,-295,-294,293,-293]],"id":22},{"properties":{"index":561,"nuts_3_code":"ES419","nuts_3_name":"Zamora"},"type":"Polygon","arcs":[[254,255,256,-258,257,258,-260,259,260,-262,261,262,263,264,265,-267,266,267,268,-270,269,270,-272,271,272,273,-275,274,275,-277,276,277]],"id":23},{"properties":{"index":563,"nuts_3_code":"ES421","nuts_3_name":"Albacete"},"type":"Polygon","arcs":[[-560,-497,-496,495,-495,-494,-493,-492,-491,-376,-407,-328,-327,326,-326,-325,324,-324,278,-584,-583,582,-582,-581,-580,-579,-578,-577,-576,575,-575]],"id":24},{"properties":{"index":564,"nuts_3_code":"ES241","nuts_3_name":"Huesca"},"type":"Polygon","arcs":[[279,-529,-528,527,-527,-526,525,-525,280,-282,281,282,-284,283,284,285,286,-288,287,288,289]],"id":25},{"properties":{"index":567,"nuts_3_code":"ES114","nuts_3_name":"Pontevedra"},"type":"MultiPolygon","arcs":[[[-291,290,291,292,-294,293,294,-296,295,296,-298,297,298,-300,299,300,301,-308,302,303,-305,304,305]],[[306]],[[307,308]],[[309]],[[310]],[[311]],[[-316,312]],[[313]],[[314]],[[315,-316]],[[316]],[[317]],[[318]],[[319]],[[320]],[[321]]],"id":26},{"properties":{"index":569,"nuts_3_code":"ES422","nuts_3_name":"Ciudad Real"},"type":"MultiPolygon","arcs":[[[322,323,-325,324,325,-327,326,327,-406,-405,404,-404,-403,402,-402,-401,-362,-361,360,-360,-389,-388,-387,386,-386,328,-330,329,330,-332,331,332,-334,333,334]],[[-384,-410,335]]],"id":27},{"properties":{"index":570,"nuts_3_code":"ES242","nuts_3_name":"Teruel"},"type":"Polygon","arcs":[[-535,-534,533,-567,-593,-592,591,-591,336,-597,-596,-595,337,-339,339,340,-342,341,342,343,-345,344,345,-347,346,347,-349,349]],"id":28},{"properties":{"index":698,"nuts_3_code":"ES532","nuts_3_name":"Mallorca"},"type":"MultiPolygon","arcs":[[[620,621]],[[620,-621]],[[616]],[[618]],[[615]],[[617]],[[614]],[[350]]],"id":29},{"properties":{"index":699,"nuts_3_code":"ES533","nuts_3_name":"Menorca"},"type":"MultiPolygon","arcs":[[[351]],[[622]],[[624]],[[625]],[[626]]],"id":30},{"properties":{"index":700,"nuts_3_code":"ES611","nuts_3_name":"Almer\u00eda"},"type":"MultiPolygon","arcs":[[[352,-371,-370,369,-369,-368,367,-367,-366,365,-365,-364,363,-363,-489]],[[353]]],"id":31},{"properties":{"index":702,"nuts_3_code":"ES612","nuts_3_name":"C\u00e1diz"},"type":"MultiPolygon","arcs":[[[-426,-425,424,-424,354,-390,-479,-478,-477,476,-476,-475,474,-474,-473,472,-472,-471,470,-470,468,-468]],[[355]],[[356]],[[357]],[[358]]],"id":32},{"properties":{"index":707,"nuts_3_code":"ES613","nuts_3_name":"C\u00f3rdoba"},"type":"MultiPolygon","arcs":[[[-400,-399,398,-398,-375,-374,373,-373,-430,-429,-428,427,-427,-464,-463,461,-461,-460,-459,458,-458,-457,456,-456,-455,454,-454,-453,452,-452,-382,-381,380,-380,-379,-378,377,-377,-389,359,-361,360,361,-401,400]],[[483]],[[484]],[[485]],[[486]]],"id":33},{"properties":{"index":708,"nuts_3_code":"ES614","nuts_3_name":"Granada"},"type":"Polygon","arcs":[[-490,362,-364,363,364,-366,365,366,-368,367,368,-370,369,370,371,-422,-430,372,-374,373,374,-397,-396,395,-395,375]],"id":34},{"properties":{"index":709,"nuts_3_code":"ES431","nuts_3_name":"Badajoz"},"type":"Polygon","arcs":[[376,-378,377,378,379,-381,380,381,-483,-482,481,-481,-394,392,-392,382,-419,-418,417,-417,-416,415,-415,-414,413,-413,-412,411,-411,383,384,385,-387,386,387,388]],"id":35},{"properties":{"index":710,"nuts_3_code":"ES615","nuts_3_name":"Huelva"},"type":"Polygon","arcs":[[-480,-479,478,389,390,391,392,393]],"id":36},{"properties":{"index":711,"nuts_3_code":"ES616","nuts_3_name":"Ja\u00e9n"},"type":"Polygon","arcs":[[394,-396,395,396,397,-399,398,399,400,401,-403,402,403,-405,404,405,406]],"id":37},{"properties":{"index":712,"nuts_3_code":"ES432","nuts_3_name":"C\u00e1ceres"},"type":"Polygon","arcs":[[407,408,409,410,-412,411,412,-414,413,414,-416,415,416,-418,417,418,419,420]],"id":38},{"properties":{"index":713,"nuts_3_code":"ES617","nuts_3_name":"M\u00e1laga"},"type":"Polygon","arcs":[[421,422,423,-425,424,425,-467,-466,465,-465,426,-428,427,428,429]],"id":39},{"properties":{"index":714,"nuts_3_code":"ES511","nuts_3_name":"Barcelona"},"type":"MultiPolygon","arcs":[[[430,-550,548,-548,-547,546,-546,-545,544,-544,-543,542,-542,-523,-522,521,-521,-520,519,-519,-518,517,-517,-516,-447,-446,445,-445,-444,442,-442,-441,-440,-439,438,-438,-437,436,-436,-435,434,-434,-433,432,-432],[449],[531],[550]],[[530]]],"id":40},{"properties":{"index":715,"nuts_3_code":"ES512","nuts_3_name":"Girona"},"type":"MultiPolygon","arcs":[[[431,-433,432,433,-435,434,435,-437,436,437,-439,438,439,440,441,442,443,444,-446,445,446,515,-516,-515,-514,513,-513,447]],[[448]],[[449]],[[450]]],"id":41},{"properties":{"index":716,"nuts_3_code":"ES618","nuts_3_name":"Sevilla"},"type":"Polygon","arcs":[[451,-453,452,453,-455,454,455,-457,456,457,-459,458,459,460,461,462,463,464,-466,465,466,467,-469,469,-471,470,471,-473,472,473,-475,474,475,-477,476,477,478,479,480,-482,481,482],[483],[484],[485],[486]],"id":42},{"properties":{"index":717,"nuts_3_code":"ES620","nuts_3_name":"Murcia"},"type":"MultiPolygon","arcs":[[[-559,-558,557,-557,487,488,489,490,491,492,493,494,-496,495,496]],[[497]],[[498]],[[499]],[[500]],[[501]],[[502]],[[503]]],"id":43},{"properties":{"index":718,"nuts_3_code":"ES630","nuts_3_name":"Ceuta"},"type":"MultiPolygon","arcs":[[[504]],[[505]]],"id":44},{"properties":{"index":719,"nuts_3_code":"ES640","nuts_3_name":"Melilla"},"type":"MultiPolygon","arcs":[[[507,-508]],[[506,507]],[[508]],[[509]]],"id":45},{"properties":{"index":720,"nuts_3_code":"ES703","nuts_3_name":"El Hierro"},"type":"Polygon","arcs":[[510]],"id":46},{"properties":{"index":721,"nuts_3_code":"ES704","nuts_3_name":"Fuerteventura"},"type":"MultiPolygon","arcs":[[[640]],[[639]]],"id":47},{"properties":{"index":722,"nuts_3_code":"ES705","nuts_3_name":"Gran Canaria"},"type":"Polygon","arcs":[[638]],"id":48},{"properties":{"index":723,"nuts_3_code":"ES706","nuts_3_name":"La Gomera"},"type":"Polygon","arcs":[[511]],"id":49},{"properties":{"index":724,"nuts_3_code":"ES707","nuts_3_name":"La Palma"},"type":"Polygon","arcs":[[632]],"id":50},{"properties":{"index":726,"nuts_3_code":"ES513","nuts_3_name":"Lleida"},"type":"MultiPolygon","arcs":[[[512,-514,513,514,515,516,-518,517,518,-520,519,520,-522,521,522,-541,-540,539,-539,-538,537,-537,523,524,-526,525,526,-528,527,528,529],[530]],[[531]]],"id":51},{"properties":{"index":727,"nuts_3_code":"ES514","nuts_3_name":"Tarragona"},"type":"MultiPolygon","arcs":[[[532,-565,-534,533,534,535,536,-538,537,538,-540,539,540,541,-543,542,543,-545,544,545,-547,546,547,548,549]],[[550]],[[551]],[[552]]],"id":52},{"properties":{"index":728,"nuts_3_code":"ES708","nuts_3_name":"Lanzarote"},"type":"MultiPolygon","arcs":[[[-635,633]],[[634,635]],[[637]],[[636]]],"id":53},{"properties":{"index":729,"nuts_3_code":"ES709","nuts_3_name":"Tenerife"},"type":"MultiPolygon","arcs":[[[553]],[[631]],[[630]]],"id":54},{"properties":{"index":731,"nuts_3_code":"ES521","nuts_3_name":"Alicante/Alacant"},"type":"MultiPolygon","arcs":[[[554,-561,555,556,-558,557,558,559,-574,-573,572,-572,-571,570,-570]],[[560,-561]],[[561]],[[562]],[[562]]],"id":55},{"properties":{"index":732,"nuts_3_code":"ES522","nuts_3_name":"Castell\u00f3n/Castell\u00f3"},"type":"MultiPolygon","arcs":[[[563]],[[564,565,-568,566]]],"id":56},{"properties":{"index":735,"nuts_3_code":"ES523","nuts_3_name":"Valencia/Val\u00e8ncia"},"type":"MultiPolygon","arcs":[[[567,568,569,-571,570,571,-573,572,573,574,-576,575,576,577,578,579,580,581,-583,582,583,584,585,586,587,-589,588,589,590,-592,591,592]],[[593,594,-596,596]]],"id":57},{"properties":{"index":738,"nuts_3_code":"ES531","nuts_3_name":"Eivissa y Formentera"},"type":"MultiPolygon","arcs":[[[613]],[[597]],[[600]],[[603]],[[607]],[[598]],[[602]],[[599]],[[609]],[[609]],[[606]],[[605]],[[608]],[[610]]],"id":58},{"properties":{"index":1798,"nuts_3_code":"ES53X","nuts_3_name":"Illes Balears"},"type":"MultiPolygon","arcs":[[[600]],[[601]],[[602]],[[603]],[[604]],[[605]],[[606]],[[607]],[[608]],[[609]],[[610]],[[611]],[[612]],[[613]],[[614]],[[615]],[[616]],[[617]],[[618]],[[620,-621]],[[619]],[[620,621]],[[622]],[[623]],[[624]],[[625]],[[626]]],"id":59},{"properties":{"index":1799,"nuts_3_code":"ES70X","nuts_3_name":"Canarias A"},"type":"MultiPolygon","arcs":[[[627]],[[628]],[[629]],[[630]],[[631]],[[632]],[[-635,633]],[[634,635]],[[636]],[[637]]],"id":60},{"properties":{"index":1800,"nuts_3_code":"ES70Y","nuts_3_name":"Canarias B"},"type":"MultiPolygon","arcs":[[[638]],[[639]],[[640]]],"id":61}],"type":"GeometryCollection"}},"bbox":[-18.160019171016827,27.638498635459968,4.3202017420658905,43.789257944543465],"transform":{"scale":[0.022502723636719436,0.016166926235318815],"translate":[-18.160019171016827,27.638498635459968]},"arcs":[[[495,984],[0,1],[1,-1],[2,1],[0,1],[1,0],[0,0],[1,0],[0,-1],[11,0],[2,1],[0,-1],[1,0],[0,0],[1,0],[1,-1],[3,0],[0,1],[2,0],[0,-1],[1,0],[0,1],[2,0],[0,-1],[1,0],[0,1],[3,0],[0,1],[1,0],[0,1],[1,0],[0,-1],[2,0],[0,-1],[6,0],[0,1],[5,0],[0,1],[1,0],[0,2],[2,0],[1,1],[0,1],[1,-1],[1,0],[0,-1],[1,0],[0,-1],[1,0],[0,-2],[1,0],[1,-1],[0,1],[1,0],[0,-2],[3,0],[0,0],[9,0],[1,1],[0,-1],[1,-1],[0,0],[4,0],[3,-3],[0,-1],[1,1],[5,0],[0,-1],[7,0],[1,-1],[3,0],[0,-1],[3,0],[1,-1],[3,0],[0,-1],[5,0],[0,0],[1,0],[1,-1]],[[593,977],[0,0]],[[539,987],[0,0]],[[504,945],[2,-1],[0,-1],[1,0],[0,1],[1,0],[0,1],[2,0],[2,1],[0,-1],[5,0],[0,1],[1,0],[1,-1],[0,1],[2,0],[0,2],[-2,0],[0,2],[1,-1],[1,1],[1,0],[0,1],[1,0],[0,2],[1,0],[0,1],[1,-1],[1,0],[0,-1],[2,0],[1,-1],[1,0],[1,2],[2,0],[0,-1],[3,0],[0,2],[1,1],[0,-1],[5,0],[0,-3],[1,0],[1,-1],[1,0],[0,-1],[1,0],[1,-1],[4,0],[0,3],[1,0],[0,2],[2,1],[1,-1],[1,0],[1,-1],[3,0],[1,-1],[0,1],[2,0],[0,1],[1,1],[0,-1],[1,1],[1,-1],[1,0],[1,2],[0,1],[2,0],[0,-1],[3,0],[0,1],[1,0],[0,-1],[1,0],[0,1],[2,0],[0,1],[2,0],[1,-1],[1,1],[-1,0],[1,1],[0,3],[1,0],[1,1],[1,0],[1,-1],[0,1],[1,0],[0,1],[1,0],[0,1],[1,0],[1,1],[1,0],[1,-1],[0,-2],[1,0],[0,-1]],[[716,836],[3,0],[0,1],[1,0],[0,-1],[1,0],[0,-1],[2,0],[0,-1],[1,0],[0,-1],[2,-1],[1,0],[0,-1],[1,0],[1,-1],[0,-1],[3,-3],[1,0],[0,-1],[1,0],[0,-2],[1,0]],[[727,789],[-3,3],[0,2],[-1,1],[0,3],[-1,0],[0,3],[-1,0],[0,1],[-1,0],[0,-1],[-2,0],[-1,1],[-1,0],[0,1],[-1,0]],[[715,804],[0,-1]],[[715,803],[-1,1],[0,1],[-3,0],[0,-1],[-1,0],[-1,-1],[-1,0],[-1,1],[-2,0],[0,-4],[-3,0],[0,2],[-1,0],[-1,1],[0,-3],[1,-1],[0,-1],[-1,-1],[0,1],[-1,0],[-1,-1],[-2,-1],[-1,1],[0,1],[-1,0],[0,-2],[1,-1],[-1,0],[0,-1],[1,0],[0,-1],[1,-1],[-1,-1],[-1,0],[-1,1],[-5,0],[0,-1],[-1,0],[0,-1]],[[687,790],[1,0],[-1,-1],[0,1]],[[687,790],[-1,0],[0,-1],[-1,0],[-1,1],[0,2],[-1,0],[0,-2],[-1,0],[0,-13],[-2,0],[-1,-1],[0,-1],[-1,-1],[-1,0],[-2,2],[0,1],[-1,1],[-1,-1],[0,-3],[-1,1],[-1,0],[0,-1]],[[671,774],[-1,0],[0,1],[-1,-1],[2,-2],[0,-2],[-2,-1],[-1,-1],[-1,1]],[[650,837],[0,-2],[1,0],[1,-2],[0,-1],[3,0],[0,-1],[-1,-1],[0,-1],[1,0],[0,-1],[1,-1],[0,-1],[-1,0],[0,-2],[-1,-1],[0,-2],[-1,0],[0,-1],[1,0],[0,-1],[-1,-1],[0,-1],[-1,-1],[1,0],[-1,-1],[0,-1],[-1,0],[0,-1],[2,0],[1,-1],[0,-3],[-1,-1],[0,-1],[1,0],[0,-1],[1,0]],[[655,807],[0,-1]],[[655,806],[1,0],[0,1],[1,0],[1,-2]],[[657,805],[1,0]],[[658,805],[0,-1],[1,0]],[[660,805],[-1,-1]],[[659,804],[0,-3],[1,0],[0,-1],[1,0],[0,-2],[2,0],[2,-2],[0,-4],[2,0],[0,-2],[1,0],[0,-1],[-1,0],[0,-4],[-1,-1],[0,-1],[-1,-1],[0,-2],[1,0]],[[666,779],[0,1]],[[666,780],[2,2],[1,0],[0,-1],[1,-1],[0,-5],[1,-1]],[[657,804],[0,0],[0,0]],[[615,805],[3,0],[0,1],[-1,0]],[[622,807],[0,-4],[-2,-1],[-2,0],[-1,1],[0,1],[-1,-1],[0,-1],[1,0],[-1,-2],[0,-1],[-1,-1],[0,-6],[-1,0],[0,-1],[1,0],[0,-1],[-4,0],[-1,-2],[0,-2],[-1,0],[0,-2],[-2,0],[-1,2],[-1,0],[0,-2],[1,-1],[-1,-1],[0,-1],[-1,0],[0,-3]],[[585,906],[1,0],[1,1],[0,3],[-1,-1],[0,3],[3,0],[0,3],[-1,0],[1,1],[0,1],[1,1],[0,4],[-1,0],[0,8],[2,2],[-1,0],[0,1],[-2,0],[0,2],[1,2],[0,2],[1,1],[-1,1],[0,1],[2,0],[0,1],[2,2],[1,2],[-1,1],[3,3]],[[579,835],[0,-2],[-1,-1],[0,-3],[1,0],[2,-2],[0,-1],[-1,0],[0,-2],[-1,0],[0,-2],[1,0],[0,-2],[-1,0],[-1,-1],[0,-2],[-1,0],[1,-1],[0,-1],[-1,0],[0,-1],[-2,-2],[0,-1],[-2,-1]],[[574,810],[-1,0]],[[573,810],[0,-1],[-1,0],[-1,-1],[-1,0],[0,-1],[-2,0],[0,-2]],[[569,805],[-1,0]],[[568,805],[0,-2],[-1,0],[0,-1],[-1,0],[-1,-1],[0,-1],[-1,0],[-1,1],[-1,0],[0,-2]],[[562,799],[-1,0],[0,-1],[1,0],[0,1]],[[562,799],[4,1],[0,-2],[-1,-1],[0,-2],[-1,0],[0,-2],[-2,0],[0,-2],[-2,0],[0,1],[-1,0],[0,1],[1,0],[0,1],[-2,0],[-1,-1],[-1,0],[0,-1],[-2,-1],[0,-2],[1,0],[-1,-1],[0,-1],[1,0],[0,-1],[-1,0],[-2,-2],[0,-1]],[[502,781],[0,2],[2,2],[1,0],[0,2],[1,0],[-1,1],[-1,0],[0,1],[-1,1],[0,4],[1,0],[0,2],[1,0],[0,3],[-1,0],[-1,1],[0,1],[1,1],[0,2],[1,0],[0,3],[-1,1],[0,2],[-1,1],[1,1],[0,5],[1,0],[0,1],[-2,2],[0,2],[-1,1],[0,1],[-1,0],[0,1],[-1,1],[0,1],[-1,0],[0,1],[1,1],[1,-1],[3,0],[0,1],[2,2],[0,1],[1,1],[-1,1],[0,1],[1,0],[0,1],[1,1],[1,0],[0,1],[1,1],[0,1],[2,2],[2,0],[1,-1],[2,2],[2,0],[0,2]],[[627,874],[1,0],[0,1],[-3,3],[0,1],[1,0],[0,1],[-1,0],[1,1],[1,0]],[[627,880],[0,1]],[[627,881],[1,-1],[0,1],[1,0],[0,1],[1,0],[0,2],[1,0],[1,1],[0,1],[2,0],[0,2],[-1,0],[-1,-1],[-1,0],[-1,-1],[-2,0],[0,1],[1,1],[0,1],[1,0],[0,1],[1,0],[-1,1],[-2,0],[0,1],[-1,-1],[-1,0],[-1,1],[0,2],[1,-1],[0,1],[1,0],[0,1],[-2,0],[-1,1],[-4,0],[0,2],[1,0],[0,2],[-1,0],[0,1],[-1,0],[0,3],[-1,0],[1,1],[-1,1],[0,2]],[[618,909],[-1,0],[0,3],[-2,0],[0,2],[-1,0],[0,1],[1,1],[0,1],[1,-1],[1,0],[1,1],[0,3],[-1,0],[0,2],[-1,1],[0,1],[1,0],[0,1],[-1,1],[1,0],[0,4],[-1,0],[0,1],[1,1],[0,-1],[2,0],[1,1],[0,1],[1,0],[0,1],[1,0],[0,1],[2,0],[0,-1],[1,1],[0,1]],[[627,936],[2,0]],[[628,893],[0,0]],[[626,898],[0,0],[-2,0],[0,-1],[2,0],[0,-1],[1,1],[-1,0],[0,1]],[[618,909],[0,-1]],[[618,933],[0,0]],[[664,845],[-1,-1],[-1,-2],[0,1],[-1,0],[0,-1],[-1,0],[-1,1],[0,-1],[-1,0],[-1,1],[-1,-1]],[[655,843],[1,-1]],[[656,842],[0,-2],[-2,0],[0,-1],[-1,0],[0,-1],[-2,-1],[-1,0]],[[650,837],[-1,0],[-1,-1],[-2,0],[0,-2],[-1,0],[0,-1],[-1,-1],[-1,0],[0,-1],[-1,0],[0,-1],[-1,0],[-1,-1],[0,-2],[-1,0],[-1,-1],[-1,0],[0,-1],[-3,0],[0,-1],[-1,-1],[0,-1],[-1,0],[0,-2]],[[631,820],[1,0]],[[632,820],[0,-2],[-1,0],[0,-3],[-1,-1],[0,-1],[-3,0],[0,1],[-1,0],[0,-1],[-1,-1],[0,-1],[-1,0],[0,-2],[-1,0],[0,-1],[-1,-1]],[[622,807],[-1,1],[-2,-1],[-2,0],[0,-1]],[[617,806],[-1,1],[-1,-1],[0,-1]],[[615,805],[-1,-1],[-3,0],[0,2],[-1,1],[0,4],[-1,0],[0,1],[-1,0],[0,4],[-3,0],[-1,1],[1,0],[1,1],[-1,1],[-1,0],[0,1],[1,1],[-1,0],[0,3],[-1,0],[-1,1],[0,2],[-1,0],[0,1],[-2,2],[-1,0],[-1,1],[1,1],[0,1],[-1,0],[0,3]],[[630,863],[1,0],[0,-1],[2,0],[0,-1],[1,0],[0,-2],[1,1],[0,-1],[1,-1],[0,-1],[1,0],[0,-1],[1,1]],[[638,857],[0,-1],[1,1],[-1,0]],[[638,857],[0,2],[1,0]],[[640,860],[-1,-1]],[[639,859],[0,-1],[1,0],[-1,-2],[0,-1],[2,0]],[[641,854],[0,1]],[[641,855],[0,3],[1,1],[1,0],[0,2],[1,0],[1,1],[2,0]],[[647,861],[0,1]],[[647,862],[1,0]],[[648,861],[0,1]],[[648,862],[2,0]],[[667,769],[-1,-1],[0,-2],[1,0],[0,-2],[2,0],[0,-6],[-1,0],[0,-1],[1,0],[1,-1],[1,-2],[0,-1],[1,-1],[0,-1],[1,0],[0,-2],[1,-1],[0,-1],[1,-1],[0,-1],[1,0],[1,-2],[1,-1],[-1,0],[0,-1],[1,0],[-1,-1],[0,-8]],[[570,772],[0,-1],[5,0],[0,-1],[4,0],[0,1],[1,1],[1,0],[0,1],[1,1],[2,0],[0,-3],[1,0],[0,1],[2,0],[0,1],[1,0],[0,2],[1,0],[0,1],[1,0],[0,1],[1,0],[1,1],[1,0],[0,3],[1,1],[0,-1],[2,0],[0,1],[1,-1],[0,1],[1,0],[0,-2]],[[599,780],[-1,0]],[[598,780],[1,-1],[0,-1]],[[599,777],[0,1]],[[599,778],[1,-1],[2,0],[2,1]],[[604,778],[0,-1],[2,0],[0,1],[1,0],[1,1],[2,0],[0,2],[1,0],[1,1],[0,2],[1,0],[0,-2],[1,-1],[0,-2],[2,0],[0,-1],[2,2],[0,1],[1,1],[0,-1],[1,0],[0,1],[1,1],[1,-1],[0,-1],[1,0],[0,-1],[2,0],[1,1],[1,-1],[1,0],[0,-1],[1,-1],[2,0],[0,-1],[1,-1],[0,1],[1,0],[0,-1],[3,0],[0,-1],[2,0]],[[638,776],[0,-1]],[[638,775],[1,-1],[0,-1],[2,0],[0,1],[1,0],[0,-1],[2,0],[2,-1],[1,-1],[-1,0],[0,-1]],[[647,770],[-1,0]],[[646,770],[0,-2],[-1,0],[0,-1],[-1,0],[0,-1],[-1,0],[-1,-1],[0,-1],[-1,0],[0,-2],[-1,0]],[[640,763],[0,-1]],[[640,761],[0,1]],[[640,762],[-1,0],[0,-1],[-1,0],[0,1],[-1,-1],[0,-1],[-1,1],[-1,-1],[0,-1],[1,0],[1,-1],[1,0]],[[638,757],[0,1]],[[638,758],[4,4],[1,-1],[0,1],[1,0],[1,1],[1,0],[-1,1],[1,0],[1,1],[1,0],[1,1],[2,0],[0,1],[1,1],[0,-1],[1,0],[0,1],[1,0],[0,-1],[2,0],[0,1],[1,0],[0,1],[1,1],[1,-1],[1,0],[0,-1],[4,0]],[[665,769],[0,1],[1,0],[1,-1]],[[665,769],[-1,-1]],[[664,768],[1,0],[0,1]],[[655,958],[-1,0],[-1,1],[-1,0],[0,-1],[-1,1],[-1,0],[-2,1],[-1,0]],[[647,959],[0,1]],[[647,960],[-1,1],[-2,0],[0,-1],[-1,-1],[0,-1],[-1,0],[0,-1],[-2,0],[0,-2],[-2,0],[0,1],[-1,-1],[-1,0],[0,-1],[1,0],[-1,-1],[-2,0],[0,-1],[-1,-1],[-1,0],[-1,-1],[0,-1],[-1,-1],[0,-3],[2,0],[0,-1],[1,0],[0,1],[1,1],[0,1],[2,0],[1,-1],[0,-1],[-1,0],[0,-1],[-2,0],[0,-1],[-1,-1],[1,-1],[1,0],[0,2],[1,0],[1,-1],[0,-4],[-1,-1],[-1,0],[0,1],[-1,0],[0,-1],[-1,0],[0,-1],[-1,0],[0,-1],[-2,0],[0,1],[-1,0]],[[629,936],[0,2]],[[629,938],[0,2],[-1,-1],[1,-1]],[[629,938],[-1,0],[0,-1],[-1,0],[0,-1]],[[627,936],[-1,-1]],[[626,935],[-1,1]],[[625,936],[0,1],[-3,0],[-1,2]],[[622,939],[-1,0]],[[621,939],[1,1],[1,0],[1,1],[-1,1],[-1,0],[0,-1],[-3,0],[0,6],[-1,1],[-4,0],[-1,1],[0,2],[-1,0],[0,1],[-1,1],[-1,0],[-1,1],[-1,-1],[-2,0],[-2,-2],[0,1],[-2,0],[-1,-1],[-1,0],[-1,1],[-1,0],[-1,-1],[-1,0]],[[596,951],[0,1],[1,1],[-1,1],[-1,0],[0,1],[-1,0],[0,1],[-2,0],[0,2]],[[591,958],[1,0]],[[592,958],[0,3]],[[591,961],[1,0]],[[592,961],[1,0],[1,1],[3,0],[0,4],[1,0],[0,1],[3,0],[1,1],[0,1],[1,-1],[2,0],[0,-1],[1,1],[0,3],[-1,0],[0,1],[1,0],[0,1],[1,1],[-1,0]],[[606,974],[1,1],[1,0],[0,-1],[1,0],[1,1],[1,0],[1,-1],[1,0],[0,1],[1,0],[0,-1],[3,0],[1,1],[4,0],[1,1],[2,1],[2,0],[0,0],[1,0],[0,1],[1,0],[0,-1],[1,1],[0,-1],[1,1],[0,1],[1,0],[1,1],[4,0],[1,1],[1,-1],[0,-1],[-1,0],[-1,-1],[0,-1],[1,-1],[-1,0],[1,-1],[0,1],[1,0],[0,2],[1,0],[0,-1],[0,0],[0,1],[1,1],[1,0],[0,1],[1,0],[2,1],[1,0],[1,1],[2,0],[1,-1],[1,0],[0,-1],[1,-1],[2,0],[1,-1],[-1,-1],[-1,0],[0,0],[-1,0],[0,0],[1,0],[0,-1],[1,1],[0,-1],[5,0],[0,-1],[5,0],[0,-1],[1,-1],[1,0],[0,-1],[1,0]],[[633,943],[0,0]],[[625,938],[0,1],[-1,1],[0,-1],[1,-1],[0,0],[0,0]],[[641,979],[0,0]],[[725,886],[-1,-3],[1,-1],[0,-2],[1,0],[0,-3],[-1,-1],[0,-1],[1,0],[0,-1],[1,-1],[0,-1],[1,0],[0,-2],[-1,0],[-1,-1],[1,0],[0,-2],[-3,0],[0,-1],[-1,0],[0,-1],[-1,0],[0,-2],[-1,1],[-3,0],[0,-2],[1,0],[0,-1],[1,0],[-1,-1]],[[720,860],[-1,0]],[[719,860],[0,-4],[1,-1],[0,-2],[1,0],[0,-1],[-1,0],[0,-1],[-2,0],[0,-1],[-1,0],[-1,1],[1,1],[0,1],[-1,0],[-2,1],[-1,-1],[0,-4],[-1,0],[-1,-1],[0,-3],[-1,0],[0,-1],[1,0],[0,-4],[1,0],[0,-2],[1,-1],[2,0],[1,-1]],[[716,836],[0,-2],[-1,-1],[0,-1]],[[715,832],[1,0],[0,-1],[-1,0],[0,1]],[[715,832],[-1,0],[-2,2],[0,-1],[-1,0],[0,-1],[-4,0],[-1,-1],[0,-1],[-1,1],[-1,-1],[-1,1],[-1,0]],[[702,832],[0,-1]],[[702,831],[-1,0],[0,-1],[-1,0],[-1,1],[-2,0],[0,3],[-2,0],[0,2],[-1,0],[-2,-1],[0,3],[-1,0]],[[691,838],[-1,0],[1,1]],[[691,838],[0,1]],[[691,839],[1,0],[0,1],[-2,0],[0,1],[-2,0],[-2,2],[-2,0],[0,-1],[-2,0],[-1,1],[-1,0],[0,1],[-1,1],[1,1],[-1,0],[0,1],[-1,0],[0,-1],[-2,0],[0,-1],[-1,0],[0,-1],[-4,0],[0,-1],[-1,1],[-2,0],[-1,1],[-3,0]],[[664,845],[0,1],[-1,0],[0,1],[-1,1],[-1,0],[0,1],[-1,0],[-1,1],[0,1],[-1,0],[0,1]],[[659,852],[-1,0]],[[658,852],[1,1],[-1,0],[1,1],[0,1],[-2,0],[-1,1],[-1,0],[0,2],[-2,2],[0,-1],[-2,0],[-1,2],[0,1]],[[650,862],[0,1]],[[649,863],[1,0]],[[650,863],[0,1],[1,0],[0,-1],[2,0],[1,2],[0,1],[1,0],[0,1],[1,1],[0,1],[2,0],[0,3],[1,0],[0,1],[1,0],[1,1],[0,7],[1,0],[0,-1],[1,0],[0,-2],[2,0],[0,-2],[1,0],[2,1],[1,2],[0,2],[2,0],[0,1],[1,-1],[1,0],[0,2],[1,1],[1,0],[0,2],[1,2],[2,2]],[[680,928],[-1,0],[-1,1],[0,2],[-1,1],[-3,0],[0,1],[-1,0],[0,1],[-1,0],[0,2],[-1,0],[0,-1],[-1,1],[0,-1],[-1,1],[0,-1],[-2,0],[1,1],[0,1],[-1,1],[0,2],[1,0],[0,1],[1,0],[0,2],[-1,0],[0,-1],[-1,0],[-1,-1],[0,1],[-1,0],[-1,-1],[0,-1]],[[664,940],[1,0],[-1,-1],[0,1]],[[664,940],[-1,0],[-1,1],[0,1],[-1,0],[0,2],[1,0],[1,1],[0,2],[3,0],[1,-1],[0,-1],[1,0],[0,-1],[1,0],[0,1],[1,-1],[3,0],[0,1],[1,1],[1,0],[-1,1],[-1,0],[0,1],[-1,0],[0,1]],[[670,950],[-2,1],[-2,0],[0,1],[1,0],[0,4],[1,0],[-1,1],[-1,0],[0,3],[1,0]],[[681,937],[0,-1],[-1,0],[0,-3],[1,0],[0,-1],[2,0],[0,-1],[1,-1],[0,0],[1,-1],[0,0],[1,0],[0,1],[3,0],[0,-1],[1,0],[1,-1],[1,1],[1,-1],[2,0],[0,3],[-1,0],[0,-1],[-2,0],[0,1],[-1,0],[0,1],[1,0],[1,1],[0,2],[-1,0],[-1,1],[-3,0],[0,1],[-7,0]],[[707,944],[-2,0],[0,1],[-1,1],[-1,0],[0,1],[-2,0],[-1,1],[-1,-1],[-1,1],[-3,0],[-1,1],[0,-1]],[[694,947],[0,1]],[[694,948],[-2,0],[0,1]],[[691,949],[1,0]],[[692,949],[0,1],[-1,0],[1,1],[1,0],[1,1],[0,1],[1,0],[-1,1],[0,2]],[[700,970],[1,0],[0,-1],[3,0],[1,-1],[1,1],[4,0],[0,-1],[3,0],[0,1],[1,0],[4,1],[1,0],[0,1],[3,0],[1,1],[1,0],[0,1],[1,0],[0,1],[2,0],[0,-1],[1,-1],[0,0],[0,-1],[2,0],[0,-3]],[[700,970],[-1,-1],[0,-1],[1,-1],[-1,-1],[0,-1],[-1,-1],[-2,0],[0,-3]],[[697,961],[-1,0]],[[696,961],[0,-5],[-2,0]],[[694,956],[-2,-1],[-2,0],[0,1],[-1,-1],[0,-1],[1,-1],[0,-2],[-1,1],[-7,0],[-1,1],[-2,0],[-2,1],[0,1],[-1,1],[-1,0],[0,1],[1,0],[0,4],[-1,0],[0,2],[-1,-1],[-1,0]],[[673,963],[-1,1],[0,-1],[1,0]],[[673,963],[0,-1]],[[673,962],[0,-1],[-1,0],[0,-1],[-1,0],[0,-1],[-2,0],[-1,1],[-1,0]],[[667,960],[0,1],[-4,0],[0,1],[-2,0],[0,-1],[-1,0],[-1,-1],[-2,0],[-2,-2]],[[655,958],[0,2],[-1,1],[0,4],[1,0],[1,1]],[[656,965],[0,1]],[[656,966],[0,1],[3,0],[0,1]],[[659,968],[-1,0],[1,1],[0,-1]],[[659,968],[1,0],[0,1],[1,-1],[4,0],[0,1],[2,0],[0,3]],[[667,972],[2,0],[0,1],[1,-1],[1,0],[1,-1],[1,0],[0,2],[-1,0],[0,1],[1,0],[1,1],[1,0],[0,1],[1,0],[0,1],[7,0],[0,1],[2,0],[0,-1],[1,0],[0,-1],[1,0],[0,-1],[1,0],[0,1],[2,0],[0,-1],[1,-1],[0,1],[1,-1],[1,0],[1,-1],[1,1],[2,-2],[0,-1],[2,0],[0,-1],[1,0]],[[661,963],[1,0],[0,2],[1,1],[-1,1],[-1,-1],[-1,0],[1,-1],[-1,-1],[1,0],[0,-1]],[[688,976],[0,0]],[[672,949],[-2,2]],[[670,950],[0,1]],[[670,951],[1,1],[0,1],[1,0],[0,-1]],[[673,952],[-1,0]],[[672,952],[0,-1],[2,0],[0,-1]],[[676,950],[-2,0]],[[674,950],[-1,-1],[-1,0]],[[672,972],[0,0]],[[419,930],[-1,-1],[0,0],[-1,0],[0,-1],[-2,0],[0,2],[-1,1],[0,-2],[-1,-1],[1,0],[0,-1],[-1,0],[0,-1],[-1,0],[0,1],[1,0],[-1,1],[-2,-2],[0,-1],[1,0],[-1,-1],[-1,1],[0,-1],[-1,0],[0,-1],[-1,0],[1,-1],[-2,-2],[0,1],[-1,-1],[0,2],[1,0],[-2,2],[0,-1],[-1,1],[1,0],[0,3],[1,0],[0,3],[1,0],[0,2],[1,0],[0,2],[1,0],[2,2],[0,1],[2,0],[0,2],[0,0],[-1,0],[0,-1],[-1,0],[-1,-1],[-3,0],[0,1],[-1,-1],[-1,0],[0,-1],[1,0],[-1,-1],[0,-1],[-1,0],[0,1],[-1,0],[0,1],[-1,0],[0,1],[-1,1],[1,0],[1,1],[0,2],[-1,0],[-1,1],[1,1],[0,2],[-1,0],[0,1],[-1,1],[0,-2],[-1,0],[0,1],[-1,0],[0,0],[-1,0],[-1,-1],[0,0],[-1,0],[0,2],[1,0],[0,2],[1,1],[-1,1],[-1,2],[0,0],[1,0],[1,2],[0,1],[1,0],[0,1],[1,0],[0,-1],[1,0],[0,1],[1,0],[0,2],[-1,0],[0,-1],[-1,0],[0,2],[1,0],[0,2],[4,0],[0,-1],[1,0],[0,1],[1,0],[0,1],[1,0],[0,1],[1,0],[0,0],[3,0],[0,1],[-1,0],[0,1],[-1,0],[0,2],[3,0],[0,2],[3,0],[0,2],[1,-1],[0,-1],[1,0],[0,-1],[2,0],[0,-1],[3,0],[2,1],[1,1],[2,0],[1,-1],[1,1],[1,0],[0,2],[2,0],[0,1],[1,0],[0,1],[1,0],[0,-1],[1,0],[-1,1],[1,0],[0,-3],[1,0],[1,1],[0,3],[2,0],[0,-1],[2,0],[0,-2],[1,0],[0,-1],[1,0],[0,4],[1,1],[0,0],[0,1],[-1,-1],[0,1],[-1,0],[0,-1],[-1,0],[0,1],[-2,0],[0,1],[1,1],[1,-1],[0,1],[2,0],[2,1],[0,1],[1,1],[-1,0],[0,-1],[-1,0],[0,-1],[-2,0],[-1,1],[0,-2],[-4,0],[1,1],[0,3],[1,0],[0,1],[-1,0],[0,1],[3,0],[2,1],[0,1],[1,1],[0,1],[1,-1],[1,0],[0,1],[1,1],[1,0],[0,1],[1,0],[0,-1],[1,0],[0,1],[-1,0],[0,1],[1,0],[0,2],[2,0],[2,1],[1,1],[1,0],[0,1],[1,1],[0,-1],[1,1],[1,-1],[-1,-1],[1,-1],[0,-1],[-1,0],[0,-1],[-1,0],[0,-1],[0,0],[1,-1],[1,1],[0,2],[1,-1],[1,0],[-1,1],[1,0],[0,1],[1,1],[2,0],[2,2],[0,1],[1,0],[0,-2],[-1,0],[0,-1]],[[459,994],[0,0]],[[441,980],[0,0]],[[415,972],[-1,0],[0,1],[1,0],[0,-1]],[[409,936],[0,0]],[[407,917],[-1,0],[0,1],[1,0],[0,-1]],[[407,919],[0,0]],[[405,920],[0,0]],[[585,906],[0,-1],[-1,0],[0,-6]],[[583,899],[1,0]],[[584,899],[0,-1],[1,-1],[1,0],[0,1],[2,0],[0,-4],[1,0],[0,-1],[-1,0],[0,-1],[-1,0],[0,-1],[1,-1],[0,-1],[-2,0],[0,-3],[-1,0],[0,-3],[1,0],[0,1],[2,0],[0,-1],[1,0],[0,1],[2,0],[0,-1],[1,-1],[0,-2],[1,0],[1,-3],[1,0],[0,1],[1,0],[0,1],[1,0],[0,1],[2,2],[1,0],[1,-1],[0,-1],[1,-1],[0,-1],[1,0],[0,-1],[2,0],[0,1],[1,0],[0,-1],[1,1],[1,0]],[[608,879],[0,-1]],[[608,878],[1,-1],[-1,0],[-1,-2],[0,-1],[1,0],[1,-1],[1,0],[0,1],[1,0],[0,1],[1,0],[3,-1],[2,0],[0,1],[2,2],[0,-1],[5,0],[0,-1],[1,-1],[0,1],[1,-1],[1,0]],[[627,874],[0,-2],[-1,0],[0,-1],[1,0],[1,-1],[0,-5]],[[628,864],[0,1]],[[628,865],[1,0],[0,-1],[1,0],[0,-1]],[[630,863],[0,-4],[-1,-1],[-2,0],[0,-1],[-2,0],[-1,-1],[-3,0],[-2,-1],[-4,0],[0,-1],[-2,0]],[[613,853],[0,1]],[[613,854],[-2,0],[-2,-2],[-3,0],[0,-1],[2,-2],[-1,0],[0,-2],[1,-1],[0,-1],[-1,0],[0,1],[-2,0],[-1,-1],[0,1],[-2,0],[2,-2],[0,-1],[-1,0],[-1,-1],[0,-1],[-1,0],[0,-1],[-1,0],[1,-1]],[[600,839],[1,0]],[[601,839],[0,-2],[-1,0],[0,1],[-1,0],[-2,-2]],[[597,836],[-1,0],[-1,-1],[-2,0],[0,-2],[-2,0]],[[591,832],[0,1]],[[591,833],[-1,0],[-2,2],[-2,0],[0,1],[-2,0]],[[584,837],[0,-1]],[[584,836],[-1,0],[0,-1],[-2,0],[-1,1],[0,-1],[-1,0]],[[579,835],[-2,2],[-2,0]],[[575,836],[0,1]],[[575,837],[0,1],[-1,1],[-2,0],[0,-1]],[[568,891],[0,11],[2,0],[0,-1],[1,0],[0,1],[2,0],[0,-1],[1,1],[1,0],[0,1],[-1,0],[0,2],[1,0]],[[575,906],[0,-1]],[[575,905],[1,-1],[1,1],[1,0],[0,1],[1,0],[0,1],[1,1],[1,-1],[0,-1],[1,0],[0,-2],[1,1],[0,2],[2,-1]],[[570,904],[-1,0],[1,1],[1,0],[0,-2],[-1,0],[0,1]],[[562,894],[2,-2],[1,-2],[1,0]],[[566,891],[0,-1]],[[495,984],[-1,-1],[0,-3],[-1,-1],[-1,0],[0,-2],[-1,0],[-1,-1],[0,1],[-2,0],[0,-3],[1,0]],[[489,973],[0,1]],[[489,974],[1,0],[0,-3],[1,-1],[0,-1],[2,0],[0,-4],[2,-2],[0,1],[1,0],[0,-1],[1,0],[0,-4],[1,0],[1,-1],[0,1],[1,0],[0,1],[1,0],[0,1],[1,1],[0,-1],[1,0],[0,-1],[1,-1],[0,-1],[-2,-2],[-2,0],[0,-1],[-1,0]],[[499,956],[0,-1]],[[499,955],[-1,0],[0,-1]],[[497,954],[1,0]],[[498,954],[0,-1],[-1,-1]],[[497,953],[0,-1]],[[497,952],[-1,0],[0,-1],[1,0],[0,-1],[1,0],[0,2],[3,-3],[0,1],[2,-2],[0,-3],[1,0]],[[504,945],[-1,-1],[1,-1],[0,-1],[-1,0],[0,1],[-1,0],[0,-3],[1,0],[0,-1],[-1,-1],[0,-1],[-1,0],[0,-1],[-1,0],[0,-1],[-1,-1],[-1,0],[0,1],[-1,0],[0,-2],[-2,0],[-1,-2],[1,-1],[0,-2]],[[496,928],[-1,0]],[[495,928],[-1,0],[0,-4],[-1,-1],[0,-3]],[[452,941],[0,2],[2,0],[0,2],[1,1],[0,1],[1,0],[0,2],[-1,2],[0,2],[-1,1],[0,1],[1,0],[0,1],[-1,1],[0,4],[-1,1],[1,2],[0,1],[1,0],[0,2],[-1,0],[0,2],[1,0],[1,1],[0,1],[1,1],[0,1],[-1,1],[1,1],[2,0],[1,1],[0,1],[1,1],[0,1],[1,0],[0,3],[1,0],[0,1]],[[462,983],[1,0]],[[463,983],[0,1],[-1,0],[0,1],[1,0],[0,1],[1,0],[0,2],[-1,0],[0,1],[1,0],[0,1],[1,0],[0,2],[-1,1],[1,0],[0,3]],[[465,996],[0,-1],[1,1],[1,0],[0,1],[1,0],[0,-2],[1,-1],[0,-2],[1,0],[0,2],[1,0],[0,1],[1,0],[1,1],[0,-1],[2,0],[0,-1],[1,0],[0,-1],[1,1],[0,-1],[1,0],[0,-1],[2,0],[0,-1],[1,-1],[0,-1],[1,0],[0,-1],[1,-1],[2,-1],[0,-1],[0,0],[-1,-1],[1,0],[0,1],[4,0],[2,-1],[0,1],[1,0],[1,-1],[0,1],[1,0],[1,-1]],[[474,995],[0,0]],[[468,997],[0,0]],[[767,934],[-2,0],[0,-2],[-4,0],[0,-4],[-5,0],[0,-2],[-1,0],[0,-1],[-1,-1],[0,-2],[-2,0],[-1,1],[-1,-3],[0,-3],[-1,-1],[-2,-1],[0,-4],[1,0],[0,-1],[-1,0],[0,-1],[-1,-1],[0,-1],[-1,0],[0,-4],[-1,0],[0,-2],[1,-1],[0,-4],[1,-1],[0,-1],[1,-1],[2,0],[0,-2],[-1,-1],[0,-1],[-2,-2],[0,-1],[-1,0],[1,-1],[-1,0],[0,-1],[-1,0],[0,-1],[-2,0],[0,1],[-2,0],[0,-1],[-3,0],[-1,1],[0,1],[-1,0],[-1,1],[-2,0],[0,-1],[-1,1],[-1,0],[-1,2],[-3,0],[-1,1]],[[699,919],[0,1],[2,0],[0,1],[-1,1],[1,0],[-1,3]],[[701,925],[-1,0]],[[700,925],[0,1],[-1,0],[0,-1],[-1,-1]],[[698,923],[0,1]],[[698,924],[0,1],[-2,0],[0,1],[1,0],[0,1],[1,1],[0,1],[3,0],[0,-1],[3,0],[0,1],[1,0],[0,1],[-1,0],[0,4],[2,0],[0,5],[1,0],[0,1],[1,0],[0,1],[-1,1],[0,2]],[[707,944],[1,0],[0,2],[1,0],[0,1],[1,0],[0,-1],[1,0],[0,1],[2,0],[1,1],[0,1],[2,0],[1,1],[0,1],[-1,0],[0,1],[1,0],[0,2],[1,1],[1,0],[0,1],[1,0],[1,1],[1,0],[0,6]],[[722,964],[0,-1]],[[722,963],[2,0]],[[724,963],[-1,1],[1,0],[0,-1]],[[724,963],[1,1],[1,0],[0,1],[1,0],[0,2],[1,1],[2,0]],[[730,968],[1,1],[1,0],[1,1],[1,-1],[1,0],[0,-3],[2,0],[1,1],[0,1],[3,0],[1,-1],[2,0],[2,-2],[0,-2],[-1,-1],[0,0],[0,-2],[-1,0],[0,-3],[-1,0],[-1,-1],[0,-2],[1,-1],[3,-1],[1,0],[0,4],[1,1],[3,0],[-1,-1],[-1,0],[0,-1],[1,-1],[1,0],[0,-1],[1,0],[0,1],[2,-2],[2,0],[0,-1],[1,0],[0,1],[1,-1],[1,0],[0,-1],[3,0],[0,-1],[1,0],[0,-1],[1,0],[1,-1],[1,0],[0,1],[1,0],[0,-1],[4,0],[1,1],[2,0],[0,-2],[1,-1]],[[757,916],[0,1],[1,1],[1,0],[0,-1],[1,-1],[0,-1],[-3,1]],[[756,915],[0,-1],[-1,0],[-1,-1],[0,1],[1,0],[-1,1],[1,0],[1,1],[0,-1]],[[680,928],[1,-1],[0,-1],[1,0],[0,-1],[-1,0],[0,-2],[1,0],[1,1],[1,0],[0,3],[1,0],[2,-2],[1,0],[-1,-3],[0,-1]],[[687,920],[0,1]],[[687,921],[1,0],[0,-1],[1,-1],[0,-1],[1,1],[2,0],[-1,-1],[1,0],[1,1],[0,-1],[2,0],[-1,1],[1,1],[1,0],[-1,-1],[2,-1],[0,1],[2,0]],[[699,919],[1,0],[0,-1],[1,0],[1,-1],[1,0]],[[703,916],[0,1]],[[703,917],[3,0],[0,-1],[2,0],[0,-2],[5,0],[0,-1],[1,-1],[0,-1]],[[715,911],[-1,0]],[[714,911],[0,-1],[2,0],[0,1],[2,0],[1,-1],[1,0],[0,-1],[1,0],[0,-1],[1,1],[0,-2],[1,-1],[1,0],[0,-2],[1,0],[1,-1]],[[726,904],[0,-1]],[[726,903],[1,-1],[2,0],[1,-1],[0,1],[1,-1],[0,-1],[1,0],[-1,-1],[1,-1],[-1,-1],[-1,0],[0,1],[-1,0],[-1,-1],[-1,0],[-1,1],[-1,-1],[0,-1],[-2,-2],[0,-1],[-1,-1],[1,-2],[1,-1],[1,0]],[[725,889],[0,-1],[-1,-1],[1,-1]],[[725,886],[-1,0],[0,-1],[-2,0],[0,-1],[-2,0],[0,-1],[-1,0],[-1,1],[0,1],[-3,0],[-1,1],[-1,0],[0,4],[-1,0],[-1,1],[0,1],[1,1],[0,2],[-3,0],[-1,-1],[0,1],[-1,-1],[-1,0],[0,2],[-2,1],[-5,0],[-2,-2],[-2,0],[0,-2],[-1,-1],[0,-1],[-1,-2],[-1,-1],[-1,0],[0,1],[-2,0],[-1,-1],[-1,1],[-2,0],[-1,1],[2,2],[1,2],[0,1],[-1,1],[-2,0],[-1,-1],[0,-1],[-1,-1],[1,0],[0,-2],[-2,0],[0,-1],[-1,0],[-1,-1],[-1,1]],[[678,890],[-1,1],[0,3],[-5,0],[0,1],[-1,1],[0,1],[-1,0],[0,1],[-1,1],[0,1],[-1,0],[0,1],[1,0],[0,2],[1,1],[-1,1],[1,0],[-1,1],[0,4],[2,0],[0,1]],[[670,912],[-1,0],[0,2],[1,0],[0,-2]],[[670,912],[1,-1]],[[671,911],[0,4],[1,1],[-1,0],[0,1],[-1,1],[0,4],[-1,-1],[-1,0],[0,1],[1,1],[1,0],[0,1],[1,1],[0,2],[-1,0],[0,1],[3,0]],[[673,927],[0,1]],[[673,928],[4,0],[0,-1],[2,0],[1,1]],[[677,925],[0,1],[-1,0],[0,-1],[1,0]],[[674,926],[0,0]],[[455,924],[0,-1],[1,0],[0,-2]],[[455,921],[1,0]],[[456,921],[0,-1]],[[455,920],[1,0]],[[456,920],[1,0],[0,-1],[3,0],[0,-1],[1,0]],[[461,918],[0,1],[1,0],[0,-1]],[[463,918],[-1,0]],[[462,918],[-1,0]],[[461,918],[0,-1],[1,-1],[1,0]],[[463,917],[0,-1]],[[463,916],[2,0],[0,-1],[1,-1],[1,0],[2,-2],[0,1],[2,0],[0,-1],[3,0],[0,1],[1,1],[2,0],[0,1],[2,0],[1,-1],[0,1],[2,0],[1,-1],[1,0],[0,-1],[1,0],[0,-1],[1,1],[0,-4],[1,-1],[0,3],[1,0],[0,2],[1,0],[0,2],[1,0],[0,1],[1,0],[0,1],[1,0],[1,2],[0,1]],[[493,920],[1,0],[1,-1],[1,0]],[[496,920],[0,-1]],[[496,919],[1,0],[0,1],[3,0],[1,-1],[1,0],[0,-1],[1,1],[1,0],[0,-5],[-1,0],[0,-1],[1,0],[0,-1],[2,0],[0,-1],[2,0],[0,-1],[-1,-1],[1,0],[0,-1],[-1,-1],[0,-1],[-1,-1],[0,-1]],[[497,887],[-1,-1],[0,-1],[-2,0],[0,0],[-1,0],[-1,1],[0,1],[-1,0],[-1,1],[-1,-1],[-1,0],[0,-5],[-2,-2],[-1,0],[-1,-1],[-5,0],[-2,-2],[0,1],[-1,0],[0,2],[-3,0],[0,-1],[-1,-1],[-3,0],[0,2],[1,0],[0,1],[-3,0],[-1,1],[-1,0],[0,1],[-1,-1],[-3,0],[-1,-1],[-2,0],[0,-1],[-1,-1],[-1,1],[1,1],[0,3],[-1,0],[0,-1],[-1,0],[0,-2],[-1,-1],[-1,1],[-1,-1],[0,-1],[-1,-1],[-1,0],[-1,-1],[-5,0],[0,4],[-1,0],[-1,1],[0,2],[2,2],[0,1],[1,0],[0,1],[1,1],[2,0],[0,3],[-1,1],[-3,0],[0,-1],[-1,1],[0,5]],[[562,894],[0,-2],[1,0],[0,-2],[1,0],[0,-1],[-1,-1],[0,-1],[2,-1],[1,3],[-1,0],[1,1]],[[566,890],[1,0],[0,1],[1,0]],[[568,891],[0,-1],[2,0],[0,-1],[1,0],[0,-1],[1,-1]],[[574,887],[-2,0]],[[572,887],[-1,-2],[-1,0],[0,-1],[1,0],[1,-1],[-1,0],[0,-4],[-1,-1],[2,0],[1,-1],[-1,0],[-1,-1],[0,-1],[-3,0],[0,-1],[-1,-1],[1,0],[0,-1]],[[568,871],[0,1]],[[568,872],[1,0],[0,-2],[1,0],[0,-4]],[[571,866],[-1,0]],[[570,866],[0,-1],[1,-1],[2,0],[0,-1],[-1,-1],[1,-1],[0,-1],[1,0],[1,-1],[-1,0],[0,-1],[-2,0],[0,-1],[-1,0],[-1,-1],[0,-3],[1,-1],[0,-1],[-1,-1],[0,-1],[1,-2],[0,-2],[1,0],[0,-2],[-1,0],[1,-1],[0,-1],[-1,-1],[0,-1],[-1,-1],[2,0]],[[572,838],[0,-4],[-2,0],[-1,1],[-1,0],[-1,1],[0,2],[-3,0],[0,-2],[-1,0],[0,2],[-1,0],[-2,2],[-1,0],[0,-1],[-1,0],[0,1],[-1,0],[0,1],[-1,1],[-1,0],[0,-1],[-3,0],[0,-1],[-5,0],[0,1],[-3,0],[0,-4],[-1,0],[0,-2],[-1,1],[0,1],[-1,0],[-1,-1],[-1,0],[0,2],[1,0],[0,1],[-2,0],[0,1],[-2,0],[-2,-2],[0,1],[-1,0],[-1,1],[-2,1],[-1,0],[0,1],[-1,0],[-1,1],[-2,0],[0,1],[-6,0],[0,1]],[[519,845],[2,0],[0,1],[1,1],[-1,0],[1,1],[1,0],[1,1],[-1,0],[0,1],[1,1],[0,-1],[2,0],[0,2],[1,0],[0,3],[1,0],[0,2],[1,0],[0,1],[2,2],[0,1],[1,1],[-2,2],[0,1],[-2,2],[-1,0],[0,1],[-3,0],[-2,1],[-2,0],[0,-1],[-1,0],[0,-1],[-1,0],[-2,2],[0,3],[-1,0],[0,1],[1,0],[0,4],[1,0],[0,3],[-1,1],[-1,0],[0,1],[1,1],[0,2],[-1,0],[0,1],[-1,0],[0,-1],[-2,0],[-2,-1],[-2,0],[-1,1],[-1,2],[0,1],[-2,0],[0,-3],[-6,0],[0,1],[-1,1]],[[497,887],[-1,1],[1,0],[1,2],[-1,0],[0,2],[-2,0],[-1,1],[1,0],[0,1],[1,0],[0,2],[2,0],[0,1],[1,1],[0,1],[-1,0],[2,1],[1,1],[0,1],[4,0]],[[505,901],[0,1]],[[505,902],[0,2],[1,0]],[[506,904],[1,-1],[1,0],[0,-1],[1,-1],[1,0],[0,1],[1,-1],[1,1],[1,-1],[5,0],[0,-1],[3,0],[0,1],[1,0],[0,-1],[1,1],[4,0],[0,-2],[3,0],[0,-1],[1,0],[0,-1],[1,1],[1,0]],[[533,899],[0,-1]],[[533,898],[1,0]],[[534,899],[0,-1]],[[534,898],[6,0],[2,-2],[0,1],[3,0]],[[545,897],[0,1],[1,-1]],[[545,897],[1,0]],[[546,897],[0,-1],[1,-1],[1,1],[2,0],[0,1],[1,0],[0,-1],[1,-1],[1,0],[0,1],[2,0],[-1,1],[2,0],[1,-2],[0,-1],[1,-1],[1,0],[0,-1]],[[559,891],[0,1]],[[559,892],[1,0],[1,2],[0,1],[1,-1]],[[685,722],[1,1],[1,0],[0,-1],[1,1],[2,0],[1,1],[1,0],[1,-1],[2,0],[0,1],[1,0],[0,-1],[2,-2],[0,-1],[1,0],[3,-3],[0,2],[1,1],[1,0],[1,-1],[0,-2],[1,0],[1,1],[1,0],[0,1],[2,0],[0,1],[3,0],[1,-1],[2,0],[0,1],[-1,0],[0,3],[-1,1],[0,1],[3,0],[0,-2],[1,-1],[0,-1],[2,0],[1,1],[2,0],[1,-1],[1,0],[0,-1],[1,1],[0,-1],[2,0],[0,1],[1,0],[0,1],[1,1],[1,0],[1,1],[1,0],[0,1],[2,0],[0,1],[2,1],[1,0],[0,1],[1,0],[1,1]],[[775,945],[-1,0],[1,-1],[0,-1],[2,0],[0,-1],[1,0],[0,-1],[1,0],[0,-1],[1,0],[0,-2],[2,0],[0,-1],[1,-1],[0,1],[1,1],[0,1],[1,1],[0,-1],[1,0],[0,-1],[4,0],[2,2],[1,0],[0,0],[2,0],[1,-1],[0,-1],[2,0],[0,-1],[1,0],[1,1],[0,-2],[1,0],[1,-1],[0,-2],[2,0],[0,-2],[4,0],[0,1],[1,-1],[2,2],[1,-1],[1,1],[1,0],[1,1],[1,-1],[3,0],[0,-2],[1,-1],[1,0],[0,2],[1,0],[1,1],[1,0],[0,-1],[1,0],[1,-1],[2,0],[0,1],[1,-1],[1,0],[0,1],[1,0],[1,-1],[1,0],[0,1],[1,0],[1,-1],[1,0]],[[822,852],[-1,0],[-3,1],[-1,0],[0,-2],[-2,0],[-1,1],[0,-1],[-1,0],[-1,-1],[0,-2],[-3,0],[-3,3],[0,-3],[-2,2],[0,1],[-1,1],[0,4],[-1,0],[0,2],[-1,0],[0,1],[-1,0],[0,4],[-1,0],[-1,1],[-2,-2],[-3,3],[-1,0],[0,1],[-1,0],[0,3],[-1,0],[-1,1],[-2,0],[0,1],[-1,0],[-1,1],[-1,0],[1,1],[-1,2],[0,4],[-1,1],[-1,0],[-1,1],[-1,0],[1,1],[-1,1],[-1,0],[-1,2],[0,1],[-4,0],[0,-1],[-1,1],[-1,0],[-1,1],[-2,0],[0,1],[-1,1],[1,1],[0,2],[2,2],[0,-1],[1,-1],[1,0],[0,3],[1,1]],[[773,896],[1,0]],[[774,896],[0,1],[-1,0],[0,1],[1,0],[-1,1]],[[774,899],[-1,0]],[[773,899],[1,1],[0,1],[-1,0],[0,4],[1,0],[0,1],[1,0],[0,1],[-1,0],[0,5],[-2,0],[0,-1],[1,0],[0,-2],[-1,-1],[0,-1],[-1,-2],[-1,0],[0,1],[-1,-1],[-1,1],[0,-1],[-1,0],[1,-1],[-1,0]],[[767,904],[1,-1],[-1,0],[0,1]],[[767,904],[-1,0],[0,1],[1,1],[0,1],[1,0],[0,1],[1,1],[0,2],[1,0],[0,1],[1,1],[-1,0],[0,1],[-2,0],[-1,1],[0,2],[1,0],[0,1],[-1,0],[0,2],[-1,-1],[0,3],[1,0],[0,1],[-1,0],[0,2],[1,0],[-1,1],[1,0],[0,1],[-1,1],[0,1],[1,0],[1,1],[0,1],[-1,1]],[[766,932],[1,0]],[[767,932],[0,2]],[[767,934],[0,1],[1,0],[1,1],[0,5],[1,1],[1,0],[0,2],[1,1],[3,0]],[[452,940],[0,1]],[[452,941],[1,0],[0,-1],[-1,-2],[0,-2],[1,0],[1,-1],[0,-1],[2,0],[2,-2],[-1,0],[0,-1],[-1,-1],[0,-4],[-1,-1],[0,-1]],[[455,924],[-2,0],[0,-1],[-1,0]],[[452,924],[0,-1]],[[452,923],[-1,0],[0,-1],[-1,0],[-1,1],[0,-1],[-1,1],[-3,0],[0,-1],[-1,1],[0,1],[-1,-1],[0,-1],[-1,0],[0,-1],[-1,1],[-2,-2],[0,-1],[-3,0],[0,-1],[-1,0],[1,-1],[0,-1]],[[437,916],[-1,0]],[[436,916],[0,-1],[1,-1],[0,-2]],[[438,912],[-1,0]],[[437,912],[0,-2],[1,0],[0,-1],[1,-1],[1,0],[0,-2],[-1,0],[1,-2],[1,-1],[3,0]],[[444,904],[0,-1]],[[444,903],[0,-1],[-1,0],[0,-1],[1,0],[0,-2],[-1,-1]],[[443,898],[-1,-1],[-2,0],[0,-1],[-1,0],[0,-1],[-2,0],[0,-1],[-2,0],[0,-1],[-7,0],[0,-1],[-3,0],[-2,-1],[0,-1],[-1,0],[0,-1],[-2,-2],[-1,0],[-1,-1],[0,-2],[-1,0],[0,-1],[-2,0],[0,-1],[-1,0],[0,-1],[-1,-1],[-1,1],[0,1],[0,0],[0,13],[1,1],[1,0],[0,-1],[1,0],[0,2],[-1,0],[0,1],[1,0],[0,2],[1,0],[1,1],[0,1],[2,0],[0,1],[1,0],[0,1],[1,0],[0,1],[1,0],[0,1],[2,0],[0,4],[-1,0],[0,-2],[-1,0],[0,-2],[-2,0],[0,0],[-1,0],[0,-1],[-1,0],[-1,-1],[0,1],[-1,-1],[-3,0],[0,3],[1,0],[0,-1],[1,-1],[0,4],[2,0],[1,1],[0,1],[1,0],[0,1],[1,1],[1,0],[1,1],[0,1],[-1,-1],[0,2],[-1,-1],[0,-1],[-1,0],[-1,-1],[-1,0],[0,0],[-2,0],[0,-1],[-1,0],[0,1],[-1,0],[0,1],[-1,0],[1,1],[-1,1],[0,1],[-1,0],[-1,-1],[0,2],[2,0],[0,1],[1,0],[0,-3],[1,1],[1,0],[0,2],[0,0],[0,3],[-1,1],[1,0],[0,1],[1,0],[0,1],[1,0],[0,1]],[[417,927],[2,2],[0,1]],[[419,930],[0,2],[2,0],[1,1],[3,0],[0,1],[1,0],[1,1],[3,0],[1,-1],[1,1],[0,-1],[1,1],[0,1],[1,1],[2,0],[1,1],[0,2]],[[436,940],[1,0]],[[437,940],[0,1],[1,-1],[0,-1],[1,0],[1,1],[1,0],[1,-1],[0,2],[3,0],[0,-1],[1,1],[0,-1],[1,1],[1,0],[1,-1],[1,0],[0,1],[2,0]],[[420,914],[0,0]],[[417,927],[0,-1]],[[417,926],[-1,0],[1,1]],[[415,919],[0,0]],[[414,918],[0,0]],[[414,917],[0,0]],[[413,898],[1,-1],[-1,0]],[[413,917],[0,0]],[[413,924],[0,-3],[0,0],[0,1],[0,0],[0,1],[-1,0],[0,1],[1,0]],[[413,898],[0,-1]],[[412,901],[0,-1],[-1,0],[0,1],[1,0]],[[412,922],[0,0]],[[412,902],[-1,-1],[0,2],[1,0],[0,-1],[0,0]],[[411,922],[0,0]],[[410,910],[-1,1],[1,0],[0,-1]],[[410,910],[0,0]],[[677,732],[0,-2],[1,-1],[1,0],[0,-3],[-1,-1],[1,-1],[0,1],[1,0],[0,-1],[1,0],[0,1],[2,2],[1,0],[0,-2],[1,-1],[0,-2]],[[685,722],[0,-1],[1,-1],[0,-1],[-2,-2],[0,-1],[-2,-2],[0,-2],[-1,-1],[0,-2],[1,-1]],[[682,709],[0,-1]],[[682,708],[0,-4],[-1,0],[0,-2],[-1,-1],[-1,0],[0,-3],[1,0],[1,-1],[2,0],[0,-1],[1,0],[0,-1],[1,0],[0,-5],[1,0],[0,-1],[2,0],[0,-1],[1,0],[0,-1],[1,0],[0,-2],[-1,0],[0,-3],[-1,-1],[0,-1],[-2,0],[0,-1],[-1,0]],[[684,680],[1,-1]],[[685,679],[-1,-2],[0,-1],[1,-1],[-1,-1]],[[599,731],[3,0],[0,2],[1,1],[2,0],[-1,1],[0,1],[2,0],[0,1],[1,0],[0,-1]],[[608,736],[-1,0]],[[607,736],[0,-1],[1,-1],[0,-1],[1,-1],[0,3],[1,0],[0,-1],[1,0],[2,-1],[2,0],[4,-1],[1,1],[1,0],[0,2],[1,3],[6,0],[0,-1]],[[627,737],[1,0]],[[628,737],[0,-2],[-1,0],[-1,-1],[0,-1],[1,-1],[-1,-1],[-2,0],[0,-3],[-1,0],[0,-3],[1,0],[0,-1],[1,0],[1,1],[4,0],[1,-2],[0,-2],[1,-1],[2,0],[1,-1],[2,0],[0,1],[1,1],[2,0],[2,-2],[1,1],[0,1],[1,0],[3,1],[1,0],[0,-1],[1,0],[3,3],[1,0],[0,2],[1,1],[1,0],[0,1],[5,0]],[[660,727],[0,1]],[[660,728],[0,3],[1,1],[4,0],[0,1],[3,0],[1,-1],[1,0],[0,-1],[3,0],[0,-1],[1,0],[0,1],[1,-1],[1,0],[0,1],[1,1]],[[587,728],[1,1],[0,2],[1,1],[0,3],[1,0],[0,1],[1,0],[0,1],[1,0],[0,-1],[1,0],[1,-1],[1,0],[1,-2],[0,-3],[-1,-1],[1,0],[0,-1]],[[756,763],[0,1],[-1,1]],[[743,774],[0,3],[-1,-1],[-1,0],[0,1],[-2,0],[0,-1],[-3,3],[0,1],[-1,0],[-1,1],[0,1],[-1,0],[0,1],[-1,1]],[[732,784],[-1,-1],[0,-1],[-1,0],[0,1],[1,1],[1,0]],[[732,784],[-1,2],[-1,0],[-1,2],[-1,0],[0,1],[-1,0]],[[727,789],[0,1],[1,0],[0,1],[1,1],[0,1],[1,1],[1,0],[0,1],[1,0],[0,2],[-1,1],[1,0],[0,3],[2,0],[0,-1],[2,0]],[[736,799],[0,1]],[[736,800],[1,0],[1,1],[0,1],[-1,1],[1,0],[0,2],[1,0],[0,2],[-1,1],[0,3],[1,1],[-1,0],[1,2],[-1,1],[0,1],[-1,0],[-1,1],[0,1],[-1,1],[0,2],[1,1],[-1,1]],[[735,823],[3,0],[2,1],[1,0],[1,-1],[0,1],[1,1],[0,1],[-1,1],[-1,0],[1,1],[2,0],[0,1],[1,1],[-1,0],[1,1],[1,0],[1,1],[0,-2],[2,0],[1,-1],[0,1],[1,0],[0,4],[1,0],[0,1],[2,0],[0,-1],[2,0],[0,1],[2,0],[-1,1],[1,1],[1,0],[0,-1],[1,0],[0,-1],[3,0]],[[764,836],[-1,-1]],[[763,835],[0,-3],[1,0],[0,-1],[1,0],[0,1],[1,0],[0,1],[1,0],[0,2],[1,1],[0,-1],[1,-2],[1,-1],[1,1],[1,0],[0,3],[1,0],[0,1],[2,-2],[0,-1],[1,-1],[1,1],[0,1],[1,2],[1,1],[1,0],[0,1],[-1,0],[0,1],[-1,1]],[[777,841],[1,0]],[[778,841],[1,0],[0,5],[2,0]],[[781,846],[0,-1],[2,-2],[0,-2],[1,0],[0,3],[-1,1],[-1,0],[-1,1]],[[781,846],[0,2],[5,0],[0,-2],[2,0],[0,-1],[1,-2],[1,0],[2,-1],[0,-1],[1,1],[2,-1],[0,-1],[1,0],[0,-1],[1,0],[0,-1],[2,0],[1,-1],[1,0],[1,-1],[2,0],[0,-1],[1,0],[0,-1],[1,0],[1,-1],[0,-1],[1,-2],[1,-1],[0,1],[1,1],[3,0],[1,-1],[0,1],[3,0]],[[910,739],[1,1],[0,-1],[-1,0]],[[989,768],[0,-1],[1,1],[0,0],[0,-2],[1,1],[0,2],[1,0],[0,-3],[1,0],[0,0],[1,0],[0,-1],[2,0],[0,-3],[1,-1],[0,-1],[1,-1],[0,-1],[1,-1],[-1,0],[0,1],[-1,0],[0,0],[1,-1],[0,-4],[-3,0],[0,1],[-2,0],[-1,2],[-3,1],[0,1],[-1,0],[-2,2],[-3,0],[0,1],[-1,0],[0,-1],[-5,0],[0,4],[-1,0],[0,3],[1,1],[9,0],[0,1],[1,-1],[1,0],[1,1],[0,-1]],[[735,602],[-1,0],[0,-1],[-1,0],[-2,-2],[0,-2],[-3,-3],[0,-1],[-1,0],[-1,-2],[0,-4],[-1,-1],[0,-3],[-1,-1],[0,-2],[-1,0],[0,-4],[-1,-1],[-1,0],[-1,-1],[0,-1],[-1,0],[0,-1],[-1,0],[0,-3],[-1,0],[-1,-1],[0,-1],[-1,0],[0,-2],[-1,-1],[-1,0],[0,-1],[-1,-1],[-3,0],[0,1],[-2,3],[-3,3],[-2,0],[-2,-1],[-1,-1],[0,1],[-1,0],[-1,1],[-1,-1],[-3,0],[0,-1],[-1,-2],[-1,0],[0,-3],[-2,-1],[0,-1],[-1,0],[-1,-1],[-1,1],[-1,-1],[-1,0],[-1,1],[0,1],[-2,0],[0,-1],[-1,0],[-1,1],[0,1],[-2,2],[-1,-1],[-6,0],[-2,1]],[[672,513],[0,0]],[[574,536],[-1,0],[0,-1],[-1,-1],[0,-2],[-1,0],[0,-1],[-1,-2],[0,-2],[-1,0],[-1,1],[-2,0],[-1,-1],[0,-2],[0,0],[0,-1],[1,0],[-1,-1],[1,-1],[-2,-2],[-1,1],[0,-1],[-1,0],[-1,-1],[-2,-1],[-1,0],[-1,1],[0,1],[-1,0],[-1,1],[-2,0],[-2,1],[-1,1],[0,-1],[-1,0],[-1,1],[0,2],[-1,0],[-1,2],[-2,2],[-1,0],[-1,-1],[-1,0],[-2,1],[0,-1],[-2,4],[0,1],[-1,1],[0,1],[-1,0],[-1,1],[-1,2],[0,1],[-2,2],[0,1],[-1,1],[0,2],[-1,0],[0,1],[2,0],[0,1],[1,0],[0,2],[1,0],[-1,1],[0,-1],[-2,0],[0,-1],[-1,1],[0,1],[1,0],[0,3],[-2,0],[0,2],[-2,0],[0,1],[-1,0],[-1,-1],[-1,1],[0,2],[-1,0],[0,2],[-1,1],[0,2],[1,0],[0,1],[1,0],[2,2],[0,1]],[[558,517],[0,0]],[[529,548],[0,-1],[-2,3],[0,0],[1,0],[0,-1],[1,-1]],[[528,550],[0,0]],[[519,563],[0,0]],[[584,686],[0,-1],[1,-1],[1,0],[0,-1],[5,0],[0,-4],[1,0],[1,-1],[1,0],[1,-1],[2,0],[0,-1],[1,0],[0,-1],[2,0],[0,-1],[1,-1],[1,0],[0,-2],[2,0],[1,-1]],[[605,671],[0,-1]],[[605,670],[2,0],[0,-2],[1,0],[0,-1],[1,0],[0,-1],[1,0],[0,-1],[2,0],[2,-1],[1,-1],[1,0],[0,-1],[1,0]],[[709,636],[-2,-1],[0,-1],[-2,0],[0,-6],[1,-1],[-1,-1],[0,-2],[-1,-1],[0,-5],[-2,0]],[[702,617],[0,1]],[[702,618],[-1,0],[0,-1],[1,-1],[0,-5],[-4,0],[0,-2],[-3,0],[0,-1],[-1,0],[-1,-1],[0,-1],[-1,0],[0,-1],[-1,0],[0,-1],[-1,0],[0,-4],[-1,0],[0,-5],[-1,0],[1,-1],[0,-2],[-1,0],[-1,1],[-1,0],[0,1],[-1,-1],[-1,0],[0,2],[-1,0],[-1,1],[-2,0],[0,-2]],[[679,594],[1,0]],[[680,594],[-1,-1],[0,-3],[-1,-1],[-1,0],[0,-2],[-1,0],[0,-2],[-3,0]],[[672,586],[1,0],[0,-1]],[[673,585],[0,-4],[1,-1],[0,-1],[1,0],[0,-1],[-1,-1],[0,-1],[-2,0],[0,-2],[-1,0],[0,-2],[1,0],[0,-3],[-1,-1],[-1,0],[0,-1],[-2,-1]],[[667,566],[1,0]],[[668,566],[0,-2]],[[668,564],[-1,-1],[-1,0],[-1,1],[-1,-1],[0,1],[-2,0],[0,-1],[-3,0],[-2,-2],[-2,0],[0,-1],[-3,0],[0,1],[-1,0],[0,1],[-1,0],[-1,-1],[-2,2],[-3,0],[0,-1],[-1,0],[-1,1],[-1,-1],[-1,1],[0,-1],[-1,1]],[[615,591],[1,0],[1,1],[0,1],[1,0],[0,3],[1,1],[0,3],[1,1],[2,0]],[[622,600],[0,1]],[[622,601],[1,0],[0,1],[1,0],[0,1],[1,0],[0,1],[4,0]],[[694,646],[1,-1],[1,0],[1,-1],[2,0],[0,-1],[2,0],[0,-1],[1,0],[1,1]],[[583,686],[-1,0],[0,-1],[-5,0],[0,-3],[-2,0],[0,-1],[-1,-1],[-1,0],[0,-1],[-1,0],[-1,-1],[0,-1],[-3,0],[0,-2]],[[567,675],[1,0]],[[568,675],[0,-1],[-1,1]],[[567,675],[0,-1],[-1,0],[1,-1],[-1,0],[0,-1],[-1,0],[-2,-2],[0,-1],[-1,0]],[[562,670],[0,-1]],[[562,669],[-2,-1],[-1,-1],[0,-3],[1,0],[0,-1],[-1,-2],[1,0],[0,-1],[1,-1],[0,-2],[1,-1],[0,-2],[-1,-1],[0,-2],[-1,0],[0,-1],[-1,0],[0,-1]],[[499,654],[-1,0],[-1,-1],[0,1],[-2,0],[0,-2],[-2,0],[-1,-1],[0,1],[-1,1],[0,1],[-1,1],[0,2],[-1,0],[0,1],[-1,0],[0,1],[-1,1],[0,1],[-1,2],[-2,2],[0,1],[-2,2],[-1,0],[1,1],[0,1],[1,0],[0,1],[-1,0],[0,4],[1,0],[0,1],[1,1],[0,1],[1,1],[0,1],[-1,0],[0,5],[1,0],[0,1],[1,1],[1,0],[0,1],[1,1],[1,0],[0,1],[1,1],[2,0],[0,1],[1,1],[0,1],[1,0],[0,3],[1,1],[0,1],[2,2],[1,3],[-1,1],[0,1],[1,0],[-1,2],[-2,2],[-1,0],[-2,-1],[-1,0],[-1,1],[-1,0],[0,1],[1,1],[0,1],[-2,1],[-1,0],[-2,2],[0,3],[1,1]],[[587,727],[1,0],[1,-1],[3,0],[0,1],[3,0],[1,1]],[[596,728],[3,3]],[[599,731],[0,-4],[-1,-1],[0,-3],[-3,0],[1,-3],[1,-1],[0,-1],[1,0],[0,-2],[2,-2],[0,-1],[-1,0],[-1,1],[-2,1],[-3,0],[0,-1],[-1,0],[0,-1],[-1,-1],[0,-2],[-1,-1],[2,-2],[1,0],[-2,-2],[-2,0],[0,1],[-2,0]],[[586,706],[1,0]],[[587,706],[0,-3],[1,0],[0,-3],[2,0],[1,-1],[1,0],[0,-4],[-1,1],[-2,0],[-1,-1],[0,-1],[-1,0],[0,-4],[-1,-1],[0,-1],[-1,-1],[0,-1],[-1,0]],[[584,686],[-1,0]],[[525,573],[0,-6]],[[525,567],[-1,-1],[-1,1],[-1,2],[0,1],[-1,3],[-1,1],[-2,3],[-4,3],[-6,4],[0,1],[-3,2],[-2,0],[-2,2],[-3,0],[0,1],[-3,2],[-9,0],[-3,-1],[-2,0],[0,-1],[-3,0],[0,3],[-1,1],[0,3],[-1,2],[0,2],[1,1],[-1,1],[0,1],[-1,0],[1,1],[0,2],[-1,1],[0,2],[-1,0],[0,1],[-1,0],[0,4],[1,0],[0,1],[1,1],[0,2],[1,0],[0,4],[1,1],[0,2],[1,0],[4,4],[0,1],[1,0],[0,4],[1,0],[0,1],[1,0],[0,3],[-1,1],[2,0],[1,1],[3,0],[0,2],[1,0],[1,1],[0,-1],[1,0],[0,-1],[3,0],[0,5],[1,0],[0,2],[1,0],[0,2],[-1,0],[1,1],[0,1],[1,0],[0,1]],[[499,654],[0,-1],[1,0],[2,-1],[3,0],[0,-2],[-1,-1],[0,-1],[2,0],[0,-1],[7,0],[2,-3],[-1,0],[0,-1],[1,-1],[0,1],[1,0],[1,-1],[2,0]],[[519,642],[0,-1],[1,1],[-1,0]],[[519,642],[2,2],[-1,0],[1,1],[1,-1],[2,0],[0,-2],[1,-1],[1,0],[1,-1],[0,-1],[3,0],[0,-1],[1,0],[0,1],[1,-1],[0,-1]],[[694,646],[-1,0],[-2,-1],[1,-1],[-1,-1],[1,-2],[-1,0],[0,-1],[-1,0],[-1,-1],[-3,0],[-1,-2],[-1,-1],[-1,0],[0,-1],[-1,-1],[0,-2],[-1,-2],[-2,-2],[0,-2],[-1,0],[0,-5],[1,0],[-1,-1],[-3,-1],[0,-2]],[[674,617],[1,0]],[[675,617],[0,-1],[-1,0],[-1,1],[-2,0],[-1,-1],[-1,0],[0,1],[-2,0],[0,1],[-1,0],[0,1],[-4,0],[0,-1],[-1,-1],[0,-2],[-3,0],[0,-1],[-2,0],[-2,1],[-1,1],[-1,0],[0,1],[-1,0],[-1,-1],[0,-1],[-1,0],[0,-1],[-1,-1],[-1,0],[-1,-1],[-2,-1],[-1,0],[-2,-2],[-2,0],[-1,-1],[0,-2],[-1,-1],[0,-1],[-1,-1],[-2,0],[-1,-1],[-2,0],[-2,2]],[[629,604],[-1,1],[0,1],[-1,2],[-1,0],[-1,1],[1,1],[1,0],[-2,1],[0,1],[-1,0],[0,2],[-1,0],[0,1],[-1,0],[0,2],[-3,0],[1,1],[-1,0],[0,1],[2,2],[1,0],[-1,2],[-1,0],[-1,1],[0,2],[1,0],[0,1],[-1,1],[-3,0],[1,2],[0,5],[1,1],[0,2],[-1,2],[0,2],[1,0],[0,1]],[[617,643],[1,0]],[[618,643],[1,1],[-1,0],[0,1],[1,0],[0,2],[1,0],[0,1],[2,2],[0,2],[-1,1],[0,1],[-1,0],[1,1],[0,1],[-1,0],[0,4],[-1,-1],[0,3],[-2,0]],[[617,662],[0,1]],[[617,663],[0,3],[1,0],[1,-1],[4,0],[1,-1],[0,1],[1,-1],[11,0],[0,1],[1,0],[0,2],[5,0],[1,-1],[2,0],[1,-1],[1,1],[1,0],[0,3],[2,-1],[0,-2],[5,0],[0,1],[1,0],[0,1],[1,0],[0,2],[2,1],[1,0],[0,-1],[1,0],[0,-1],[5,0],[1,-1],[1,0],[0,1],[1,0],[2,1],[2,-2],[0,-1],[1,-1],[0,3],[1,0],[0,1],[3,0],[1,-1],[0,1],[1,0],[0,1],[1,0]],[[681,670],[0,1]],[[681,671],[1,1],[1,0]],[[683,673],[0,-1]],[[683,672],[1,0],[0,2]],[[684,674],[1,-1],[1,0],[1,-1],[3,0],[1,1],[2,-2],[0,-3],[-1,-1],[1,0],[0,-1],[4,0],[0,-1],[-1,-1],[1,-1],[0,-4],[1,0],[1,-1],[0,-1],[-1,0],[0,-1],[1,-1],[-1,0],[0,-3],[-1,0],[0,-2],[-1,-1],[-1,0],[0,-1],[-1,-2]],[[552,783],[2,0],[2,-2],[0,-1],[1,0],[1,-1],[-1,0],[0,-1],[1,0],[2,-1],[4,0],[0,1],[2,2],[1,0],[1,1],[2,0],[-1,-2],[0,-1],[-1,0],[1,-1],[-1,0],[1,-1],[0,-1],[-1,0],[1,-1],[0,-1],[1,0],[0,-1]],[[570,772],[-1,-1],[-1,0],[0,-3],[1,-1],[0,-3],[-1,-1],[-1,-3],[0,-3],[1,0],[0,1],[3,0],[0,-1],[1,0],[0,-2],[-1,-1],[0,-4],[1,0],[1,-1],[1,0],[0,1],[1,2],[2,0],[0,-1],[1,0],[0,-1],[-1,0],[0,-1],[1,0],[0,-1],[1,-1],[-1,-1],[0,-4],[-1,0],[0,-1],[-1,0],[0,-2],[2,-2],[1,-2],[1,0],[0,-1],[1,0],[0,-1],[1,0],[1,-1],[0,-1],[1,0],[0,-1],[2,-2],[1,0]],[[587,728],[0,-1]],[[587,727],[-1,0],[0,-1],[-2,0],[-2,-1],[-1,2],[-1,0],[0,-3],[-2,-1],[-1,-1],[-3,0],[0,-1],[-2,2],[-2,0],[-1,-1],[0,-6],[-1,0],[0,-2],[-2,-2],[0,1],[-2,0],[0,1],[-1,0],[-1,1]],[[562,716],[0,-1]],[[562,715],[-1,0],[-1,1],[-2,-2],[1,-1],[0,-1],[-1,-1],[1,-1],[-1,-1],[-2,0],[0,-1],[-2,0],[-1,2],[-1,0],[-1,1],[-2,1],[-1,-1],[0,-1],[-1,0],[-1,-1],[-1,0],[-1,-1]],[[543,708],[1,0]],[[544,708],[0,1],[-2,0],[0,-1],[-2,-2],[0,5],[-2,-1],[0,-1],[-1,0],[-1,-1],[0,-1],[-1,-1],[0,-1],[-1,0],[0,1],[-3,0],[0,1],[-1,1],[-3,1],[0,3],[-1,1],[0,1],[-1,0],[-1,-1],[-3,0]],[[521,714],[0,-1]],[[521,713],[-1,1],[-1,-1],[-1,1],[-1,0],[0,-1],[-1,-1],[-1,1],[-1,0],[1,1],[-3,1],[-1,0],[-1,-1],[-2,0]],[[508,715],[0,-1]],[[508,714],[-1,1],[0,-1],[-1,0],[0,1],[-1,1],[0,1],[1,1],[0,1],[1,1],[0,3],[-1,0],[-1,1],[0,3],[-3,0],[0,-1],[-1,0],[0,1],[-2,0],[-2,1],[0,1],[-1,0],[-2,1],[-1,-2],[1,-1],[1,0],[0,-2],[-1,-1],[0,-1],[-1,0],[0,-1],[-1,1],[0,1],[-1,0],[0,1],[1,0],[1,1],[-1,0],[-1,1],[0,-1],[-1,0],[-2,-2],[0,-1],[1,0],[0,-1],[-1,0],[0,-2],[-1,0],[0,-1],[-1,1]],[[486,720],[-2,1],[0,1],[-2,2],[0,4],[1,0],[-1,1],[0,1],[1,1],[-1,0],[0,1],[-1,0],[-1,1],[-1,0],[0,3],[-2,0],[-1,1],[0,1],[-1,0],[-1,1],[0,1],[-1,0],[0,2],[-1,1],[0,1],[4,0],[0,-1],[5,0],[0,0],[2,0],[0,1],[5,0],[0,-1],[2,0],[0,1],[3,0],[0,-1],[2,1],[1,1],[0,4],[1,1],[0,1],[-1,1],[1,1],[0,1],[2,0],[0,2],[1,0],[0,4],[1,0],[0,3],[1,1],[0,2],[-1,0],[0,2],[-2,2],[0,1],[-1,0],[0,1],[-3,0],[1,1],[-1,0],[0,6],[3,0],[0,2],[1,0],[1,-1],[1,1],[1,0]],[[502,781],[1,-1],[3,0],[1,-1],[0,1],[1,1],[1,0],[0,-1],[1,0],[0,1],[4,0],[0,1],[1,0],[1,1],[0,1],[-1,0],[0,1],[1,0],[0,1],[1,0],[0,1],[2,0],[0,1],[2,0],[1,1],[2,0],[0,2],[1,1],[1,0],[1,1],[1,0],[0,1],[1,0],[1,1],[2,-1],[0,-1],[1,0],[1,-1],[1,0],[0,-2],[2,0],[0,-3],[-1,0],[2,-1],[2,0],[0,-3],[2,0],[0,-1],[2,0],[1,2],[2,2],[0,-1],[1,1],[1,0],[1,-2],[0,-1],[-1,0],[1,-1],[2,0],[0,1]],[[615,590],[0,-1],[1,0],[0,-2],[1,-1],[0,-6],[2,0],[1,-1],[0,-1],[1,0],[1,-1],[0,-1],[3,0],[0,-1],[1,0],[0,-1],[1,0],[0,-1],[1,0],[1,-1],[4,0],[0,-1],[1,0],[0,-1],[3,0],[0,-1],[1,0],[0,-1],[1,0],[0,-2],[1,0],[-1,-1],[0,-2]],[[639,563],[-1,0],[-1,1],[-2,0],[0,-1],[-2,0],[-1,-1],[-1,0],[-2,1],[-4,0],[0,-1],[-1,0],[-3,-1],[-7,0],[-1,1],[-2,0],[0,0],[-1,-1],[0,-1],[-1,-2],[-2,-2],[0,-2],[-1,0],[0,-1],[-3,0],[-1,-1],[0,-2],[-2,-2],[-2,0],[-1,-1],[-1,0],[-4,1],[-1,1],[-2,-1],[-2,0],[0,-1],[-1,0],[-1,-1],[-2,0],[0,-1],[-2,0],[-1,-1],[-1,0],[-1,-1],[-1,0],[-1,-2],[-1,-1],[-1,-3],[0,-1]],[[574,536],[0,1],[-1,0],[-1,1],[-1,-1],[-1,1],[1,0],[-1,1],[0,4],[-1,0],[0,1],[-2,2],[0,3],[-1,0],[0,1],[-3,0],[-1,-1],[0,-1],[-2,0],[-1,1],[-1,0],[0,2],[2,0],[1,-1],[2,1],[0,1],[1,1],[0,1],[1,1]],[[565,556],[0,-1]],[[565,555],[1,1],[2,0],[2,2],[0,1],[1,1],[-1,0],[0,2],[1,0],[0,2],[1,0],[0,1],[-1,1],[-1,0],[0,3],[1,1],[0,1],[1,0],[1,1],[0,-1],[1,0],[1,-1],[0,-1],[1,0],[1,-1],[2,1],[0,1],[1,1],[0,2],[1,0],[0,2],[-1,0],[0,3],[-2,1]],[[600,595],[1,-1],[0,1],[1,0],[0,-1],[1,-1],[-1,-1],[2,0],[0,1],[1,-1],[1,0],[0,1],[2,0],[-1,1],[1,0],[0,1],[1,0],[0,1],[3,0],[0,-1]],[[613,595],[-1,0]],[[612,595],[0,-1],[1,-1],[0,-1],[2,0],[0,-1]],[[615,591],[0,-1]],[[930,867],[0,-1],[-2,0],[-2,-2],[-2,0],[-2,-1],[-1,0],[-2,-2],[-1,0],[-1,-1],[-1,0],[0,-1],[-1,0],[-2,-2],[-2,-1],[-2,0],[-2,-2],[0,-1],[-1,0],[0,-1],[-2,-2],[0,-1],[-1,-1],[0,-2],[-1,-1],[-1,0],[-2,-1],[0,-1],[-7,0],[0,-1],[-1,0],[-1,-1],[-3,0],[-1,-1],[-1,0],[-3,-1],[-2,0]],[[930,867],[0,5],[-2,0],[0,1],[-1,-1],[-1,1]],[[926,872],[0,1]],[[926,873],[-1,0],[0,-1],[-2,0],[-1,-1],[-2,0],[-1,1],[1,0],[-1,1],[0,1],[-2,0],[0,1],[-1,0],[0,1],[-4,0],[-1,1],[0,2]],[[910,879],[1,0]],[[911,879],[0,1],[-1,1],[3,0]],[[913,880],[0,1]],[[913,881],[1,0],[0,1],[1,0],[1,-1],[0,1],[1,0],[0,2],[-1,1],[-1,0],[0,1]],[[916,886],[-1,0]],[[915,886],[0,1],[1,-1]],[[916,886],[1,0],[0,2],[1,0],[0,3],[-1,0],[1,1],[-1,1],[-2,0],[0,-1],[-2,2],[1,1],[-1,0],[-1,1],[-1,0],[-1,-1],[-1,0],[0,1],[-1,1],[-3,0],[0,-1],[-1,0],[0,1],[-1,0],[-1,-1],[0,-1],[-1,0],[-1,1],[0,1],[-2,0],[-1,1],[-1,0]],[[896,898],[-1,1],[0,1]],[[895,900],[-1,-1],[0,2],[1,-1]],[[895,900],[1,0],[0,-2]],[[896,898],[1,1],[2,0],[0,1],[-1,0],[0,2],[-1,0],[0,2],[1,0],[0,2],[1,0],[-2,1],[-2,0],[-1,1],[-1,0]],[[893,907],[0,1]],[[893,908],[-4,0]],[[884,919],[1,0],[0,-1],[2,0],[0,1],[1,-1],[1,0],[0,-1],[2,0],[0,-1],[2,0],[0,-1],[1,0],[0,-3],[2,-2],[2,0],[0,1],[2,0],[0,1],[1,0],[0,2],[1,0],[1,1],[1,-1],[1,0],[1,1],[4,0],[0,-1],[1,0],[1,-1],[3,0],[0,-1],[1,-1],[1,0],[0,-2],[1,0],[0,1],[1,-1],[1,0],[0,1],[5,0],[1,-1],[0,2],[-1,0],[0,1],[1,0],[0,1],[1,1],[1,0],[0,1],[1,0],[1,-1],[1,0],[1,1],[0,1],[1,0],[0,1],[4,0],[0,1],[2,0],[0,-1],[1,1],[1,-1],[0,1],[1,0],[0,-1],[2,-2],[4,0],[0,-1],[-1,-1],[0,0],[1,-1],[-1,0],[0,-1],[1,0],[0,-1],[1,0],[0,0],[2,0],[0,-1],[3,0],[0,-1],[1,0],[-1,-1],[-1,0],[0,-1],[0,0],[0,-2],[-1,0],[0,-1],[-1,0],[0,1],[-1,-1],[-1,0],[0,1],[-1,0],[0,1],[-2,-2],[0,-1],[-1,-1],[0,-3],[1,-1],[0,-1],[1,-1],[0,1],[1,-1],[1,0],[0,-2],[1,0],[0,-1],[-1,0],[0,-4],[2,-2],[0,-1],[-1,0],[0,-3],[-1,0],[0,-1],[-1,0],[0,-1],[-1,0],[0,-1],[-2,0],[-1,-1],[0,-1],[-1,-1],[0,-1],[-1,0],[0,-1],[-2,0],[0,-1],[-1,0],[-1,-1],[0,-1],[-1,0],[0,-1],[-3,0],[-2,-1],[0,-1],[-1,0],[-1,-1]],[[950,891],[0,0]],[[896,896],[1,0],[0,-1],[-1,0],[0,1]],[[895,916],[-1,0],[0,2],[1,0],[0,1],[1,-1],[-1,0],[1,-1],[0,-1],[-1,0]],[[559,649],[0,-1],[1,0],[1,-1],[0,-2],[1,0],[0,-1],[1,-1],[0,-3],[1,-1],[1,0],[0,-1],[1,-1],[0,-4],[1,0],[0,-1],[1,0],[1,-1],[1,0],[0,-1],[-1,-1],[0,-1],[1,-1],[1,0],[0,-5],[-1,0],[0,1],[-1,-1],[-1,0]],[[568,621],[0,1]],[[568,622],[-1,0],[0,-1],[-1,0],[1,-1],[0,-1],[-1,0],[1,-1],[0,-1],[1,0],[1,-1],[0,-1],[1,1],[0,1],[1,0],[0,1],[3,0],[0,1],[1,1],[2,1],[1,0],[0,-1],[2,0],[0,2]],[[579,622],[1,0]],[[580,622],[1,-1]],[[582,620],[-1,0],[0,1]],[[581,621],[0,1],[1,1],[3,0],[0,-2],[1,0],[1,-2],[0,-1],[-1,-1],[2,0],[0,-5],[-1,0],[0,-1],[1,0],[0,-1],[1,0],[0,-2],[1,-1],[0,-1],[2,0],[0,-1],[-1,-1],[1,0],[0,-1],[1,0],[0,-2],[1,-1],[0,-1],[1,1],[2,0],[0,1],[1,0],[1,-1],[0,-1]],[[600,599],[-1,0]],[[599,599],[0,-1]],[[599,598],[1,0],[0,-1]],[[600,597],[-1,1]],[[599,598],[0,-1],[1,0]],[[600,597],[0,-2]],[[600,595],[-3,0],[0,-3],[1,0],[0,-1],[-1,0],[-1,-1],[-1,0],[0,-1],[-1,0],[0,1],[-1,0],[0,1],[-2,0],[0,-1],[-1,-1],[-1,0],[0,1],[-1,0],[-1,-1],[1,-1],[1,0],[0,-2],[-1,-1],[-1,0],[-3,-3],[-1,0],[0,-1],[-3,0]],[[580,580],[0,1]],[[580,581],[-1,0],[0,-1],[-1,-1]],[[578,579],[0,-1],[-1,0],[-3,-3],[-1,2],[0,1],[-1,2],[-1,0],[0,1],[-1,-1],[0,-1],[-1,0],[0,-1],[-1,0],[-2,-2],[0,-1],[-1,0],[0,2],[-1,1]],[[564,578],[1,0],[1,1],[0,3],[-3,0],[0,-1],[-1,0],[2,-2],[0,-1]],[[564,578],[-1,-1],[-1,0],[0,-1],[-2,-2],[1,0],[0,-2],[-2,2],[0,2],[-1,0],[0,-1],[-1,0],[0,1],[-1,0],[-1,1],[0,1],[-1,-2],[0,-2],[-7,0],[0,-1],[-1,-1]],[[546,573],[0,-1]],[[546,572],[-1,-2]],[[545,569],[0,1]],[[545,570],[-3,0],[0,-1],[-3,1],[-3,0],[-2,2],[-3,0],[-1,1],[-1,0]],[[529,572],[0,1]],[[529,573],[-1,0]],[[528,574],[0,-1]],[[528,573],[-2,0]],[[526,573],[-1,0]],[[525,573],[0,1],[-1,0],[0,4],[1,0],[-1,1],[0,3],[-1,2],[1,1],[0,1],[1,0],[0,1],[-1,1],[1,1],[0,4],[-1,1],[1,0],[0,2],[1,2],[-1,0],[-2,2],[1,0],[0,1],[1,0],[0,1],[-1,0],[0,1],[1,0],[-1,1],[2,1],[1,1],[-1,1],[0,1],[-1,1],[0,1],[-1,0],[0,3],[-1,0],[0,4],[-5,0],[0,1],[-1,-1],[-1,1],[1,0],[0,2],[1,0],[0,2],[1,0],[0,2],[3,0],[0,1],[1,0],[3,1],[3,0],[0,-1],[2,0],[0,4],[1,0],[1,-1],[2,0],[0,3],[-1,0],[0,1],[-1,0],[0,1],[1,0],[0,1],[1,1],[-1,0],[0,1],[-1,0],[0,-1],[-1,1],[0,1]],[[532,637],[1,1],[1,0],[0,1],[1,1],[2,0],[1,1],[1,0],[1,-1],[1,1],[1,0],[1,1],[0,2],[1,0],[0,4],[1,1],[1,0],[0,2],[1,0],[0,1],[1,0]],[[548,651],[0,1]],[[548,652],[4,0],[0,1],[1,0],[0,-1],[1,0],[0,-2],[-1,-1],[-1,0],[0,-3],[2,0],[1,1],[0,1],[1,1],[3,0]],[[586,617],[0,0]],[[584,617],[-1,0],[1,-1],[0,1]],[[583,617],[0,1],[1,0],[-1,1],[0,-2]],[[583,618],[-1,1],[-1,0],[1,-1],[1,0]],[[773,631],[0,-2],[1,-1],[-1,0],[0,2],[-1,0],[0,-1],[-1,-1],[0,-2],[-1,0],[-1,-1],[0,-2],[1,-1],[0,-1],[2,-2],[1,0],[1,-1],[1,0],[0,2],[-1,0],[0,2],[1,-1],[0,-1],[1,-1],[0,-1],[-2,-2],[-2,0],[-1,-1],[-3,0],[0,-1],[-1,0],[-1,-1],[-1,1],[0,0],[-1,1],[0,1],[-1,0],[0,-1],[-4,0],[-1,-1],[-1,0],[0,-1],[1,-1],[-1,0],[-2,1],[0,1],[-1,0],[-1,1],[-1,0],[-1,-1],[0,0],[-3,0],[-2,-2],[-1,0],[0,-2],[-2,0],[-1,-1],[0,-1],[-1,-1],[0,-2],[-1,1],[-1,-1],[-1,0],[0,-1],[-2,0],[-1,-2]],[[735,602],[-2,2],[-2,1],[-2,2],[-2,0],[0,-1],[-2,1],[0,1],[-1,1],[-1,2],[-1,1],[0,1],[-2,2],[0,1],[-1,1],[0,2],[-1,0],[0,12],[1,1],[0,1],[-3,0],[0,1],[-2,-1],[-1,1],[0,1],[-1,0],[-1,-1],[-1,0],[0,1],[-1,1]],[[709,636],[-2,1],[0,1],[-1,0],[0,1],[-1,1],[0,1],[-1,0],[0,1],[-1,0],[0,1]],[[703,643],[0,2],[1,0],[0,1],[1,0],[1,2],[1,1],[0,1],[1,1],[0,2],[1,0],[2,2],[2,1],[2,2],[0,1],[1,1],[1,-1],[1,0],[1,-1],[3,1],[1,1],[1,0],[0,1],[1,0],[2,2]],[[727,663],[0,0]],[[727,663],[0,1],[1,0]],[[728,664],[0,0]],[[728,664],[3,0]],[[731,663],[0,1]],[[731,664],[1,-1],[0,-2],[1,0],[0,-1],[3,0],[2,1],[0,1],[1,0],[2,2],[0,9],[-1,1],[1,1],[0,1],[1,1],[1,2],[0,2],[1,2],[1,1],[2,0],[0,-1],[1,0],[3,3],[0,1],[3,1],[1,-1],[2,0],[0,-2],[1,0],[0,-1],[1,-1],[2,-1],[0,-1]],[[776,624],[0,0]],[[775,625],[0,0]],[[774,625],[0,0]],[[774,620],[0,0]],[[774,627],[0,-1],[-1,1],[0,1],[1,-1]],[[773,622],[-1,0],[1,1],[0,-1]],[[772,622],[-1,0],[1,1],[0,-1]],[[569,511],[1,0],[1,-1],[0,1],[1,0],[-1,-1],[-1,0],[0,-1],[-1,0],[-1,1],[0,2],[1,0],[0,-1]],[[566,512],[0,0]],[[699,466],[-1,0],[1,1]],[[699,467],[0,-1]],[[677,473],[0,0]],[[677,472],[-1,0],[-1,1],[0,2],[1,0],[0,-1],[1,-1],[-1,0],[1,-1]],[[11,13],[1,-1],[0,-2],[-1,-1],[0,-1],[-1,-1],[0,-1],[-1,0],[0,-3],[-1,-1],[0,-2],[-1,0],[0,1],[-1,2],[-1,0],[-3,1],[-1,0],[-1,1],[0,2],[1,1],[1,0],[0,-1],[2,0],[1,1],[1,0],[2,2],[0,1],[-1,0],[2,2],[2,0]],[[40,35],[3,0],[0,-1],[1,-1],[1,0],[0,-1],[1,0],[1,-1],[0,-3],[-4,-4],[-4,0],[0,1],[-1,0],[0,1],[-1,0],[0,2],[-1,0],[0,4],[1,0],[0,3],[2,0],[0,1],[1,0],[0,-1]],[[884,919],[0,-3],[1,-1],[2,0],[0,-4],[1,0],[0,1],[1,-1]],[[889,912],[0,-1]],[[889,911],[0,-3]],[[889,908],[0,-1]],[[889,907],[-2,0],[-1,-1],[-5,0],[1,-1],[0,-2],[1,0],[-1,-1],[0,-1],[1,-1],[1,0],[0,-2],[-1,0],[0,-3],[1,0],[0,-1],[-1,0]],[[883,893],[0,1]],[[883,894],[-1,0],[0,-1],[-1,-1],[0,-1],[1,0],[0,-1]],[[883,890],[-1,0]],[[882,890],[-1,-1],[0,1],[-1,-2],[2,0],[0,1],[1,-1],[0,-1],[-1,-1],[-1,1],[-1,0],[0,-3],[-1,-1],[0,-1],[-1,0],[0,-1]],[[877,882],[0,-1],[1,0]],[[878,881],[1,0],[0,-4],[-1,0],[0,-2],[-1,-1],[0,1],[-1,0],[0,-2],[-1,0],[0,1],[-1,0],[0,1],[-1,0],[0,-1],[-1,0],[0,2],[-2,0],[0,-2],[-1,-1],[1,-1],[0,-1],[-1,-1],[0,-1],[1,0],[0,-2],[1,0],[0,-2],[-1,1],[-1,0],[0,-1],[-1,0],[-1,-1],[3,0],[0,-1],[-1,0],[0,-1]],[[824,844],[-1,1],[0,3],[1,0],[-3,3],[1,1]],[[822,852],[0,2],[1,0],[0,1],[-1,0],[0,2],[3,0],[0,1],[1,0],[0,2],[1,0],[0,1],[-1,0],[0,3],[-1,-1],[-2,1],[-1,1],[1,0],[0,1],[-1,0],[0,1],[-1,1],[1,0],[0,2],[1,0],[0,1],[1,0],[0,1],[1,0],[0,1],[2,1],[1,0],[0,2],[1,0],[0,1],[2,0],[0,1],[1,0],[0,1],[1,0],[0,1],[1,0],[0,1],[-1,0],[1,1],[0,1]],[[833,883],[1,0]],[[834,883],[-1,1],[-1,0],[0,1],[1,1],[1,0],[0,2],[1,0],[1,-1],[0,4],[1,0],[0,3],[1,0],[0,4],[1,0],[-1,1],[0,1],[1,1]],[[838,901],[1,0]],[[839,901],[0,2],[1,1],[0,3],[1,0],[0,1],[-1,1],[1,1],[-1,0],[-1,1],[1,0],[0,2],[-1,0],[1,1],[-2,2],[0,3],[1,0],[1,1],[-1,0],[0,1],[1,1],[1,2],[0,2],[-2,0],[-1,1],[0,2],[-2,2]],[[836,931],[1,0],[0,3],[-1,1],[0,1],[0,0],[0,2],[1,0],[0,1],[-1,1],[1,1],[1,0],[0,1],[4,-2],[2,0],[1,-1],[1,0],[2,-2],[1,1],[1,0],[1,-1],[4,0],[0,-1],[2,0],[0,-3],[2,-1],[1,1],[7,0],[0,-1],[1,-1],[1,0],[0,-2],[1,0],[0,-2],[1,0],[0,-2],[-1,-1],[1,0],[0,-1],[-1,0],[0,-2],[1,1],[1,-2],[-1,-1],[-1,0],[0,-1],[1,0],[0,-3],[5,0],[0,2],[1,0],[0,0],[4,0],[0,2],[2,0],[1,1],[0,-1]],[[882,895],[0,0]],[[883,881],[0,1],[1,0],[-1,-1]],[[880,839],[-1,-1],[-4,0],[-2,-1],[-1,0],[-2,-2],[-2,0],[-1,-1],[-2,0],[-2,-1],[0,0],[-2,0],[-1,-1],[0,-1],[-1,0],[0,-1],[-1,0],[0,1],[-2,0],[-1,-1],[0,1],[-1,0],[0,-1],[-2,0],[0,-1],[-1,0],[-5,-5],[0,-1],[-1,0],[0,-1],[-1,-1],[0,-1],[-1,0],[0,-1],[-1,0],[0,-1],[-1,0],[0,-1],[-1,0],[0,-2],[-2,0],[0,-2],[1,0],[0,-1],[3,0],[-1,1],[-1,0],[0,1],[1,0],[1,-1],[1,-2],[2,-2],[1,1],[0,-2],[-2,-2],[-2,0],[0,-1],[-1,0],[0,-1],[-4,0],[0,-1],[-3,0],[-3,-3],[0,-1],[-1,-1],[0,-1]],[[814,811],[1,-1]],[[815,810],[0,1],[1,1],[1,0],[0,1],[1,0],[0,1],[1,1],[0,1],[-1,2],[0,4],[1,0],[0,1],[1,1],[0,2],[-1,0],[0,2],[-1,1],[-1,0],[0,2]],[[817,831],[0,1],[-1,0],[0,2],[1,1],[1,0],[0,1],[1,0],[1,1],[1,0],[0,3],[1,0],[0,1],[1,-1],[0,1],[1,0],[0,3]],[[824,844],[2,-1],[0,3],[2,1],[0,-1],[1,-1],[0,-1],[1,0],[0,1],[1,0],[0,1],[1,1],[0,-1],[1,0],[0,-1],[1,0],[1,-1],[1,1],[1,0],[0,1],[3,0],[0,1],[3,0],[1,1],[0,1],[1,0],[0,-2],[1,1],[3,0],[1,1],[0,1],[1,1],[1,0],[1,1],[0,1],[1,1],[0,1]],[[855,855],[-1,0]],[[854,855],[-1,1],[1,1]],[[853,857],[1,0]],[[854,857],[1,-1],[1,0],[0,-1],[1,1],[1,0],[1,1],[0,3],[2,0],[0,2],[6,0],[1,-1],[1,0],[0,1]],[[869,862],[3,0],[-1,-1],[0,-1],[-1,-1],[0,1],[-1,-1],[0,-1],[1,0],[1,-1],[1,0]],[[872,856],[0,1]],[[872,857],[1,0],[0,-3]],[[872,854],[1,0]],[[873,854],[0,-3]],[[872,850],[1,0],[0,1]],[[873,851],[2,0],[0,-1],[1,0],[0,-1],[1,0],[0,-1],[-1,0],[1,-1],[0,-1],[1,0],[0,-1],[1,-1]],[[879,844],[0,1],[1,0],[-1,-1]],[[879,844],[0,-2],[-1,0],[-1,1],[0,-2],[2,0],[0,-1],[1,1],[0,-2]],[[880,846],[0,0]],[[862,833],[0,0]],[[839,801],[-2,-2],[-3,0],[0,1],[0,0],[0,1],[5,0]],[[90,58],[1,-1],[-1,-1],[0,-1],[-1,0],[0,-1],[-1,0],[-1,-1],[-1,0],[-1,-1],[0,-2],[-1,0],[0,-1],[-1,0],[-1,-1],[0,-1],[-1,0],[-1,-1],[0,-5],[-1,-1],[0,-1],[-1,-1],[0,-2],[-1,0],[0,-5],[-1,0],[0,-1],[-1,0],[0,-2],[-1,0],[0,-1],[-1,0],[0,-1],[-1,-1],[0,-1],[-3,0],[-1,-1],[-1,0],[-1,-1],[-1,1],[0,1],[-2,2],[0,2],[-1,1],[-2,3],[0,2],[-1,0],[0,2],[-1,1],[1,1],[0,1],[-1,0],[0,1],[-1,1],[0,1],[-1,0],[0,1],[-1,1],[0,1],[1,0],[2,1],[1,1],[1,-1],[2,0],[1,-1],[0,1],[2,0],[0,1],[5,0],[1,1],[2,0],[1,1],[0,0],[1,1],[0,1],[1,0],[0,1],[1,0],[0,2],[2,2],[1,0],[1,1],[0,1],[4,0],[1,-1],[1,1],[1,0],[1,1],[1,-1]],[[805,696],[1,-1],[2,-1],[3,0],[2,-2],[0,0],[1,0],[0,-1],[2,0],[-1,-1],[0,-1],[1,-1],[1,0]],[[817,687],[0,-1],[-1,0],[-1,-1],[-1,0],[0,-2],[-2,0],[-2,-2],[0,0],[-1,-1],[-3,0],[0,-1],[-1,-2],[-1,0],[0,-1],[1,0],[-1,-1],[0,-1],[-1,-1],[-1,1],[-2,0],[0,-1],[-2,0],[-1,-1],[-1,0],[-1,-1],[-1,0],[-2,-2],[-2,-1],[0,-1],[-1,-1],[0,-3],[-2,0],[-2,-1],[-1,-2],[0,-7],[-3,0],[-1,-1],[0,-1],[-1,0],[0,-2],[-1,-5],[0,-4],[-1,-1],[-1,0],[0,-2],[-1,0],[0,-1],[-1,-1],[0,-2],[-1,0],[0,-2]],[[773,631],[-1,0],[0,1],[-2,0],[0,1],[-1,0],[0,1],[-3,3],[0,1],[-1,1],[-1,2],[0,1],[-1,1],[0,1],[-1,1],[0,1],[-1,1],[0,3],[1,1],[0,1],[1,1],[1,3],[0,3],[-1,1],[0,1],[-2,1],[-2,0],[0,6]],[[758,668],[1,0]],[[759,668],[2,2],[1,2],[-1,1],[1,1],[0,7],[-1,0]],[[761,681],[1,1],[1,0],[0,-1],[1,0],[0,1],[1,0],[0,1],[1,0],[0,2],[-1,1],[0,1],[-1,2],[2,0]],[[817,687],[0,1]],[[801,672],[0,0]],[[786,651],[0,0]],[[838,758],[-1,0],[1,1],[0,-1]],[[815,810],[1,0],[0,-1],[1,1],[0,-1],[1,-1],[1,0],[1,-1],[-1,-2],[0,-1],[1,-1],[1,0],[1,-1],[3,0],[0,-1],[1,0],[1,-1],[-1,0],[0,-2],[2,0],[2,-1]],[[830,797],[-1,-1],[0,-2],[-2,-2],[0,-1],[-1,-1],[0,-1],[-1,-1],[0,-1],[-1,-1],[0,-1],[-1,0],[0,-2],[-1,0],[0,-1],[-1,0],[0,-1],[-1,-1],[-1,0],[0,-2],[-1,-1],[-1,0],[-2,-2],[-1,-3],[0,-2],[-1,0],[0,-1],[-1,-1],[-1,0],[-2,-1],[0,-2],[-1,-2],[-1,-1],[0,-3],[-3,-3],[-1,0],[0,-1],[-1,-2],[-2,-3],[0,-1],[-1,0],[0,-2]],[[772,757],[-2,2],[0,2],[-1,0],[1,1],[0,1],[1,0],[0,1],[1,0],[0,1],[1,0],[0,2],[4,0],[0,1],[1,1],[2,0],[0,1],[-1,0],[0,1],[2,2],[0,1],[1,0],[0,4],[1,2],[1,-1],[3,0],[1,1],[2,1],[0,1],[-1,1],[1,0],[0,1],[1,0],[0,1],[1,0],[0,1],[1,0],[0,1],[2,0],[-1,1],[0,1],[-1,0],[0,2],[-1,0],[0,2],[2,0],[0,1],[1,0],[0,2],[-1,0],[0,7],[-1,-1],[-1,0],[-1,1],[-1,0],[0,1],[1,1],[-1,0],[0,1],[1,0],[0,1],[2,0],[0,-2],[2,2],[1,0],[0,1],[1,0],[0,1],[-1,0],[1,1],[0,1],[1,1],[0,1],[3,0],[0,-2],[1,0],[2,-1],[1,0],[1,-1],[0,1],[2,0],[0,-2],[1,0],[0,-1],[1,1],[0,1],[2,1],[0,-1],[2,0],[1,1]],[[772,757],[1,0],[0,-2],[1,-1],[0,-1],[1,0],[0,1],[1,0],[0,1],[2,0],[0,-6],[3,0],[0,2],[1,1],[1,0],[2,-2],[0,-1],[2,-2],[0,1],[1,0],[0,1],[1,0],[1,1],[0,2],[3,0],[2,-2],[0,-1],[1,0],[1,-1],[1,0],[1,-1]],[[799,747],[-1,0],[0,-4],[-1,0],[0,-1],[-1,0],[0,-1],[-1,-1],[0,-2],[-1,-1],[0,-1],[-1,0],[0,-5],[0,0],[0,-1],[-1,0],[0,-1],[1,-2],[1,-4],[2,-6],[1,-1],[0,-2],[-1,-1],[0,-2],[1,-1],[0,-1],[1,-3],[1,-1],[1,-2],[0,-1],[1,-1],[0,-1],[1,0],[0,-1],[3,-3]],[[805,696],[0,-1],[1,0],[0,-1],[-1,0],[-1,1],[0,1],[-1,-1],[-1,0],[-1,-1],[-1,0],[0,1]],[[800,696],[0,-1]],[[800,695],[-2,0],[0,-1],[-3,0],[-1,1],[-1,0],[0,-1],[-2,0],[0,-1],[-2,0],[0,-1],[-2,0],[0,-1],[-5,0],[-1,-1],[0,-1],[1,-1],[2,0],[0,-1],[-2,-2],[-1,0],[0,-1],[-1,0],[0,-1],[-1,0],[0,2],[-1,1],[-1,0],[-1,1],[0,-1],[-1,1]],[[775,688],[0,-1]],[[775,687],[-1,0],[0,1],[-1,-1],[-2,0],[-1,-1],[0,1],[-1,0],[0,1],[-1,1],[-1,-1],[-1,1]],[[766,689],[0,4],[-1,0],[0,1],[1,0],[0,2],[-1,1],[0,1],[-1,0],[0,1],[-1,0],[0,1],[-1,0],[0,-1],[-3,0],[-1,-1],[-2,0],[0,1],[-1,1],[-2,4],[-1,0],[-1,1],[0,4],[1,1],[0,2],[1,0],[0,1],[1,0],[0,3],[1,0],[0,6],[-1,0],[0,1],[-1,0],[0,-1],[-1,1],[-3,0],[0,1],[-1,0],[0,-1],[-1,1],[-1,0],[0,1],[-1,0],[-1,1]],[[745,726],[-1,0]],[[744,726],[0,-1],[-1,0]],[[743,725],[1,1]],[[744,726],[-1,0]],[[743,726],[0,-1]],[[743,725],[-1,0],[1,1]],[[743,726],[-1,0],[0,1]],[[741,727],[1,0]],[[742,727],[0,1],[-1,0],[0,1],[-1,0]],[[740,729],[0,0]],[[740,729],[-1,0],[0,1]],[[739,730],[0,0]],[[739,730],[0,1],[1,0],[0,6]],[[739,737],[1,0]],[[740,737],[0,1],[2,0],[0,1],[1,1],[0,2],[2,2],[0,1],[3,0],[0,-1],[2,0],[0,1],[1,1],[0,2],[-1,0],[1,2],[1,1],[1,2],[0,2],[1,0],[0,5],[-1,0],[0,1],[1,1],[2,0],[0,1]],[[756,763],[1,0]],[[757,762],[0,1]],[[757,763],[8,0],[2,-2],[0,-1],[-1,0],[1,-2],[0,-1],[-1,0],[2,-2],[1,0],[0,1],[1,1],[2,0]],[[755,765],[-2,0],[-1,-1],[-1,0],[0,1],[-2,0],[-1,1],[-1,0],[0,-1],[-1,0],[0,2],[-1,0],[0,2],[-1,0],[0,2],[-2,2],[1,1]],[[743,774],[0,-1],[5,0],[0,3],[1,1]],[[749,777],[0,1],[1,-1],[-1,0]],[[749,777],[1,-1],[0,-1],[1,-1],[1,0],[0,-1],[-1,-1],[1,0],[2,-1],[1,1],[1,0],[3,-3],[0,-2],[-2,-1],[-1,0],[-1,-1]],[[875,710],[0,-1],[3,0],[0,-4],[1,0],[0,-1],[-1,1],[0,-1],[-1,0],[0,-2],[-2,0],[0,-3],[-1,0],[-2,-2],[0,0],[-2,0],[0,-1],[-1,-1],[1,0],[-1,-2],[0,0],[-1,0],[0,1],[-1,0],[0,1],[-1,0],[0,-1],[-1,1],[0,0],[-2,0],[0,-1],[-1,0],[0,1],[-1,0],[0,3],[1,0],[0,1],[-1,1],[0,1],[4,0],[0,1],[-1,0],[0,1],[1,0],[0,1],[-1,0],[0,1],[1,0],[1,1],[1,0],[0,1],[1,0],[1,1],[0,-1],[1,1],[1,0],[1,1],[1,0],[0,0],[1,0],[0,1],[1,0]],[[871,688],[0,0]],[[870,692],[0,0]],[[874,683],[2,0],[1,1],[0,-3],[-2,0],[-2,2],[-2,0],[0,-1],[-1,0],[-1,-1],[0,1],[-1,1],[0,1],[1,0],[-1,1],[1,1],[1,0],[0,1],[1,0],[0,-1],[1,0],[1,-1],[0,-1],[1,-1]],[[871,689],[0,0]],[[870,690],[1,-1],[-1,0],[0,1]],[[872,690],[1,1],[0,-1],[-1,0]],[[870,691],[0,0]],[[860,694],[0,1],[1,0],[-1,-1]],[[861,695],[0,0]],[[872,697],[0,0]],[[860,700],[0,0]],[[861,701],[0,0]],[[859,701],[0,0]],[[877,709],[1,0],[0,-4],[1,0],[0,-1],[-1,1],[0,-1],[-1,0],[0,-2],[-2,0],[0,-3],[-1,0],[-2,-2],[0,0],[-2,0],[0,-1],[-1,-1],[1,0],[-1,-2],[0,0],[-1,0],[0,1],[-1,0],[0,1],[-1,0],[0,-1],[-1,1],[0,0],[-2,0],[0,-1],[-1,0],[0,1],[-1,0],[0,3],[1,0],[0,1],[-1,1],[0,1],[4,0],[0,1],[-1,0],[0,1],[1,0],[0,1],[-1,0],[0,1],[1,0],[1,1],[1,0],[0,1],[1,0],[1,1],[0,-1],[1,1],[1,0],[1,1],[1,0],[0,0],[1,0],[0,1],[1,0],[0,-1],[2,0]],[[861,702],[0,0]],[[880,705],[0,0]],[[937,711],[0,0]],[[938,711],[-1,0],[0,1],[1,0],[0,1],[1,0],[0,-1],[-1,-1]],[[939,713],[0,0]],[[939,715],[0,-1],[-1,0],[1,1]],[[939,715],[0,0]],[[910,739],[1,1],[0,-1],[-1,0],[0,0]],[[941,721],[0,1]],[[941,722],[-1,0],[0,2],[-1,1],[-8,0],[0,1],[-1,1],[-1,0],[0,4],[-1,0],[0,2],[1,0],[0,2],[-1,0],[0,1],[-1,0],[-2,2],[-1,0],[0,-1],[-2,0],[0,-1],[-1,0],[-1,-1],[0,-2],[-1,-1],[0,-1],[-1,0],[0,1],[-1,0],[0,1],[-1,1],[1,0],[0,1],[-1,1],[-1,-1],[0,1],[-1,0],[-1,-1],[0,1],[0,0],[0,1],[-2,2],[2,2],[1,0],[1,1],[0,1],[2,0],[0,1],[1,0],[0,1],[1,1],[2,0],[1,1],[0,1],[1,0],[0,1],[2,2],[1,0],[0,1],[1,0],[0,1],[1,0],[0,1],[2,0],[0,1],[1,1],[3,0],[0,1],[1,0],[1,1],[1,0],[0,1],[1,0],[0,1],[1,-1],[1,0],[0,1],[2,1],[0,-1],[2,0],[1,1],[0,-1],[1,0],[0,1],[1,1],[3,0],[-1,-1],[-1,0],[-1,-1],[-1,0],[0,-1],[-2,0],[0,-2],[1,-1],[2,0],[0,1],[2,0],[0,-2],[-1,0],[-1,-1],[-1,1],[0,-3],[3,-3],[2,-1],[1,0],[1,1],[1,0],[0,1],[1,0],[0,1],[1,1],[1,-1],[0,-1],[2,0],[0,-1],[2,0],[0,-1],[-1,0],[0,-1],[1,0],[0,-2],[-1,0],[1,-1],[0,-1],[-1,0],[0,-1],[-2,0],[0,-1],[-1,-1],[1,-1],[0,-1],[-1,0],[0,-1],[-1,-1],[-1,0],[0,-1],[-2,-2],[0,-4],[-1,-1],[0,0],[-1,-2],[0,-1],[-1,0],[-1,-1],[0,-1],[-2,0],[-1,-1],[-1,0],[0,-1],[-1,-2],[-1,0],[-1,1],[0,1],[-1,0]],[[998,752],[0,0]],[[990,768],[0,0],[0,-2],[1,1],[0,2],[1,0],[0,-3],[1,0],[0,0],[1,0],[0,-1],[2,0],[0,-3],[1,-1],[0,-1],[1,-1],[0,-1],[1,-1],[-1,0],[0,1],[-1,0],[0,0],[1,-1],[0,-4],[-3,0],[0,1],[-2,0],[-1,2],[-3,1],[0,1],[-1,0],[-2,2],[-3,0],[0,1],[-1,0],[0,-1],[-5,0],[0,4],[-1,0],[0,3],[1,1],[9,0],[0,1],[1,-1],[1,0],[1,1],[0,-2],[1,1]],[[997,762],[0,0]],[[994,766],[0,0]],[[988,770],[0,0]],[[12,11],[0,-1],[-1,-1],[0,-1],[-1,-1],[0,-1],[-1,0],[0,-3],[-1,-1],[0,-2],[-1,0],[0,1],[-1,2],[-1,0],[-3,1],[-1,0],[-1,1],[0,2],[1,1],[1,0],[0,-1],[2,0],[1,1],[1,0],[2,2],[0,1],[-1,0],[2,2],[2,0],[1,-1],[0,-1]],[[41,35],[2,0],[0,-1],[1,-1],[1,0],[0,-1],[1,0],[1,-1],[0,-3],[-4,-4],[-4,0],[0,1],[-1,0],[0,1],[-1,0],[0,2],[-1,0],[0,4],[1,0],[0,3],[2,0],[0,1],[1,0],[0,-1],[1,0]],[[90,56],[0,-1],[-1,0],[0,-1],[-1,0],[-1,-1],[-1,0],[-1,-1],[0,-2],[-1,0],[0,-1],[-1,0],[-1,-1],[0,-1],[-1,0],[-1,-1],[0,-5],[-1,-1],[0,-1],[-1,-1],[0,-2],[-1,0],[0,-5],[-1,0],[0,-1],[-1,0],[0,-2],[-1,0],[0,-1],[-1,0],[0,-1],[-1,-1],[0,-1],[-3,0],[-1,-1],[-1,0],[-1,-1],[-1,1],[0,1],[-2,2],[0,2],[-1,1],[-2,3],[0,2],[-1,0],[0,2],[-1,1],[1,1],[0,1],[-1,0],[0,1],[-1,1],[0,1],[-1,0],[0,1],[-1,1],[0,1],[1,0],[2,1],[1,1],[1,-1],[2,0],[1,-1],[0,1],[2,0],[0,1],[5,0],[1,1],[2,0],[1,1],[0,0],[1,1],[0,1],[1,0],[0,1],[1,0],[0,2],[2,2],[1,0],[1,1],[0,1],[4,0],[1,-1],[1,1],[1,0],[1,1],[2,-2],[-1,-1]],[[62,46],[0,0]],[[89,59],[0,0]],[[12,74],[4,0],[0,1],[1,-1],[0,-1],[1,-1],[0,-2],[1,-1],[0,-2],[-1,-1],[0,-1],[-1,-1],[0,-1],[1,0],[0,-5],[-2,-4],[-1,-1],[0,-2],[-1,-1],[0,1],[-1,1],[0,2],[-1,2],[0,2],[-1,0],[0,1],[-1,0],[0,1],[-1,3],[0,2],[-1,1],[0,1],[-1,1],[0,4],[1,0],[0,1],[1,0],[0,1],[1,0],[0,1],[1,0],[1,-1]],[[208,99],[3,-3],[-1,-2],[-1,-1],[0,-6],[-1,-1],[1,0],[0,-1],[-1,0],[0,-1],[-1,0],[-2,-2],[-2,-1],[-1,0],[0,-1],[-1,0],[0,-1],[-4,0],[-1,-1],[0,-2],[-2,-2],[0,1],[-1,0],[0,1],[-1,-1],[-1,1],[0,-1],[-1,1],[0,1],[2,2],[0,6],[1,1],[0,1],[1,0],[2,2],[2,0],[0,1],[1,0],[0,1],[1,0],[0,1],[1,0],[0,0],[1,0],[0,1],[1,0],[0,-1],[1,0],[1,-1],[0,1],[1,1],[0,2],[1,0],[0,3]],[[208,99],[-1,-1]],[[207,98],[-2,0],[0,1],[1,0],[0,2],[1,1],[1,-1],[0,-2]],[[206,102],[-1,0],[0,1],[1,0],[0,-1]],[[206,108],[0,2],[1,0],[0,-1],[0,0],[0,-1],[-1,0]],[[122,30],[0,-5],[1,0],[0,-1],[1,-2],[0,-1],[-1,0],[0,-1],[1,0],[0,-2],[-1,0],[0,-5],[-1,0],[0,-2],[-1,-1],[-2,0],[-1,-1],[-1,0],[0,-1],[-2,0],[0,-2],[-2,0],[0,1],[-3,0],[0,1],[-1,0],[0,1],[-1,0],[0,1],[-1,0],[0,1],[-1,0],[-1,1],[0,2],[-1,2],[-1,1],[0,1],[1,1],[-1,1],[0,1],[1,1],[0,1],[1,0],[1,1],[0,1],[1,0],[0,1],[1,0],[0,1],[1,0],[0,6],[1,0],[0,-1],[1,0],[0,1],[1,0],[2,-2],[2,0],[1,1],[1,-1],[1,0],[0,-1],[1,0],[1,1],[0,2],[1,1],[0,-3],[-1,0],[0,-1],[1,0]],[[191,68],[1,-1],[0,-3],[1,-5],[-1,-1],[0,-1],[1,0],[-1,-1],[0,-2],[-1,-1],[0,-4],[1,-1],[0,-1],[-1,0],[-1,-3],[0,-2],[-1,0],[0,-4],[-1,0],[0,-1],[-1,-1],[-2,0],[-1,-1],[-2,0],[-2,-1],[-2,0],[0,-1],[-2,0],[-2,-2],[-1,-3],[-2,-1],[0,-2],[-1,0],[-1,1],[-2,0],[-2,1],[-2,0],[0,2],[2,0],[6,2],[0,1],[1,0],[0,1],[2,1],[0,1],[1,1],[0,2],[1,0],[0,1],[-1,1],[1,1],[0,2],[1,1],[0,1],[1,0],[0,4],[1,1],[1,2],[1,1],[0,1],[1,2],[0,1],[1,1],[0,3],[1,0],[0,6],[1,-1],[0,1],[1,1],[2,0],[0,1],[2,0],[0,-1],[1,0]],[[193,68],[-1,0],[0,1],[1,1],[0,-2]]]}